{
    "id": "arezzo-bitcoin-meetup",
    "name": "Arezzo Bitcoin Meetup",
    "lng": 43.4632928,
    "lat": 11.8800925,
    "localita": "Arezzo",
    "idlocalita": "arezzo",
    "telegram_weburl": "https://web.telegram.org/a/#-1001962833058",
    "telegram_app": "https://t.me/arezzobitcoinmeetup",
    "telegram_members": 106.0,
    "network": "meetup.com",
    "poi": [
        {
            "type": "node",
            "id": 226936831,
            "lat": 43.7709971,
            "lon": 11.4295043,
            "timestamp": "2025-09-30T07:01:09Z",
            "version": 13,
            "changeset": 172645506,
            "user": "btcitnet",
            "uid": 22525435,
            "tags": {
                "addr:city": "Pontassieve",
                "addr:postcode": "50065",
                "addr:street": "Strada Statale 67 Toscoromagnola",
                "amenity": "fuel",
                "brand": "Q8",
                "brand:wikidata": "Q1634762",
                "brand:wikipedia": "en:Kuwait Petroleum Corporation",
                "fuel:GTL_diesel": "yes",
                "fuel:diesel": "yes",
                "fuel:lpg": "yes",
                "fuel:octane_100": "yes",
                "fuel:octane_95": "yes",
                "name": "Q8",
                "operator": "P.B.S. di Pasquini Mauro, Baggiani Leonardo e Smorti Fabio S.N.C.",
                "ref:mise": "4662",
                "source": "MISE - Ministero Sviluppo Economico"
            }
        },
        {
            "type": "node",
            "id": 227728074,
            "lat": 43.453731,
            "lon": 11.885461,
            "timestamp": "2025-09-30T20:14:13Z",
            "version": 11,
            "changeset": 172677803,
            "user": "btcitnet",
            "uid": 22525435,
            "tags": {
                "addr:city": "Arezzo",
                "addr:postcode": "52100",
                "addr:street": "Via Benedetto da Maiano",
                "amenity": "fuel",
                "brand": "Q8",
                "brand:wikidata": "Q1634762",
                "brand:wikipedia": "en:Kuwait Petroleum Corporation",
                "fuel:GTL_diesel": "yes",
                "fuel:diesel": "yes",
                "fuel:octane_100": "yes",
                "fuel:octane_95": "yes",
                "name": "Q8",
                "name:en": "Q8",
                "name:it": "Q8",
                "opening_hours": "PH,Mo-Su 00:00-24:00",
                "operator": "Servizi & Gestioni Italia S.R.L.",
                "ref:mise": "11467",
                "source": "MISE - Ministero Sviluppo Economico",
                "wheelchair": "yes"
            }
        },
        {
            "type": "node",
            "id": 227728079,
            "lat": 43.4628461,
            "lon": 11.8485296,
            "timestamp": "2025-09-30T07:36:38Z",
            "version": 12,
            "changeset": 172646716,
            "user": "btcitnet",
            "uid": 22525435,
            "tags": {
                "addr:city": "Arezzo",
                "addr:housenumber": "175",
                "addr:postcode": "52100",
                "addr:street": "Via Pietro Calamandrei",
                "amenity": "fuel",
                "brand": "Q8",
                "brand:wikidata": "Q1634762",
                "fuel:GTL_diesel": "yes",
                "fuel:diesel": "yes",
                "fuel:octane_100": "yes",
                "fuel:octane_95": "yes",
                "name": "Q8",
                "operator": "Servizi & Gestioni Italia S.R.L.",
                "ref:mise": "11466",
                "source": "MISE - Ministero Sviluppo Economico"
            }
        },
        {
            "type": "node",
            "id": 228031244,
            "lat": 43.1310362,
            "lon": 11.856523,
            "timestamp": "2025-09-30T21:22:04Z",
            "version": 6,
            "changeset": 172679864,
            "user": "btcitnet",
            "uid": 22525435,
            "tags": {
                "addr:city": "Montepulciano Stazione",
                "addr:housenumber": "17",
                "addr:postcode": "53045",
                "addr:street": "Via Caserta",
                "amenity": "fuel",
                "brand": "Tamoil",
                "brand:wikidata": "Q706793",
                "name": "Tamoil",
                "operator": "Bernardi Elisa",
                "ref:mise": "17232"
            }
        },
        {
            "type": "node",
            "id": 228198981,
            "lat": 43.7070473,
            "lon": 11.3995994,
            "timestamp": "2025-09-30T07:39:59Z",
            "version": 12,
            "changeset": 172646840,
            "user": "btcitnet",
            "uid": 22525435,
            "tags": {
                "addr:city": "Rignano Sull'Arno",
                "addr:postcode": "50067",
                "addr:street": "Strada Provinciale Aretina per San Donato",
                "amenity": "fuel",
                "brand": "Tamoil",
                "brand:wikidata": "Q706793",
                "fuel:diesel": "yes",
                "fuel:octane_95": "yes",
                "name": "Tamoil",
                "operator": "T.D.M. S.R.L.",
                "ref:mise": "49747",
                "self_service": "yes",
                "source": "MISE - Ministero Sviluppo Economico"
            }
        },
        {
            "type": "node",
            "id": 228210769,
            "lat": 43.444433,
            "lon": 11.8570614,
            "timestamp": "2025-09-30T07:41:28Z",
            "version": 11,
            "changeset": 172646905,
            "user": "btcitnet",
            "uid": 22525435,
            "tags": {
                "addr:city": "Arezzo",
                "addr:housenumber": "222",
                "addr:postcode": "52100",
                "addr:street": "Via Romana",
                "amenity": "fuel",
                "brand": "Q8",
                "brand:wikidata": "Q1634762",
                "brand:wikipedia": "en:Kuwait Petroleum Corporation",
                "compressed_air": "no",
                "fuel:GTL_diesel": "yes",
                "fuel:diesel": "yes",
                "fuel:octane_95": "yes",
                "name": "Q8",
                "opening_hours": "Mo-Su,PH 00:00-00:00",
                "operator": "Eurocarburanti Q 8 S.R.L.",
                "ref:mise": "8520",
                "self_service": "yes",
                "source": "MISE - Ministero Sviluppo Economico"
            }
        },
        {
            "type": "node",
            "id": 385039731,
            "lat": 43.3298845,
            "lon": 11.3176447,
            "timestamp": "2024-07-04T09:25:49Z",
            "version": 5,
            "changeset": 153535634,
            "user": "DabMK",
            "uid": 17965418,
            "tags": {
                "addr:city": "Siena",
                "addr:housenumber": "60;62",
                "addr:postcode": "53100",
                "addr:street": "Viale Goffredo Mameli",
                "brand": "Conad City",
                "brand:wikidata": "Q57543102",
                "name": "Conad City",
                "phone": "+39 0577 281308",
                "shop": "supermarket",
                "website": "https://www.conad.it/ricerca-negozi/negozio.005373.html"
            }
        },
        {
            "type": "node",
            "id": 703630909,
            "lat": 43.4722698,
            "lon": 12.2312359,
            "timestamp": "2020-05-14T09:28:32Z",
            "version": 6,
            "changeset": 85191456,
            "user": "mascalzone67",
            "uid": 1861652,
            "tags": {
                "addr:city": "Citt\u00e0 di Castello",
                "addr:postcode": "06012",
                "addr:street": "Via Piero della Francesca",
                "brand": "Conad",
                "brand:wikidata": "Q639075",
                "brand:wikipedia": "it:Conad",
                "name": "Conad",
                "opening_hours": "Mo-Su 08:30-20:00",
                "operator": "Conad",
                "payment:bancomat": "yes",
                "payment:cash": "yes",
                "payment:credit_cards": "yes",
                "phone": "+39 075 8521893",
                "shop": "supermarket",
                "website": "https://www.conad.it/ricerca-negozi/negozio.004294.html"
            }
        },
        {
            "type": "node",
            "id": 714846317,
            "lat": 43.5661493,
            "lon": 12.1500044,
            "timestamp": "2025-10-05T11:13:50Z",
            "version": 7,
            "changeset": 172862225,
            "user": "btcitnet",
            "uid": 22525435,
            "tags": {
                "addr:city": "Sansepolcro",
                "addr:postcode": "52037",
                "addr:street": "Via della Costituzione",
                "brand": "Carrefour",
                "brand:wikidata": "Q217599",
                "name": "Carrefour",
                "shop": "supermarket"
            }
        },
        {
            "type": "node",
            "id": 835767679,
            "lat": 43.4622102,
            "lon": 11.8769225,
            "timestamp": "2025-10-06T19:27:50Z",
            "version": 6,
            "changeset": 172931041,
            "user": "btcitnet",
            "uid": 22525435,
            "tags": {
                "addr:city": "Arezzo",
                "addr:housenumber": "82/90",
                "addr:postcode": "52100",
                "addr:street": "Via Guido Monaco",
                "brand": "Conad City",
                "brand:wikidata": "Q57543102",
                "check_date:opening_hours": "2024-09-22",
                "name": "Conad City",
                "opening_hours": "Mo-Sa 07:30-21:00; Su 08:30-20:00",
                "shop": "supermarket",
                "wheelchair": "yes"
            }
        },
        {
            "type": "node",
            "id": 1047705049,
            "lat": 43.620923,
            "lon": 11.4716911,
            "timestamp": "2024-04-21T21:46:28Z",
            "version": 7,
            "changeset": 150319735,
            "user": "toponomastica_comune_arenzano",
            "uid": 14257573,
            "tags": {
                "addr:city": "Figline Valdarno",
                "addr:housenumber": "1-9",
                "addr:postcode": "50063",
                "addr:street": "Via Roma",
                "brand": "Conad",
                "brand:wikidata": "Q639075",
                "brand:wikipedia": "it:Conad",
                "name": "Conad",
                "opening_hours": "Mo-Sa 08:00-21:00; Su 08:30-13:00,16:00-20:30",
                "shop": "supermarket",
                "wheelchair": "yes"
            }
        },
        {
            "type": "node",
            "id": 1367244598,
            "lat": 43.5720107,
            "lon": 12.1454299,
            "timestamp": "2025-10-22T20:43:57Z",
            "version": 5,
            "changeset": 173646667,
            "user": "btcitnet",
            "uid": 22525435,
            "tags": {
                "addr:city": "Sansepolcro",
                "addr:postcode": "52037",
                "addr:street": "Via Alessandro Panerai",
                "brand": "OVS",
                "brand:wikidata": "Q2042514",
                "name": "OVS",
                "shop": "clothes"
            }
        },
        {
            "type": "node",
            "id": 1373873847,
            "lat": 43.4461582,
            "lon": 11.8661305,
            "timestamp": "2025-10-08T18:06:10Z",
            "version": 7,
            "changeset": 173017491,
            "user": "btcitnet",
            "uid": 22525435,
            "tags": {
                "addr:city": "Arezzo",
                "addr:postcode": "52100",
                "addr:street": "Strada Statale 73 Senese Aretina",
                "amenity": "fuel",
                "brand": "Tamoil",
                "brand:wikidata": "Q706793",
                "brand:wikipedia": "en:Tamoil",
                "fuel:cng": "yes",
                "fuel:diesel": "yes",
                "fuel:lpg": "yes",
                "fuel:octane_95": "yes",
                "name": "Tamoil",
                "operator": "Star Service S.R.L.",
                "ref:mise": "32892",
                "source": "MISE - Ministero Sviluppo Economico"
            }
        },
        {
            "type": "node",
            "id": 1394293954,
            "lat": 43.5518354,
            "lon": 12.1714539,
            "timestamp": "2025-10-06T19:50:14Z",
            "version": 4,
            "changeset": 172931718,
            "user": "btcitnet",
            "uid": 22525435,
            "tags": {
                "addr:city": "San Giustino",
                "addr:housenumber": "37/a",
                "addr:postcode": "06016",
                "addr:street": "Viale Toscana",
                "brand": "Conad",
                "brand:wikidata": "Q639075",
                "name": "Conad",
                "shop": "supermarket"
            }
        },
        {
            "type": "node",
            "id": 1456840227,
            "lat": 43.4706174,
            "lon": 12.230791,
            "timestamp": "2025-10-08T18:07:45Z",
            "version": 3,
            "changeset": 173017561,
            "user": "btcitnet",
            "uid": 22525435,
            "tags": {
                "addr:city": "Citt\u00e0 di Castello",
                "addr:postcode": "06012",
                "addr:street": "Via Achille Grandi",
                "brand": "United Colors of Benetton",
                "brand:wikidata": "Q817139",
                "name": "United Colors of Benetton",
                "shop": "clothes",
                "short_name": "Benetton"
            }
        },
        {
            "type": "node",
            "id": 1545562345,
            "lat": 43.4627371,
            "lon": 12.2524005,
            "timestamp": "2021-06-23T15:49:47Z",
            "version": 6,
            "changeset": 106848284,
            "user": "damianeue",
            "uid": 10124288,
            "tags": {
                "addr:city": "Citt\u00e0 di Castello",
                "addr:country": "IT",
                "addr:postcode": "06012",
                "addr:street": "Via Palmiro Togliatti",
                "amenity": "fuel",
                "brand": "Tamoil",
                "brand:wikidata": "Q706793",
                "brand:wikipedia": "en:Tamoil",
                "fuel:diesel": "yes",
                "fuel:octane_95": "yes",
                "name": "Tamoil",
                "operator": "P. & L. di Pietosi F. & Landi R. S.N.C.",
                "ref:mise": "15147"
            }
        },
        {
            "type": "node",
            "id": 1672495351,
            "lat": 43.3594664,
            "lon": 12.2369096,
            "timestamp": "2025-10-05T15:51:59Z",
            "version": 5,
            "changeset": 172874489,
            "user": "btcitnet",
            "uid": 22525435,
            "tags": {
                "addr:city": "Umbertide",
                "addr:housenumber": "45",
                "addr:postcode": "06019",
                "addr:street": "Via Nestore",
                "brand": "Conad",
                "brand:wikidata": "Q639075",
                "name": "Conad",
                "shop": "supermarket"
            }
        },
        {
            "type": "node",
            "id": 1693158764,
            "lat": 43.5765488,
            "lon": 12.1185803,
            "timestamp": "2025-10-22T20:45:03Z",
            "version": 4,
            "changeset": 173646698,
            "user": "btcitnet",
            "uid": 22525435,
            "tags": {
                "addr:city": "Sansepolcro",
                "addr:postcode": "50237",
                "addr:street": "Strada Statale 3 bis Tiberina",
                "amenity": "fuel",
                "brand": "Q8",
                "brand:wikidata": "Q1634762",
                "name": "Q8"
            }
        },
        {
            "type": "node",
            "id": 1721582382,
            "lat": 43.5748013,
            "lon": 12.1300286,
            "timestamp": "2025-09-28T06:14:28Z",
            "version": 5,
            "changeset": 172552402,
            "user": "btcitnet",
            "uid": 22525435,
            "tags": {
                "addr:city": "Sansepolcro",
                "addr:housenumber": "365",
                "addr:postcode": "52037",
                "addr:street": "Viale Osimo",
                "brand": "Unieuro",
                "brand:wikidata": "Q4004687",
                "brand:wikipedia": "en:Unieuro",
                "name": "Unieuro",
                "operator": "Unieuro S.p.A.",
                "shop": "electronics"
            }
        },
        {
            "type": "node",
            "id": 1895154140,
            "lat": 43.1927082,
            "lon": 12.1250628,
            "timestamp": "2025-10-05T15:52:59Z",
            "version": 5,
            "changeset": 172874530,
            "user": "btcitnet",
            "uid": 22525435,
            "tags": {
                "addr:city": "Passignano Sul Trasimeno",
                "addr:housenumber": "1",
                "addr:postcode": "06065",
                "addr:street": "Via di Valle Romana",
                "brand": "Conad",
                "brand:wikidata": "Q639075",
                "name": "Conad",
                "shop": "supermarket"
            }
        },
        {
            "type": "node",
            "id": 1908035079,
            "lat": 43.3648354,
            "lon": 12.2682139,
            "timestamp": "2025-10-22T20:45:56Z",
            "version": 3,
            "changeset": 173646720,
            "user": "btcitnet",
            "uid": 22525435,
            "tags": {
                "addr:city": "Promano",
                "addr:postcode": "06018",
                "addr:street": "Via Romana",
                "brand": "Spar",
                "brand:wikidata": "Q610492",
                "name": "Despar",
                "shop": "supermarket"
            }
        },
        {
            "type": "node",
            "id": 1932407346,
            "lat": 43.4716933,
            "lon": 11.8595251,
            "timestamp": "2025-10-08T18:09:35Z",
            "version": 6,
            "changeset": 173017631,
            "user": "btcitnet",
            "uid": 22525435,
            "tags": {
                "addr:city": "Arezzo",
                "addr:housenumber": "228",
                "addr:postcode": "52100",
                "addr:street": "Via Fiorentina",
                "amenity": "fuel",
                "brand": "Q8",
                "brand:wikidata": "Q1634762",
                "fuel:diesel": "yes",
                "fuel:octane_95": "yes",
                "name": "Q8",
                "operator": "Servizi & Gestioni Italia S.R.L.",
                "ref:mise": "23558",
                "source": "MISE - Ministero Sviluppo Economico"
            }
        },
        {
            "type": "node",
            "id": 1962273529,
            "lat": 43.4619709,
            "lon": 11.8794648,
            "timestamp": "2023-06-22T13:03:35Z",
            "version": 5,
            "changeset": 137647080,
            "user": "DnaX",
            "uid": 69259,
            "tags": {
                "addr:city": "Arezzo",
                "addr:country": "IT",
                "addr:housenumber": "193",
                "addr:postcode": "52100",
                "addr:street": "Corso Italia",
                "brand": "Mondadori",
                "brand:wikidata": "Q85355",
                "entrance": "yes",
                "name": "Mondadori",
                "shop": "books",
                "source": "survey",
                "survey:date": "2012-10-11"
            }
        },
        {
            "type": "node",
            "id": 1962273539,
            "lat": 43.4614836,
            "lon": 11.8787694,
            "timestamp": "2025-09-28T18:08:03Z",
            "version": 7,
            "changeset": 172579074,
            "user": "btcitnet",
            "uid": 22525435,
            "tags": {
                "addr:city": "Arezzo",
                "addr:country": "IT",
                "addr:housenumber": "237",
                "addr:postcode": "52100",
                "addr:street": "Corso Italia",
                "brand": "OVS",
                "brand:wikidata": "Q2042514",
                "brand:wikipedia": "it:OVS",
                "entrance": "yes",
                "name": "OVS",
                "opening_hours": "Mo-Sa 09:00-20:00; Su 09:30-20:00",
                "operator": "OVS",
                "shop": "clothes",
                "source": "survey"
            }
        },
        {
            "type": "node",
            "id": 1962273542,
            "lat": 43.4621168,
            "lon": 11.8796106,
            "timestamp": "2023-09-11T13:02:48Z",
            "version": 5,
            "changeset": 141112212,
            "user": "DnaX",
            "uid": 69259,
            "tags": {
                "addr:city": "Arezzo",
                "addr:country": "IT",
                "addr:housenumber": "183",
                "addr:postcode": "52100",
                "addr:street": "Corso Italia",
                "brand": "Salmoiraghi & Vigan\u00f2",
                "brand:wikidata": "Q21272314",
                "entrance": "yes",
                "name": "Salmoiraghi & Vigan\u00f2",
                "shop": "optician",
                "source": "survey",
                "survey:date": "2012-10-11"
            }
        },
        {
            "type": "node",
            "id": 1962273549,
            "lat": 43.4618,
            "lon": 11.8792607,
            "timestamp": "2023-06-22T13:03:35Z",
            "version": 5,
            "changeset": 137647080,
            "user": "DnaX",
            "uid": 69259,
            "tags": {
                "addr:city": "Arezzo",
                "addr:country": "IT",
                "addr:housenumber": "207",
                "addr:postcode": "52100",
                "addr:street": "Corso Italia",
                "brand": "United Colors of Benetton",
                "brand:wikidata": "Q817139",
                "entrance": "yes",
                "name": "United Colors of Benetton",
                "shop": "clothes",
                "short_name": "Benetton",
                "source": "survey",
                "survey:date": "2012-10-11"
            }
        },
        {
            "type": "node",
            "id": 2140380909,
            "lat": 43.449688,
            "lon": 11.8759765,
            "timestamp": "2025-05-22T12:03:30Z",
            "version": 5,
            "changeset": 166609928,
            "user": "olgia",
            "uid": 216179,
            "tags": {
                "addr:city": "Arezzo",
                "addr:housenumber": "20",
                "addr:street": "Via Leonardo da Vinci",
                "branch": "AREZZO",
                "brand": "Esselunga",
                "brand:wikidata": "Q1059636",
                "brand:wikipedia": "en:Esselunga",
                "name": "Esselunga",
                "opening_hours": "Mo-Fr 08:00-21:00, Sa 07:30-20:30, Su 09:00-20:00",
                "shop": "supermarket"
            }
        },
        {
            "type": "node",
            "id": 2459967362,
            "lat": 43.436648,
            "lon": 11.8503191,
            "timestamp": "2025-09-28T06:18:46Z",
            "version": 7,
            "changeset": 172552477,
            "user": "btcitnet",
            "uid": 22525435,
            "tags": {
                "addr:city": "Arezzo",
                "addr:housenumber": "137",
                "addr:postcode": "52100",
                "addr:street": "Localit\u00e0 Ripa di Olmo",
                "brand": "Unieuro",
                "brand:wikidata": "Q4004687",
                "brand:wikipedia": "en:Unieuro",
                "name": "Unieuro",
                "opening_hours": "Mo-Fr 09:00-13:00,15:00-20:00; Sa 09:00-20:00; Su 10:00-12:30,15:30-19:30",
                "operator": "Unieuro S.p.A.",
                "shop": "electronics"
            }
        },
        {
            "type": "node",
            "id": 2691006367,
            "lat": 43.1422483,
            "lon": 12.2058542,
            "timestamp": "2025-10-08T18:10:19Z",
            "version": 3,
            "changeset": 173017659,
            "user": "btcitnet",
            "uid": 22525435,
            "tags": {
                "addr:city": "Magione",
                "addr:housenumber": "67",
                "addr:postcode": "06063",
                "addr:street": "Corso Abate Raffaele Marchesi",
                "brand": "Conad",
                "brand:wikidata": "Q639075",
                "name": "Conad",
                "shop": "supermarket"
            }
        },
        {
            "type": "node",
            "id": 3011696887,
            "lat": 43.451291,
            "lon": 11.8673248,
            "timestamp": "2025-10-08T18:11:19Z",
            "version": 4,
            "changeset": 173017702,
            "user": "btcitnet",
            "uid": 22525435,
            "tags": {
                "addr:city": "Arezzo",
                "addr:housenumber": "13",
                "addr:postcode": "52100",
                "addr:street": "Via Romana",
                "brand": "PittaRosso",
                "brand:wikidata": "Q105643314",
                "name": "PittaRosso",
                "name:en": "PittaRosso",
                "shop": "shoes"
            }
        },
        {
            "type": "node",
            "id": 3081303564,
            "lat": 43.4714972,
            "lon": 12.2304155,
            "timestamp": "2025-01-03T16:08:14Z",
            "version": 5,
            "changeset": 160955867,
            "user": "mpbin",
            "uid": 21850090,
            "tags": {
                "addr:city": "Citt\u00e0 di Castello",
                "addr:postcode": "06012",
                "addr:street": "Via Giuseppe Di Vittorio",
                "brand": "OVS",
                "brand:wikidata": "Q2042514",
                "name": "OVS",
                "operator": "OVS",
                "shop": "clothes"
            }
        },
        {
            "type": "node",
            "id": 3118020509,
            "lat": 43.6276625,
            "lon": 11.462054,
            "timestamp": "2025-01-03T10:17:49Z",
            "version": 7,
            "changeset": 160941476,
            "user": "mpbin",
            "uid": 21850090,
            "tags": {
                "addr:city": "Figline Valdarno",
                "addr:housenumber": "6",
                "addr:postcode": "50063",
                "addr:street": "Via Comunit\u00e0 Europea",
                "branch": "Figline e Incisa Valdarno",
                "brand": "Decathlon",
                "brand:wikidata": "Q509349",
                "brand:wikipedia": "en:Decathlon (retailer)",
                "contact:phone": "+39 055 9154060",
                "name": "Decathlon",
                "opening_hours": "Mo-Su 09:00-20:00",
                "operator": "Decathlon",
                "shop": "sports",
                "wheelchair": "yes"
            }
        },
        {
            "type": "node",
            "id": 3296513944,
            "lat": 43.4756175,
            "lon": 11.6180364,
            "timestamp": "2025-10-08T18:12:00Z",
            "version": 6,
            "changeset": 173017721,
            "user": "btcitnet",
            "uid": 22525435,
            "tags": {
                "addr:city": "Bucine",
                "addr:postcode": "52021",
                "addr:street": "Via Val d'Ambra",
                "amenity": "fuel",
                "brand": "Tamoil",
                "brand:wikidata": "Q706793",
                "brand:wikipedia": "en:Tamoil",
                "fuel:diesel": "yes",
                "fuel:lpg": "yes",
                "fuel:octane_95": "yes",
                "name": "Tamoil",
                "operator": "Star Service S.R.L.",
                "ref:mise": "36479",
                "source": "MISE - Ministero Sviluppo Economico"
            }
        },
        {
            "type": "node",
            "id": 4257263027,
            "lat": 43.4762874,
            "lon": 11.8619554,
            "timestamp": "2025-01-03T10:27:10Z",
            "version": 4,
            "changeset": 160941754,
            "user": "mpbin",
            "uid": 21850090,
            "tags": {
                "addr:city": "Arezzo",
                "addr:housenumber": "12-13",
                "addr:postcode": "52100",
                "addr:street": "Via Giovanni Amendola",
                "brand": "Decathlon",
                "brand:wikidata": "Q509349",
                "name": "Decathlon",
                "operator": "Decathlon",
                "shop": "sports"
            }
        },
        {
            "type": "node",
            "id": 4383886992,
            "lat": 43.4579005,
            "lon": 11.8880272,
            "timestamp": "2025-10-08T18:13:14Z",
            "version": 5,
            "changeset": 173017758,
            "user": "btcitnet",
            "uid": 22525435,
            "tags": {
                "addr:city": "Arezzo",
                "addr:housenumber": "25/29",
                "addr:postcode": "52100",
                "addr:street": "Piazza Giotto",
                "brand": "Conad",
                "brand:wikidata": "Q639075",
                "brand:wikipedia": "it:Conad",
                "check_date:opening_hours": "2024-10-31",
                "name": "Conad",
                "opening_hours": "Mo-Sa 07:30-20:30; Su 08:00-13:30,16:30-20:00",
                "shop": "supermarket"
            }
        },
        {
            "type": "node",
            "id": 4913885921,
            "lat": 43.5829664,
            "lon": 11.6237065,
            "timestamp": "2023-11-17T17:01:00Z",
            "version": 9,
            "changeset": 144147593,
            "user": "toponomastica_comune_arenzano",
            "uid": 14257573,
            "tags": {
                "addr:city": "Loro Ciuffenna",
                "addr:housenumber": "32b",
                "addr:postcode": "52024",
                "addr:street": "Viale Filippo Turati",
                "amenity": "fuel",
                "brand": "Tamoil",
                "brand:wikidata": "Q706793",
                "brand:wikipedia": "en:Tamoil",
                "compressed_air": "yes",
                "fuel:diesel": "yes",
                "fuel:octane_95": "yes",
                "name": "Tamoil",
                "name:en": "Tamoil Loro",
                "operator": "Stazione Servizio Ciuffenna S.A.S. di Righeschi Andrea & C.",
                "ref:mise": "8674",
                "source": "MISE - Ministero Sviluppo Economico"
            }
        },
        {
            "type": "node",
            "id": 4945608759,
            "lat": 43.4752013,
            "lon": 11.8612721,
            "timestamp": "2025-10-08T18:13:57Z",
            "version": 5,
            "changeset": 173017779,
            "user": "btcitnet",
            "uid": 22525435,
            "tags": {
                "addr:city": "Arezzo",
                "addr:housenumber": "15",
                "addr:postcode": "52100",
                "addr:street": "Via Giovanni Amendola",
                "brand": "Intimissimi",
                "brand:wikidata": "Q305404",
                "clothes": "underwear",
                "level": "0",
                "name": "Intimissimi",
                "shop": "clothes"
            }
        },
        {
            "type": "node",
            "id": 4945608763,
            "lat": 43.4752671,
            "lon": 11.8613233,
            "timestamp": "2025-10-08T18:14:44Z",
            "version": 5,
            "changeset": 173017804,
            "user": "btcitnet",
            "uid": 22525435,
            "tags": {
                "addr:city": "Arezzo",
                "addr:housenumber": "13/15",
                "addr:postcode": "52100",
                "addr:street": "Via Giovanni Amendola",
                "brand": "Calzedonia",
                "brand:wikidata": "Q1027874",
                "level": "0",
                "name": "Calzedonia",
                "shop": "clothes"
            }
        },
        {
            "type": "node",
            "id": 5572022455,
            "lat": 43.3016686,
            "lon": 11.324142,
            "timestamp": "2024-05-18T10:56:56Z",
            "version": 4,
            "changeset": 151488030,
            "user": "DabMK",
            "uid": 17965418,
            "tags": {
                "addr:city": "Siena",
                "addr:housenumber": "58",
                "addr:postcode": "53100",
                "addr:street": "Strada Massetana Romana",
                "brand": "Conad",
                "brand:wikidata": "Q639075",
                "name": "Conad",
                "phone": "+39 0577 271892",
                "shop": "supermarket",
                "website": "https://www.conad.it/ricerca-negozi/conad-via-massetana-romana-58-53100-siena--003389",
                "wheelchair": "yes"
            }
        },
        {
            "type": "node",
            "id": 5809044476,
            "lat": 43.6175329,
            "lon": 11.4728389,
            "timestamp": "2025-10-18T17:20:38Z",
            "version": 3,
            "changeset": 173460533,
            "user": "btcitnet",
            "uid": 22525435,
            "tags": {
                "addr:city": "Figline Valdarno",
                "addr:housenumber": "21/23/25",
                "addr:postcode": "50063",
                "addr:street": "Corso Giuseppe Mazzini",
                "brand": "Mondadori",
                "brand:wikidata": "Q85355",
                "brand:wikipedia": "en:Arnoldo Mondadori Editore",
                "name": "Mondadori",
                "shop": "books"
            }
        },
        {
            "type": "node",
            "id": 5864236231,
            "lat": 43.5585411,
            "lon": 11.5362088,
            "timestamp": "2025-10-16T10:59:57Z",
            "version": 4,
            "changeset": 173359855,
            "user": "btcitnet",
            "uid": 22525435,
            "tags": {
                "addr:city": "San Giovanni Valdarno",
                "addr:housenumber": "122a",
                "addr:postcode": "52027",
                "addr:street": "Via Spartaco Lavagnini",
                "brand": "Conad City",
                "brand:wikidata": "Q57543102",
                "name": "Conad City",
                "shop": "supermarket"
            }
        },
        {
            "type": "node",
            "id": 6188864617,
            "lat": 43.3170997,
            "lon": 11.3371735,
            "timestamp": "2025-07-18T11:41:53Z",
            "version": 5,
            "changeset": 169104747,
            "user": "meloncrush",
            "uid": 21694855,
            "tags": {
                "addr:city": "Siena",
                "addr:housenumber": "141",
                "addr:postcode": "53100",
                "addr:street": "Via di Pantaneto",
                "brand": "Conad City",
                "brand:wikidata": "Q57543102",
                "check_date:opening_hours": "2025-07-18",
                "name": "Conad City",
                "opening_hours": "Mo-Sa 08:00-20:30; Su 09:00-13:00; PH closed",
                "operator": "Siena Store",
                "phone": "+39 0577 43212",
                "shop": "supermarket",
                "website": "https://www.conad.it/ricerca-negozi/conad-city-via-pantaneto-snc-53100-siena--008151"
            }
        },
        {
            "type": "node",
            "id": 6354555590,
            "lat": 43.4693381,
            "lon": 12.2282943,
            "timestamp": "2025-01-02T21:50:28Z",
            "version": 5,
            "changeset": 160927552,
            "user": "mpbin",
            "uid": 21850090,
            "tags": {
                "addr:city": "Citt\u00e0 di Castello",
                "addr:housenumber": "4a",
                "addr:postcode": "06012",
                "addr:street": "Via Rodolfo Morandi",
                "brand": "Trony",
                "brand:wikidata": "Q3999692",
                "brand:wikipedia": "it:Trony",
                "name": "Trony",
                "operator": "Trony",
                "shop": "electronics"
            }
        },
        {
            "type": "node",
            "id": 6764273724,
            "lat": 43.4625207,
            "lon": 11.8790698,
            "timestamp": "2025-10-22T20:46:59Z",
            "version": 4,
            "changeset": 173646762,
            "user": "btcitnet",
            "uid": 22525435,
            "tags": {
                "addr:city": "Arezzo",
                "addr:housenumber": "15",
                "addr:postcode": "52100",
                "addr:street": "Via Roma",
                "brand": "Mondadori",
                "brand:wikidata": "Q85355",
                "name": "Mondadori",
                "opening_hours": "Mo-Sa 09:15-19:10; Su 15:00-19:00",
                "shop": "books"
            }
        },
        {
            "type": "node",
            "id": 6775884898,
            "lat": 43.4632928,
            "lon": 11.8800925,
            "timestamp": "2024-10-08T17:43:58Z",
            "version": 5,
            "changeset": 157638637,
            "user": "Bota87",
            "uid": 19327867,
            "tags": {
                "addr:city": "Arezzo",
                "addr:housenumber": "15",
                "addr:postcode": "52100",
                "addr:street": "Via de Cenci",
                "check_date": "2023-09-07",
                "check_date:currency:XBT": "2024-10-08",
                "currency:XBT": "yes",
                "email": "info@capaccioli.net",
                "name": "Studio Associato Capaccioli Pucci Guiducci",
                "office": "accountant",
                "payment:bitcoin:operator": "inbitcoin.it",
                "phone": "+39 0575 323666",
                "website": "https://www.capaccioli.net/"
            }
        },
        {
            "type": "node",
            "id": 6964493662,
            "lat": 43.3192504,
            "lon": 11.331205,
            "timestamp": "2023-10-19T16:10:41Z",
            "version": 4,
            "changeset": 142823786,
            "user": "DabMK",
            "uid": 17965418,
            "tags": {
                "addr:city": "Siena",
                "addr:housenumber": "3",
                "addr:postcode": "53100",
                "addr:street": "Banchi Di Sopra",
                "brand": "Tezenis",
                "brand:wikidata": "Q28056374",
                "clothes": "underwear;swimwear",
                "name": "Tezenis",
                "opening_hours": "Mo-Su 09:00-19:45",
                "phone": "+39 0577 284870",
                "shop": "clothes",
                "wheelchair": "no"
            }
        },
        {
            "type": "node",
            "id": 7009800473,
            "lat": 43.4598533,
            "lon": 11.8185215,
            "timestamp": "2025-10-08T18:16:11Z",
            "version": 2,
            "changeset": 173017888,
            "user": "btcitnet",
            "uid": 22525435,
            "tags": {
                "addr:city": "Arezzo",
                "addr:postcode": "52100",
                "addr:street": "Ponte a Chiani",
                "brand": "Conad",
                "brand:wikidata": "Q639075",
                "brand:wikipedia": "it:Conad",
                "name": "Conad",
                "shop": "supermarket"
            }
        },
        {
            "type": "node",
            "id": 7563781386,
            "lat": 43.5270307,
            "lon": 11.5673157,
            "timestamp": "2025-10-08T18:17:07Z",
            "version": 3,
            "changeset": 173017925,
            "user": "btcitnet",
            "uid": 22525435,
            "tags": {
                "addr:city": "Montevarchi",
                "addr:housenumber": "8",
                "addr:postcode": "52025",
                "addr:street": "Via Ruggero Berlingozzi",
                "brand": "OVS Kids",
                "brand:wikidata": "Q2042514",
                "clothes": "children",
                "name": "OVS Kids",
                "shop": "clothes"
            }
        },
        {
            "type": "node",
            "id": 7577111108,
            "lat": 43.2464869,
            "lon": 12.1433513,
            "timestamp": "2020-06-01T08:14:29Z",
            "version": 1,
            "changeset": 86035571,
            "user": "simoreds",
            "uid": 9754837,
            "tags": {
                "addr:city": "Lisciano Niccone",
                "addr:housenumber": "5",
                "addr:postcode": "06060",
                "addr:street": "Piazza della Repubblica",
                "brand": "Conad",
                "brand:wikidata": "Q639075",
                "brand:wikipedia": "it:Conad",
                "name": "Conad",
                "shop": "supermarket"
            }
        },
        {
            "type": "node",
            "id": 7646374531,
            "lat": 43.2573382,
            "lon": 11.9809042,
            "timestamp": "2025-10-22T20:48:09Z",
            "version": 4,
            "changeset": 173646792,
            "user": "btcitnet",
            "uid": 22525435,
            "tags": {
                "addr:city": "Camucia",
                "addr:postcode": "52044",
                "addr:street": "Viale Antonio Gramsci",
                "brand": "Conad",
                "brand:wikidata": "Q639075",
                "brand:wikipedia": "it:Conad",
                "name": "Conad",
                "opening_hours": "Mo-Sa 07:30-21:00; Su 08:00-20:00",
                "phone": "+39 0575 604113",
                "shop": "supermarket",
                "website": "https://conad.it/"
            }
        },
        {
            "type": "node",
            "id": 7952065092,
            "lat": 43.3550856,
            "lon": 11.643914,
            "timestamp": "2025-10-16T11:01:11Z",
            "version": 4,
            "changeset": 173359902,
            "user": "btcitnet",
            "uid": 22525435,
            "tags": {
                "addr:city": "Monte San Savino",
                "addr:housenumber": "14a",
                "addr:place": "Palazzuolo",
                "addr:postcode": "52048",
                "amenity": "restaurant",
                "contact:facebook": "https://www.facebook.com/lascuderiaristorante/",
                "contact:tripadvisor": "https://www.tripadvisor.it/Restaurant_Review-g737116-d1901600-Reviews-La_Scuderia-Monte_San_Savino_Province_of_Arezzo_Tuscany.html",
                "cuisine": "local;steak_house",
                "currency:XBT": "yes",
                "description": "molti piatti vegetariani e vegani, pasta e pane gluten free su richiesta, prodotti a km zero e biologici, massima attenzione alle materie prime.",
                "email": "barbarabernardini.ar@gmail.com",
                "indoor_seating": "yes",
                "name": "La Scuderia",
                "outdoor_seating": "garden",
                "payment:lightning": "yes",
                "payment:lightning_contactless": "yes",
                "phone": "+39 0575 847014",
                "survey:date": "2025-06-27"
            }
        },
        {
            "type": "node",
            "id": 8186476478,
            "lat": 43.8582125,
            "lon": 11.977526,
            "timestamp": "2025-10-08T18:19:08Z",
            "version": 2,
            "changeset": 173018002,
            "user": "btcitnet",
            "uid": 22525435,
            "tags": {
                "addr:city": "San Piero in Bagno",
                "addr:housenumber": "8/10",
                "addr:postcode": "47026",
                "addr:street": "via Guglielmo Marconi",
                "brand": "Spar",
                "brand:wikidata": "Q610492",
                "brand:wikipedia": "en:Spar (retailer)",
                "name": "Despar",
                "shop": "supermarket"
            }
        },
        {
            "type": "node",
            "id": 8188739104,
            "lat": 43.4756369,
            "lon": 12.2012072,
            "timestamp": "2025-10-22T20:49:03Z",
            "version": 2,
            "changeset": 173646818,
            "user": "btcitnet",
            "uid": 22525435,
            "tags": {
                "addr:city": "Lerchi",
                "addr:postcode": "06011",
                "addr:street": "Via Annibale di Francia",
                "brand": "Conad City",
                "brand:wikidata": "Q57543102",
                "name": "Conad City",
                "shop": "supermarket"
            }
        },
        {
            "type": "node",
            "id": 8202442501,
            "lat": 43.0480175,
            "lon": 12.0105339,
            "timestamp": "2025-10-08T18:20:58Z",
            "version": 2,
            "changeset": 173018075,
            "user": "btcitnet",
            "uid": 22525435,
            "tags": {
                "addr:city": "Castiglione Del Lago",
                "addr:housenumber": "81",
                "addr:postcode": "06060",
                "addr:street": "Via dei Partigiani",
                "brand": "Conad City",
                "brand:wikidata": "Q57543102",
                "name": "Conad City",
                "shop": "supermarket"
            }
        },
        {
            "type": "node",
            "id": 8255892429,
            "lat": 43.3193173,
            "lon": 11.3313672,
            "timestamp": "2024-07-05T15:55:25Z",
            "version": 5,
            "changeset": 153594853,
            "user": "DabMK",
            "uid": 17965418,
            "tags": {
                "addr:city": "Siena",
                "addr:housenumber": "8",
                "addr:postcode": "53100",
                "addr:street": "Banchi di Sopra",
                "brand": "L'Erbolario",
                "brand:wikidata": "Q116304294",
                "name": "L'Erbolario",
                "shop": "herbalist"
            }
        },
        {
            "type": "node",
            "id": 8255892433,
            "lat": 43.3194644,
            "lon": 11.3314273,
            "timestamp": "2024-07-05T15:55:25Z",
            "version": 4,
            "changeset": 153594853,
            "user": "DabMK",
            "uid": 17965418,
            "tags": {
                "addr:city": "Siena",
                "addr:housenumber": "16",
                "addr:postcode": "53100",
                "addr:street": "Banchi di Sopra",
                "brand": "Intimissimi",
                "brand:wikidata": "Q305404",
                "brand:wikipedia": "en:Intimissimi",
                "clothes": "underwear",
                "name": "Intimissimi",
                "shop": "clothes"
            }
        },
        {
            "type": "node",
            "id": 8255892435,
            "lat": 43.319524,
            "lon": 11.3312869,
            "timestamp": "2024-04-29T22:25:20Z",
            "version": 3,
            "changeset": 150683360,
            "user": "DabMK",
            "uid": 17965418,
            "tags": {
                "addr:city": "Siena",
                "addr:housenumber": "19",
                "addr:postcode": "53100",
                "addr:street": "Banchi di Sopra",
                "brand": "Calzedonia",
                "brand:wikidata": "Q1027874",
                "brand:wikipedia": "en:Calzedonia",
                "name": "Calzedonia",
                "shop": "clothes"
            }
        },
        {
            "type": "node",
            "id": 8255892437,
            "lat": 43.3195641,
            "lon": 11.3312911,
            "timestamp": "2024-04-29T22:25:20Z",
            "version": 4,
            "changeset": 150683360,
            "user": "DabMK",
            "uid": 17965418,
            "tags": {
                "addr:city": "Siena",
                "addr:housenumber": "21",
                "addr:postcode": "53100",
                "addr:street": "Banchi di Sopra",
                "brand": "Bottega Verde",
                "brand:wikidata": "Q894870",
                "name": "Bottega Verde",
                "shop": "cosmetics"
            }
        },
        {
            "type": "node",
            "id": 8255967518,
            "lat": 43.3204178,
            "lon": 11.3309431,
            "timestamp": "2024-04-29T17:16:25Z",
            "version": 5,
            "changeset": 150673573,
            "user": "DabMK",
            "uid": 17965418,
            "tags": {
                "addr:city": "Siena",
                "addr:housenumber": "53",
                "addr:postcode": "53100",
                "addr:street": "Banchi di Sopra",
                "brand": "Salmoiraghi & Vigan\u00f2",
                "brand:wikidata": "Q21272314",
                "name": "Salmoiraghi & Vigan\u00f2",
                "shop": "optician"
            }
        },
        {
            "type": "node",
            "id": 8255967520,
            "lat": 43.3204053,
            "lon": 11.3311337,
            "timestamp": "2024-04-09T12:34:29Z",
            "version": 3,
            "changeset": 149775607,
            "user": "DabMK",
            "uid": 17965418,
            "tags": {
                "addr:city": "Siena",
                "addr:housenumber": "52",
                "addr:postcode": "53100",
                "addr:street": "Banchi di Sopra",
                "brand": "La Feltrinelli",
                "brand:wikidata": "Q96311190",
                "name": "La Feltrinelli",
                "shop": "books"
            }
        },
        {
            "type": "node",
            "id": 8255967521,
            "lat": 43.3206865,
            "lon": 11.33094,
            "timestamp": "2023-07-26T09:39:45Z",
            "version": 3,
            "changeset": 139028134,
            "user": "aldoct",
            "uid": 923271,
            "tags": {
                "addr:city": "Siena",
                "addr:housenumber": "64, 66",
                "addr:postcode": "53100",
                "addr:street": "Banchi di Sopra",
                "brand": "La Feltrinelli",
                "brand:wikidata": "Q96311190",
                "name": "La Feltrinelli",
                "shop": "books"
            }
        },
        {
            "type": "node",
            "id": 8255967525,
            "lat": 43.3208186,
            "lon": 11.3306477,
            "timestamp": "2024-04-09T12:34:29Z",
            "version": 3,
            "changeset": 149775607,
            "user": "DabMK",
            "uid": 17965418,
            "tags": {
                "addr:city": "Siena",
                "addr:housenumber": "77",
                "addr:postcode": "53100",
                "addr:street": "Banchi di Sopra",
                "brand": "Foot Locker",
                "brand:wikidata": "Q63335",
                "brand:wikipedia": "en:Foot Locker",
                "name": "Foot Locker",
                "shop": "shoes"
            }
        },
        {
            "type": "node",
            "id": 8373332335,
            "lat": 43.3204958,
            "lon": 11.3310836,
            "timestamp": "2024-05-01T10:12:42Z",
            "version": 3,
            "changeset": 150742523,
            "user": "DabMK",
            "uid": 17965418,
            "tags": {
                "addr:city": "Siena",
                "addr:housenumber": "54;56;58;60",
                "addr:postcode": "53100",
                "addr:street": "Banchi di Sopra",
                "brand": "United Colors of Benetton",
                "brand:wikidata": "Q817139",
                "brand:wikipedia": "en:Benetton Group",
                "name": "United Colors of Benetton",
                "shop": "clothes",
                "short_name": "Benetton"
            }
        },
        {
            "type": "node",
            "id": 8839426101,
            "lat": 43.3053864,
            "lon": 11.3186985,
            "timestamp": "2024-12-03T20:30:26Z",
            "version": 5,
            "changeset": 159895982,
            "user": "mpbin",
            "uid": 21850090,
            "tags": {
                "addr:city": "Siena",
                "addr:housenumber": "24",
                "addr:postcode": "53100",
                "addr:street": "Strada Massetana Romana",
                "brand": "Trony",
                "brand:wikidata": "Q3999692",
                "name": "Trony",
                "operator": "Trony",
                "phone": "+39 0577 271600",
                "shop": "electronics",
                "website": "https://promozioni.trony.it/volantino/TRO019_A",
                "wheelchair": "no"
            }
        },
        {
            "type": "node",
            "id": 9286472668,
            "lat": 43.6993852,
            "lon": 11.8040369,
            "timestamp": "2025-10-08T18:22:07Z",
            "version": 2,
            "changeset": 173018112,
            "user": "btcitnet",
            "uid": 22525435,
            "tags": {
                "addr:city": "Bibbiena",
                "addr:postcode": "52011",
                "brand": "OVS",
                "brand:wikidata": "Q2042514",
                "brand:wikipedia": "en:OVS (company)",
                "name": "OVS",
                "shop": "clothes"
            }
        },
        {
            "type": "node",
            "id": 9911884256,
            "lat": 43.2020909,
            "lon": 12.0762297,
            "timestamp": "2025-10-08T18:23:01Z",
            "version": 3,
            "changeset": 173018154,
            "user": "btcitnet",
            "uid": 22525435,
            "tags": {
                "addr:city": "Tuoro Sul Trasimeno",
                "addr:housenumber": "7",
                "addr:postcode": "06069",
                "addr:street": "Via Sette Martiri",
                "air_conditioning": "yes",
                "brand": "Conad",
                "brand:wikidata": "Q639075",
                "check_date": "2025-07-25",
                "name": "Conad",
                "shop": "supermarket"
            }
        },
        {
            "type": "node",
            "id": 9949098849,
            "lat": 43.3212364,
            "lon": 11.3291768,
            "timestamp": "2025-01-03T14:24:50Z",
            "version": 7,
            "changeset": 160951578,
            "user": "mpbin",
            "uid": 21850090,
            "tags": {
                "addr:city": "Siena",
                "addr:country": "IT",
                "addr:housenumber": "6-12",
                "addr:postcode": "53100",
                "addr:street": "Piazza Giacomo Matteotti",
                "brand": "OVS",
                "brand:wikidata": "Q2042514",
                "contact:phone": "+39 0577 41390",
                "contact:website": "https://www.ovs.it/it/it/stores/italia/toscana/siena/ovs-siena",
                "name": "OVS",
                "operator": "OVS",
                "shop": "clothes"
            }
        },
        {
            "type": "node",
            "id": 9951107918,
            "lat": 43.3495307,
            "lon": 11.9073115,
            "timestamp": "2025-10-08T18:24:24Z",
            "version": 3,
            "changeset": 173018202,
            "user": "btcitnet",
            "uid": 22525435,
            "tags": {
                "addr:city": "Castiglion Fiorentino",
                "addr:housenumber": "29",
                "addr:postcode": "52043",
                "addr:street": "Via Martiri di Nassiriya",
                "brand": "Conad",
                "brand:wikidata": "Q639075",
                "name": "Conad",
                "shop": "supermarket"
            }
        },
        {
            "type": "node",
            "id": 10102672026,
            "lat": 43.3313965,
            "lon": 11.3166959,
            "timestamp": "2025-01-14T15:09:24Z",
            "version": 4,
            "changeset": 161348824,
            "user": "DnaX",
            "uid": 69259,
            "tags": {
                "addr:city": "Siena",
                "addr:housenumber": "138",
                "addr:postcode": "53100",
                "addr:street": "Viale Camillo Benso di Cavour",
                "addr:unit": "A",
                "brand": "GrandVision",
                "brand:wikidata": "Q105644278",
                "name": "GrandVision",
                "operator": "Avanzi",
                "phone": "+39 0577 223546",
                "shop": "optician",
                "website": "https://www.grandvision.it/it-it/trova-negozi/negozio?storeNumber=K107&cid=yext_GMB_website_K107"
            }
        },
        {
            "type": "node",
            "id": 10141459632,
            "lat": 43.2747497,
            "lon": 11.7494835,
            "timestamp": "2024-08-14T08:57:40Z",
            "version": 2,
            "changeset": 155229071,
            "user": "mauropili",
            "uid": 1496865,
            "tags": {
                "addr:city": "Lucignano",
                "addr:housenumber": "37",
                "addr:postcode": "52046",
                "addr:street": "Via Della Concia",
                "contact:facebook": "https://www.facebook.com/cipressoepietra",
                "contact:instagram": "https://www.instagram.com/cipressoepietra/",
                "contact:pinterest": "https://it.pinterest.com/cipressoepietra/",
                "currency:XBT": "yes",
                "email": "info@cipressoepietra.com",
                "guest_house": "bed_and_breakfast",
                "name": "Cipresso e Pietra",
                "payment:lightning": "yes",
                "payment:lightning_contactless": "no",
                "payment:onchain": "yes",
                "phone": "+39 353 345 9532",
                "survey:date": "2022-10-30",
                "tourism": "guest_house",
                "website": "https://CipressoePietra.com"
            }
        },
        {
            "type": "node",
            "id": 10721887873,
            "lat": 43.6298198,
            "lon": 11.4614133,
            "timestamp": "2025-01-03T17:32:23Z",
            "version": 4,
            "changeset": 160959094,
            "user": "mpbin",
            "uid": 21850090,
            "tags": {
                "addr:city": "Figline e Incisa Valdarno",
                "addr:housenumber": "40",
                "addr:postcode": "50063",
                "addr:street": "Via Romania",
                "air_conditioning": "yes",
                "brand": "MediaWorld",
                "brand:wikidata": "Q2381223",
                "name": "MediaWorld",
                "opening_hours": "Mo-Sa 09:30-20:00; Su 09:30-13:30,15:30-19:30",
                "operator": "MediaMarket S.p.A.",
                "payment:cash": "yes",
                "payment:credit_cards": "yes",
                "phone": "0559506111",
                "shop": "electronics",
                "wheelchair": "yes"
            }
        },
        {
            "type": "node",
            "id": 10721944833,
            "lat": 43.6296611,
            "lon": 11.4619065,
            "timestamp": "2023-03-08T18:14:27Z",
            "version": 1,
            "changeset": 133451143,
            "user": "gi_maf",
            "uid": 18559051,
            "tags": {
                "addr:city": "Figline e Incisa Valdarno",
                "addr:housenumber": "40",
                "addr:postcode": "50063",
                "addr:street": "Via Romania",
                "brand": "OVS",
                "brand:wikidata": "Q2042514",
                "clothes": "women;underwear;men;children;sports;workwear;suits;hats",
                "name": "OVS",
                "opening_hours": "Mo-Sa 09:00-20:00; Su 08:30-13:30",
                "operator": "OVS",
                "phone": "+39 055 9154196",
                "shop": "clothes",
                "website": "https://stores.ovs.it/it/italia/toscana/firenze/ovs-figline-valdarno",
                "wheelchair": "yes"
            }
        },
        {
            "type": "node",
            "id": 10868979845,
            "lat": 43.32136,
            "lon": 11.3282138,
            "timestamp": "2024-03-07T16:25:12Z",
            "version": 3,
            "changeset": 148350459,
            "user": "DabMK",
            "uid": 17965418,
            "tags": {
                "addr:city": "Siena",
                "addr:housenumber": "16",
                "addr:postcode": "53100",
                "addr:street": "Viale Curtatone",
                "brand": "Conad City",
                "brand:wikidata": "Q57543102",
                "name": "Conad City",
                "phone": "+39 0577 557871",
                "shop": "supermarket",
                "website": "https://www.conad.it/ricerca-negozi/conad-city-viale-curtatone-16-53100-siena--010476"
            }
        },
        {
            "type": "node",
            "id": 10881103069,
            "lat": 43.3868146,
            "lon": 11.7793179,
            "timestamp": "2024-09-23T12:43:23Z",
            "version": 4,
            "changeset": 156994099,
            "user": "mpbin",
            "uid": 21850090,
            "tags": {
                "addr:city": "Tegoleto",
                "addr:housenumber": "14",
                "addr:postcode": "52041",
                "addr:street": "Strada Statale 73 Senese Aretina",
                "amenity": "car_rental",
                "check_date": "2024-09-21",
                "check_date:currency:XBT": "2024-09-21",
                "contact:facebook": "https://www.facebook.com/nostalgicexperience/",
                "contact:instagram": "https://www.instagram.com/nostalgicexperience/",
                "currency:XBT": "yes",
                "description": "We rent our vintage vehicles only during weekends (i.e. Saturday or Sunday)",
                "email": "nostalgicexperience@gmail.com",
                "name": "Nostalgic Experience",
                "payment:lightning": "yes",
                "payment:lightning_contactless": "no",
                "payment:onchain": "yes",
                "phone": "+39 333 9996 146",
                "survey:date": "2023-05-09",
                "website": "https://www.nostalgicexperience.com/"
            }
        },
        {
            "type": "node",
            "id": 10914031678,
            "lat": 43.4642377,
            "lon": 11.8633333,
            "timestamp": "2025-06-28T17:39:40Z",
            "version": 10,
            "changeset": 168236742,
            "user": "Bota87",
            "uid": 19327867,
            "tags": {
                "addr:city": "Arezzo",
                "addr:housenumber": "35",
                "addr:postcode": "52100",
                "addr:street": "Via Alessandro dal Borro",
                "amenity": "restaurant",
                "contact:facebook": "https://www.facebook.com/mopizzapescaiola",
                "cuisine": "pizza",
                "currency:XBT": "yes",
                "description": "Pizza - Pinsa romana - A taglio - D'asporto - Consegna a domicilio",
                "indoor_seating": "yes",
                "name": "Mo' piZZa ex Mondo Pizza Pescaiola",
                "outdoor_seating": "yes",
                "payment:lightning": "yes",
                "payment:lightning_contactless": "yes",
                "payment:onchain": "yes",
                "phone": "+39 0575 042931",
                "phone:mobile": "+39 333 6562147",
                "survey:date": "2025-06-28",
                "website": "https://mo-pizza.com"
            }
        },
        {
            "type": "node",
            "id": 10916834927,
            "lat": 43.4710712,
            "lon": 11.8881845,
            "timestamp": "2023-11-17T17:01:00Z",
            "version": 2,
            "changeset": 144147593,
            "user": "toponomastica_comune_arenzano",
            "uid": 14257573,
            "tags": {
                "addr:city": "Arezzo",
                "addr:housenumber": "26a",
                "addr:postcode": "52100",
                "addr:street": "Via Pier Luigi da Palestrina",
                "currency:XBT": "yes",
                "description": "Ingrosso Fiori e Piante",
                "name": "Coimf Snc Ingrosso Fiori e Piante",
                "payment:onchain": "yes",
                "shop": "florist",
                "survey:date": "2023-05-21",
                "website": "https://www.coimf.it"
            }
        },
        {
            "type": "node",
            "id": 11071694522,
            "lat": 43.4635311,
            "lon": 11.8790102,
            "timestamp": "2025-10-05T20:12:21Z",
            "version": 5,
            "changeset": 172884353,
            "user": "Bota87",
            "uid": 19327867,
            "tags": {
                "addr:city": "Arezzo",
                "addr:floor": "Galleria I piano",
                "addr:housenumber": "25e",
                "addr:postcode": "52100",
                "addr:street": "Via Guido Monaco",
                "check_date": "2024-09-23",
                "check_date:currency:XBT": "2025-10-03",
                "currency:XBT": "yes",
                "description": "Intermediazione e consulenza assicurativa",
                "email": "assicurazioni.bartolozzi@gmail.com",
                "name": "Agenzia Assicurazioni Bartolozzi",
                "office": "insurance",
                "payment:lightning": "no",
                "payment:lightning_contactless": "no",
                "payment:onchain": "yes",
                "phone": "+39 346 585 5227",
                "ref:vatin": "02005380510",
                "survey:date": "2024-09-26"
            }
        },
        {
            "type": "node",
            "id": 11172937335,
            "lat": 43.316948,
            "lon": 11.3306711,
            "timestamp": "2024-06-19T10:12:53Z",
            "version": 3,
            "changeset": 152887675,
            "user": "DabMK",
            "uid": 17965418,
            "tags": {
                "addr:city": "Siena",
                "addr:housenumber": "99",
                "addr:postcode": "53100",
                "addr:street": "Via di Citt\u00e0",
                "branch": "TUDAY",
                "brand": "Conad City",
                "brand:wikidata": "Q57543102",
                "name": "Conad City",
                "phone": "+39 0577 259000",
                "shop": "supermarket",
                "website": "https://www.conad.it/ricerca-negozi/tuday-conad-via-di-citta-99-53100-siena--010415"
            }
        },
        {
            "type": "node",
            "id": 11331293588,
            "lat": 43.3223566,
            "lon": 11.3476553,
            "timestamp": "2023-11-07T22:37:16Z",
            "version": 2,
            "changeset": 143757015,
            "user": "b-jazz-bot",
            "uid": 9451067,
            "tags": {
                "addr:city": "Siena",
                "addr:housenumber": "94",
                "addr:postcode": "53100",
                "addr:street": "Viale Pietro Toselli",
                "addr:unit": "B",
                "brand": "Chicco",
                "brand:wikidata": "Q27897515",
                "name": "Chicco",
                "phone": "+39 0577 766009",
                "shop": "baby_goods",
                "website": "https://www.chicco.it/"
            }
        },
        {
            "type": "node",
            "id": 11331293623,
            "lat": 43.3202257,
            "lon": 11.3501049,
            "timestamp": "2023-11-07T16:30:14Z",
            "version": 2,
            "changeset": 143744676,
            "user": "DabMK",
            "uid": 17965418,
            "tags": {
                "addr:city": "Siena",
                "addr:housenumber": "106",
                "addr:postcode": "53100",
                "addr:street": "Viale Pietro Toselli",
                "brand": "PittaRosso",
                "brand:wikidata": "Q105643314",
                "name": "PittaRosso",
                "phone": "+39 0577 236602",
                "shop": "shoes",
                "website": "https://negozi.pittarosso.com/it/italia/siena/siena?utm_medium=GMBSitelink&utm_campaign=GMBSitelink_Siena_237"
            }
        },
        {
            "type": "node",
            "id": 11359849665,
            "lat": 43.3108437,
            "lon": 11.3597857,
            "timestamp": "2023-11-18T11:33:48Z",
            "version": 1,
            "changeset": 144170656,
            "user": "DabMK",
            "uid": 17965418,
            "tags": {
                "addr:city": "Siena",
                "addr:housenumber": "14/16",
                "addr:postcode": "53100",
                "addr:street": "Strada Levante",
                "brand": "Upim",
                "brand:wikidata": "Q1414836",
                "name": "Upim",
                "phone": "+39 0577 530048",
                "shop": "department_store",
                "website": "https://stores.upim.com/it/italia/toscana/siena/siena-ss-73-levante?utm_medium=GMBSitelink&utm_campaign=GMBSitelink_Siena_6988"
            }
        },
        {
            "type": "node",
            "id": 11375064371,
            "lat": 43.6488721,
            "lon": 11.3917506,
            "timestamp": "2023-11-25T10:44:33Z",
            "version": 1,
            "changeset": 144436664,
            "user": "Chiarant",
            "uid": 18452174,
            "tags": {
                "addr:city": "Poggio alla Croce",
                "addr:housenumber": "16",
                "addr:postcode": "50022",
                "addr:street": "Localit\u00e0 Musignana",
                "amenity": "animal_boarding",
                "check_date": "2023-11-25",
                "currency:XBT": "yes",
                "name": "Mayra e Sasha - Pensione Casalinga",
                "website": "https://www.dogsitterfiglinevaldarno.com/"
            }
        },
        {
            "type": "node",
            "id": 11643046794,
            "lat": 43.3310333,
            "lon": 11.3221213,
            "timestamp": "2025-01-01T21:26:55Z",
            "version": 3,
            "changeset": 160886030,
            "user": "mpbin",
            "uid": 21850090,
            "tags": {
                "addr:city": "Siena",
                "addr:housenumber": "25",
                "addr:place": "Piazzale Carlo Rosselli",
                "addr:postcode": "53100",
                "brand": "Unieuro",
                "brand:wikidata": "Q4004687",
                "name": "Unieuro",
                "operator": "Unieuro S.p.A.",
                "phone": "+39 0577 226912",
                "shop": "electronics",
                "website": "https://www.unieuro.it/online/negozi/Unieuro-Siena"
            }
        },
        {
            "type": "node",
            "id": 11691943880,
            "lat": 43.0980925,
            "lon": 11.7867591,
            "timestamp": "2024-03-04T21:55:46Z",
            "version": 1,
            "changeset": 148227006,
            "user": "DabMK",
            "uid": 17965418,
            "tags": {
                "addr:city": "Montepulciano",
                "addr:housenumber": "4",
                "addr:postcode": "53045",
                "addr:street": "Via Elio Bernabei",
                "addr:unit": "A",
                "brand": "Conad",
                "brand:wikidata": "Q639075",
                "name": "Conad",
                "opening_hours": "Mo-Su 08:00-20:00",
                "operator": "CO.RI.M. s.r.l.",
                "phone": "+39 0578 716731",
                "ref:vatin": "IT00268020526",
                "shop": "supermarket"
            }
        },
        {
            "type": "node",
            "id": 11778374552,
            "lat": 43.3347691,
            "lon": 11.3007112,
            "timestamp": "2025-08-27T20:45:49Z",
            "version": 13,
            "changeset": 171104057,
            "user": "Comino",
            "uid": 6794624,
            "tags": {
                "addr:city": "Siena",
                "addr:housenumber": "9",
                "addr:postcode": "53100",
                "addr:street": "Via Bernardino Perfetti",
                "addr:unit": "14",
                "check_date": "2024-09-25",
                "check_date:currency:XBT": "2024-09-25",
                "contact:instagram": "https://www.instagram.com/bed_and_breakfast_siena",
                "currency:XBT": "yes",
                "email": "homelatartuca@gmail.com",
                "guest_house": "apartment",
                "image": "https://www.booking.com/hotel/it/la-tartuca.it.html",
                "internet_access": "yes",
                "internet_access:fee": "no",
                "internet_access:ssid": "La_Tartuca-5G-F789EE",
                "level": "4",
                "name": "B&B La Tartaruga",
                "not:name": "GIULIA",
                "opening_hours": "24/7",
                "payment:cash": "yes",
                "payment:lightning": "yes",
                "payment:notes": "yes",
                "payment:onchain": "yes",
                "phone": "+393384845333",
                "rooms": "5",
                "tourism": "guest_house"
            }
        },
        {
            "type": "node",
            "id": 11953950669,
            "lat": 43.4736708,
            "lon": 11.8462018,
            "timestamp": "2024-10-08T17:57:59Z",
            "version": 2,
            "changeset": 157639323,
            "user": "Bota87",
            "uid": 19327867,
            "tags": {
                "addr:city": "Arezzo",
                "addr:housenumber": "439",
                "addr:postcode": "52100",
                "addr:street": "Via Fiorentina",
                "contact:facebook": "https://www.facebook.com/kasastorearezzo",
                "currency:XBT": "yes",
                "description": "Da noi potrai trovare tantissimi articoli per la casa, il fai da te e la cura del corpo",
                "name": "Kasa Store",
                "opening_hours": "Mo-Su 09:00-20:00",
                "payment:lightning": "yes",
                "payment:lightning_contactless": "yes",
                "payment:onchain": "yes",
                "phone": "+39 0575 969400",
                "shop": "variety_store",
                "survey:date": "2024-10-08"
            }
        },
        {
            "type": "node",
            "id": 11973785777,
            "lat": 43.5613878,
            "lon": 11.8477764,
            "timestamp": "2025-07-21T20:56:55Z",
            "version": 2,
            "changeset": 169264107,
            "user": "Bota87",
            "uid": 19327867,
            "tags": {
                "addr:city": "Capolona",
                "addr:housenumber": "18",
                "addr:postcode": "52010",
                "addr:street": "Via del Paradiso",
                "check_date:currency:XBT": "2025-07-21",
                "currency:XBT": "yes",
                "description": "Riparazione di ammaccature senza stucco e riverniciatura",
                "email": "m.ballantini63@gmail.com",
                "name": "Marco Ballantini - Specializzato in auto grandinate",
                "payment:lightning": "yes",
                "payment:onchain": "yes",
                "phone": "+39 333 8556 247",
                "shop": "car_repair"
            }
        },
        {
            "type": "node",
            "id": 12012374477,
            "lat": 43.3199486,
            "lon": 11.3304147,
            "timestamp": "2024-06-26T13:01:27Z",
            "version": 1,
            "changeset": 153201765,
            "user": "DabMK",
            "uid": 17965418,
            "tags": {
                "addr:city": "Siena",
                "addr:housenumber": "48",
                "addr:postcode": "53100",
                "addr:street": "Via delle Terme",
                "brand": "Kasanova",
                "brand:wikidata": "Q116214505",
                "name": "Kasanova",
                "phone": "+39 0577 49130",
                "shop": "houseware",
                "website": "https://www.kasanova.com/it/?utm_campaign=localmarketing&utm_medium=localrecord"
            }
        },
        {
            "type": "node",
            "id": 12041630682,
            "lat": 43.349251,
            "lon": 11.3077345,
            "timestamp": "2025-03-25T09:17:09Z",
            "version": 2,
            "changeset": 164067003,
            "user": "damianeue",
            "uid": 10124288,
            "tags": {
                "addr:city": "Siena",
                "addr:housenumber": "21",
                "addr:postcode": "53035",
                "addr:street": "Via Sandro Pertini",
                "brand": "Expert",
                "brand:wikidata": "Q680990",
                "name": "Expert",
                "phone": "+39 0577 52771",
                "shop": "electronics",
                "website": "https://elettromercato.domex.it/homepage/"
            }
        },
        {
            "type": "node",
            "id": 12048108646,
            "lat": 43.33077,
            "lon": 11.3223235,
            "timestamp": "2025-01-10T10:06:49Z",
            "version": 2,
            "changeset": 161198626,
            "user": "DnaX",
            "uid": 69259,
            "tags": {
                "addr:city": "Siena",
                "addr:place": "Piazzale Carlo Rosselli",
                "addr:postcode": "53100",
                "brand": "Salmoiraghi & Vigan\u00f2",
                "brand:wikidata": "Q21272314",
                "email": "info@salmoiraghievigano.it",
                "name": "Salmoiraghi & Vigan\u00f2",
                "phone": "+39 0577 226889",
                "shop": "optician",
                "website": "https://www.salmoiraghievigano.it/"
            }
        },
        {
            "type": "node",
            "id": 12073681908,
            "lat": 43.5645102,
            "lon": 11.5306993,
            "timestamp": "2025-10-16T11:02:48Z",
            "version": 4,
            "changeset": 173359978,
            "user": "btcitnet",
            "uid": 22525435,
            "tags": {
                "addr:city": "San Giovanni Valdarno",
                "addr:housenumber": "111c",
                "addr:postcode": "52027",
                "addr:street": "Corso Italia",
                "brand": "Bottega Verde",
                "brand:wikidata": "Q894870",
                "name": "Bottega Verde",
                "shop": "cosmetics"
            }
        },
        {
            "type": "node",
            "id": 12550106324,
            "lat": 43.4624968,
            "lon": 11.8768274,
            "timestamp": "2025-02-01T23:59:49Z",
            "version": 2,
            "changeset": 162030095,
            "user": "Bota87",
            "uid": 19327867,
            "tags": {
                "addr:city": "Arezzo",
                "addr:housenumber": "7",
                "addr:postcode": "52100",
                "addr:street": "Via Eritrea",
                "amenity": "atm",
                "cash_withdrawal": "no",
                "check_date": "2025-02-01",
                "contact:facebook": "https://www.facebook.com/goodluckarezzo786",
                "contact:instagram": "https://www.instagram.com/goodluckarezzo",
                "contact:whatsapp": "+39 380 580 5980",
                "currency:XBT": "yes",
                "description": "Bitcoin ATM operato da CoinFlip, situato all'interno di Good Luck, agenzia di viaggi e money transfer",
                "email": "arezzo4@yahoo.it",
                "indoor": "yes",
                "name": "CoinFlip ATM",
                "opening_hours": "Mo-Su 09:00-21:00",
                "operator": "CoinFlip",
                "payment:lightning": "no",
                "payment:lightning_contactless": "no",
                "payment:onchain": "yes",
                "phone": "+39 324 628 8800",
                "website": "https://locations.coinflip.tech/it/ar/arezzo/via-eritrea-7/7a"
            }
        },
        {
            "type": "node",
            "id": 12663183460,
            "lat": 43.3239537,
            "lon": 11.5636688,
            "timestamp": "2025-03-14T17:58:08Z",
            "version": 1,
            "changeset": 163620911,
            "user": "DabMK",
            "uid": 17965418,
            "tags": {
                "addr:city": "Castelnuovo Berardenga",
                "addr:postcode": "53019",
                "addr:street": "Raccordo Siena-Bettolle",
                "amenity": "fuel",
                "brand": "Tamoil",
                "brand:wikidata": "Q706793",
                "fuel:diesel": "yes",
                "fuel:lpg": "yes",
                "fuel:octane_95": "yes",
                "name": "Tamoil",
                "operator": "Laky'S Oil & Food S.R.L.",
                "ref:mise": "20885",
                "self_service": "yes"
            }
        },
        {
            "type": "node",
            "id": 12663183487,
            "lat": 43.0168902,
            "lon": 11.9052829,
            "timestamp": "2025-03-14T17:58:08Z",
            "version": 1,
            "changeset": 163620911,
            "user": "DabMK",
            "uid": 17965418,
            "tags": {
                "addr:city": "Chiusi",
                "brand": "OVS",
                "brand:wikidata": "Q2042514",
                "name": "OVS",
                "shop": "clothes"
            }
        },
        {
            "type": "node",
            "id": 13196452172,
            "lat": 43.4679795,
            "lon": 11.8503857,
            "timestamp": "2025-10-05T20:32:22Z",
            "version": 1,
            "changeset": 172885051,
            "user": "Bota87",
            "uid": 19327867,
            "tags": {
                "addr:city": "Arezzo",
                "addr:housenumber": "20",
                "addr:postcode": "52100",
                "addr:street": "Via Ferraris",
                "check_date:currency:XBT": "2025-09-24",
                "contact:facebook": "https://www.facebook.com/ilgommaiosrls",
                "currency:XBT": "yes",
                "description": "Soccorso stradale Gommista",
                "email": "s.gomma@libero.it",
                "name": "Gommaio S'Gomma",
                "opening_hours": "Mo-Sa 08:30-12:30; Mo-Fr 14:30-18:30",
                "payment:lightning": "yes",
                "payment:lightning_contactless": "yes",
                "payment:onchain": "yes",
                "phone": "+39 0575 493955",
                "phone:mobile": "+39 327 625 9254",
                "ref:vatin": "02375110513",
                "shop": "tyres",
                "survey:date": "2025-09-24"
            }
        },
        {
            "type": "node",
            "id": 13203321752,
            "lat": 43.4612827,
            "lon": 11.8627954,
            "timestamp": "2025-10-16T11:04:10Z",
            "version": 3,
            "changeset": 173360048,
            "user": "btcitnet",
            "uid": 22525435,
            "tags": {
                "addr:city": "Arezzo",
                "addr:housenumber": "15c",
                "addr:postcode": "52100",
                "addr:street": "Via Acuto",
                "amenity": "atm",
                "cash_in": "yes",
                "cash_out": "no",
                "check_date": "2025-10-08",
                "currency:XBT": "yes",
                "description": "Bitcoin ATM operato da Crypto Local ATM, situato all'interno di Tabaccheria 83",
                "image": "https://cryptolocalatm.com/wp-content/uploads/2025/03/CryptoLocalATM-BITOCIN-ATM-AREZZO-BANCOMAT.jpg",
                "indoor": "yes",
                "level": "0",
                "manufacturer": "General Bytes",
                "name": "Crypto Local ATM",
                "opening_hours": "Mo-Fr 07:00-20:00; Sa 08:00-12:30",
                "operator": "Crypto Local ATM",
                "payment:lightning": "no",
                "payment:lightning_contactless": "no",
                "payment:notes": "yes",
                "payment:onchain": "yes",
                "phone": "+39 340 051 1190",
                "start_date": "2025-03-17",
                "url": "https://coinatmradar.com/bitcoin_atm/94483/bitcoin-atm-general-bytes-arezzo-tabaccheria-83/",
                "website": "https://cryptolocalatm.com/bitcoin-atm-in-arezzo/"
            }
        },
        {
            "type": "way",
            "id": 61890489,
            "timestamp": "2025-10-22T20:50:18Z",
            "version": 4,
            "changeset": 173646849,
            "user": "btcitnet",
            "uid": 22525435,
            "nodes": [
                771296104,
                771296376,
                771296266,
                771296231,
                771296104
            ],
            "tags": {
                "addr:city": "Castiglione del Lago",
                "addr:housenumber": "214",
                "addr:postcode": "06061",
                "addr:street": "Via Roma",
                "brand": "Conad",
                "brand:wikidata": "Q639075",
                "brand:wikipedia": "it:Conad",
                "building": "yes",
                "name": "Conad",
                "shop": "supermarket"
            }
        },
        {
            "type": "way",
            "id": 61915136,
            "timestamp": "2025-10-22T20:51:35Z",
            "version": 5,
            "changeset": 173646890,
            "user": "btcitnet",
            "uid": 22525435,
            "nodes": [
                771752825,
                771752950,
                771752430,
                771752608,
                771752825
            ],
            "tags": {
                "addr:city": "Castiglione del Lago",
                "addr:housenumber": "1",
                "addr:postcode": "06061",
                "addr:street": "Localit\u00e0 Castagni",
                "building": "hotel",
                "check_date": "2024-07-10",
                "currency:XBT": "yes",
                "email": "info@agriturismolapineta.com",
                "guest_house": "agritourism",
                "name": "Agriturismo La Pineta",
                "phone": "+39 0756 708017",
                "tourism": "guest_house",
                "website": "https://agriturismolapineta.com/"
            }
        },
        {
            "type": "way",
            "id": 99843797,
            "timestamp": "2025-10-22T20:52:38Z",
            "version": 5,
            "changeset": 173646913,
            "user": "btcitnet",
            "uid": 22525435,
            "nodes": [
                1154261982,
                1154261964,
                1154261999,
                1154261972,
                1154261982
            ],
            "tags": {
                "addr:city": "Buonconvento",
                "addr:postcode": "53022",
                "addr:street": "Via Don Luigi Rosaldini",
                "brand": "Expert",
                "brand:wikidata": "Q680990",
                "building": "commercial",
                "name": "Expert",
                "shop": "electronics"
            }
        },
        {
            "type": "way",
            "id": 199479651,
            "timestamp": "2024-03-23T10:43:28Z",
            "version": 4,
            "changeset": 149045483,
            "user": "DabMK",
            "uid": 17965418,
            "nodes": [
                2094678214,
                11098015249,
                11098015250,
                2094678200,
                2094678190,
                2094678201,
                2094678211,
                2094678214
            ],
            "tags": {
                "addr:city": "Chianciano Terme",
                "addr:postcode": "53042",
                "addr:street": "Viale Guido Baccelli",
                "amenity": "fuel",
                "brand": "Q8",
                "brand:wikidata": "Q1634762",
                "name": "Q8",
                "operator": "Servizi & Gestioni Italia S.R.L.",
                "ref:mise": "11833",
                "source:date": "2018-04-16"
            }
        },
        {
            "type": "way",
            "id": 441172225,
            "timestamp": "2025-10-22T20:53:36Z",
            "version": 5,
            "changeset": 173646944,
            "user": "btcitnet",
            "uid": 22525435,
            "nodes": [
                6760810379,
                4389457556,
                4389457557,
                4389457558,
                6760810378,
                6760810379
            ],
            "tags": {
                "addr:city": "Pocaia",
                "addr:postcode": "52035",
                "addr:street": "SP221",
                "amenity": "fuel",
                "brand": "Tamoil",
                "brand:wikidata": "Q706793",
                "compressed_air": "yes",
                "name": "Tamoil",
                "operator": "T.D.M. S.R.L.",
                "ref:mise": "39827"
            }
        },
        {
            "type": "way",
            "id": 714329689,
            "timestamp": "2024-02-08T12:08:59Z",
            "version": 3,
            "changeset": 147214985,
            "user": "DabMK",
            "uid": 17965418,
            "nodes": [
                6714732272,
                6714732268,
                6714732267,
                6714732266,
                6714732272
            ],
            "tags": {
                "addr:city": "Sinalunga",
                "addr:postcode": "53048",
                "brand": "Carrefour",
                "brand:wikidata": "Q217599",
                "building": "supermarket",
                "height": "6.09",
                "name": "Carrefour",
                "shop": "supermarket"
            }
        },
        {
            "type": "way",
            "id": 720717147,
            "timestamp": "2023-08-08T06:40:16Z",
            "version": 3,
            "changeset": 139596299,
            "user": "paulbrunner",
            "uid": 15541433,
            "nodes": [
                6762966983,
                6762966988,
                6762966981,
                6762966986,
                6762966987,
                6762966980,
                6762966989,
                6762966990,
                6762966991,
                6762966982,
                6762966985,
                6762966984,
                6762966983
            ],
            "tags": {
                "addr:city": "Montevarchi",
                "addr:housenumber": "42",
                "addr:postcode": "52052",
                "addr:street": "Via Giovanni Pascoli",
                "brand": "Conad City",
                "brand:wikidata": "Q57543102",
                "building": "yes",
                "name": "Conad City",
                "opening_hours": "Mo-Sa 08:00-21:00; Su 08:30-13:30,16:00-20:00",
                "shop": "supermarket"
            }
        },
        {
            "type": "way",
            "id": 1165980978,
            "timestamp": "2024-05-05T10:51:13Z",
            "version": 3,
            "changeset": 150914337,
            "user": "DabMK",
            "uid": 17965418,
            "nodes": [
                10844706487,
                10844706486,
                10844706494,
                10844706495,
                10844706487
            ],
            "tags": {
                "addr:city": "Monteroni d'Arbia",
                "addr:postcode": "53014",
                "addr:street": "Via Cassia",
                "amenity": "fuel",
                "brand": "Tamoil",
                "brand:wikidata": "Q706793",
                "description": "Tamoil Monteroni d'Arbia",
                "name": "Tamoil",
                "self_service": "yes"
            }
        },
        {
            "type": "way",
            "id": 1224866046,
            "timestamp": "2024-12-25T17:13:36Z",
            "version": 3,
            "changeset": 160611356,
            "user": "DabMK",
            "uid": 17965418,
            "nodes": [
                11358996466,
                11359018198,
                11359018199,
                12451447920,
                11358996467,
                11358996468,
                11359018169,
                11359018170,
                11359018171,
                11359018172,
                11359018173,
                11359018174,
                11359018175,
                11359018177,
                11359018176,
                11358996466
            ],
            "tags": {
                "addr:city": "Siena",
                "addr:postcode": "53100",
                "addr:street": "Strada Levante",
                "amenity": "fuel",
                "brand": "Tamoil",
                "brand:wikidata": "Q706793",
                "fuel:diesel": "yes",
                "fuel:octane_95": "yes",
                "highway": "services",
                "name": "Tamoil",
                "operator": "Autotrasporti F.lli Tiburzi di Tiburzi & C. - S.N.C.",
                "ref:mise": "8153",
                "self_service": "yes"
            }
        },
        {
            "type": "way",
            "id": 1225640740,
            "timestamp": "2024-04-29T17:16:25Z",
            "version": 3,
            "changeset": 150673573,
            "user": "DabMK",
            "uid": 17965418,
            "nodes": [
                1606587244,
                11225454258,
                11366161954,
                11366161955,
                11366161956,
                11366161957,
                11366161958,
                11366161959,
                11366161960,
                11366161961,
                1606556237,
                1606587244
            ],
            "tags": {
                "addr:city": "Siena",
                "addr:postcode": "53100",
                "addr:street": "Strada di Petriccio e Belriguardo",
                "amenity": "fuel",
                "brand": "Tamoil",
                "brand:wikidata": "Q706793",
                "fuel:diesel": "yes",
                "fuel:octane_95": "yes",
                "highway": "services",
                "name": "Tamoil",
                "operator": "Di Libero Libero & Piccini Franco S.N.C.",
                "ref:mise": "17790",
                "self_service": "yes"
            }
        },
        {
            "type": "way",
            "id": 1228954788,
            "timestamp": "2025-03-18T16:15:17Z",
            "version": 4,
            "changeset": 163782353,
            "user": "DabMK",
            "uid": 17965418,
            "nodes": [
                11397000389,
                11397000390,
                11397000391,
                11397000392,
                11397000389
            ],
            "tags": {
                "addr:city": "Siena",
                "addr:housenumber": "2",
                "addr:postcode": "53100",
                "addr:street": "Via delle Province",
                "brand": "Conad",
                "brand:wikidata": "Q639075",
                "building": "commercial",
                "long_name": "Siena Acquacalda",
                "name": "Conad",
                "phone": "+39 0577 556615",
                "shop": "supermarket",
                "start_date": "2023-11-29",
                "website": "https://www.conad.it/ricerca-negozi/conad-via-delle-province-2-53100-siena--010524"
            }
        },
        {
            "type": "way",
            "id": 1235514922,
            "timestamp": "2024-12-14T22:34:23Z",
            "version": 4,
            "changeset": 160293838,
            "user": "DabMK",
            "uid": 17965418,
            "nodes": [
                11469283912,
                11469283913,
                11469283914,
                11469283915,
                11469283916,
                11051323079,
                11051323080,
                11469283917,
                8730555364,
                8730555363,
                11469283918,
                11469283919,
                11469283920,
                11469283926,
                11469283921,
                11469283922,
                11469283923,
                11469283924,
                11469283925,
                11469283912
            ],
            "tags": {
                "addr:city": "Siena",
                "addr:postcode": "53035",
                "addr:street": "Tangenziale Ovest di Siena",
                "amenity": "fuel",
                "brand": "Tamoil",
                "brand:wikidata": "Q706793",
                "fuel:cng": "yes",
                "fuel:diesel": "yes",
                "fuel:lpg": "yes",
                "fuel:methane": "yes",
                "fuel:octane_95": "yes",
                "highway": "services",
                "name": "Area di Servizio Montecelso",
                "operator": "Drive Service S.R.L.",
                "phone": "+39 0577 975847",
                "ref:mise": "4077",
                "self_service": "yes",
                "website": "https://www.tamoil.it/"
            }
        },
        {
            "type": "way",
            "id": 1256844242,
            "timestamp": "2025-10-22T20:55:32Z",
            "version": 2,
            "changeset": 173647020,
            "user": "btcitnet",
            "uid": 22525435,
            "nodes": [
                228246517,
                11684534209,
                4727232448,
                4727232447,
                11684534210,
                11684534211,
                11684534212,
                11684534213,
                228246517
            ],
            "tags": {
                "addr:city": "Montepulciano",
                "addr:postcode": "53045",
                "addr:street": "Via per Pienza",
                "amenity": "fuel",
                "brand": "Tamoil",
                "brand:wikidata": "Q706793",
                "highway": "services",
                "name": "Tamoil",
                "operator": "T.D.M. S.R.L.",
                "ref:mise": "38364",
                "self_service": "yes"
            }
        },
        {
            "type": "way",
            "id": 1264507675,
            "timestamp": "2024-07-04T15:59:59Z",
            "version": 2,
            "changeset": 153554417,
            "user": "DabMK",
            "uid": 17965418,
            "nodes": [
                10097612201,
                10097612156,
                10097612155,
                10097612149,
                10097612148,
                10097612147,
                10097612146,
                10097612154,
                10097612153,
                10097612152,
                10097612135,
                10097612174,
                10097612195,
                10097612196,
                10097612197,
                10097612198,
                10097612199,
                10097612200,
                10097612134,
                10097612133,
                10097612201
            ],
            "tags": {
                "addr:city": "Siena",
                "addr:postcode": "53100",
                "addr:street": "Strada Massetana Romana",
                "amenity": "fuel",
                "brand": "Tamoil",
                "brand:wikidata": "Q706793",
                "fuel:diesel": "yes",
                "fuel:octane_95": "yes",
                "highway": "services",
                "name": "Tamoil",
                "operator": "T.D.M. S.R.L.",
                "phone": "+39 800113330",
                "ref:mise": "34744",
                "self_service": "yes",
                "website": "https://www.tamoil.it/"
            }
        },
        {
            "type": "way",
            "id": 1272833227,
            "timestamp": "2024-04-15T16:36:56Z",
            "version": 1,
            "changeset": 150048247,
            "user": "DabMK",
            "uid": 17965418,
            "nodes": [
                228031466,
                11819591696,
                11819591697,
                11819591698,
                11819591699,
                228031466
            ],
            "tags": {
                "addr:city": "Gracciano",
                "amenity": "fuel",
                "brand": "Q8",
                "brand:wikidata": "Q1634762",
                "highway": "services",
                "name": "Q8",
                "operator": "Crm di Trincia Daniele & C. S.A.S.",
                "ref:mise": "37001",
                "self_service": "yes"
            }
        }
    ],
    "telegram": []
}