{
    "id": "bitticcistation",
    "name": "Bitticci Station",
    "lng": 43.1802884,
    "lat": 13.7746607,
    "localita": "Porto San Giorgio (FM)",
    "idlocalita": "portosangiorgio",
    "facebook": "https://www.facebook.com/groups/242104434979365",
    "telegram_members": 395.0,
    "network": "meetup.com",
    "poi": [
        {
            "type": "node",
            "id": 226902306,
            "lat": 43.5194638,
            "lon": 13.4981294,
            "timestamp": "2022-12-25T13:33:09Z",
            "version": 12,
            "changeset": 130482634,
            "user": "totera",
            "uid": 123412,
            "tags": {
                "addr:city": "Osimo",
                "addr:housenumber": "66",
                "addr:postcode": "60027",
                "addr:street": "Via Ancona",
                "amenity": "fuel",
                "brand": "Q8",
                "brand:wikidata": "Q1634762",
                "fuel:GTL_diesel": "yes",
                "fuel:diesel": "yes",
                "fuel:octane_95": "yes",
                "name": "Q8 Mar.Pav.",
                "operator": "Mar.Pav. di Pavoni Marco",
                "phone": "+39 071 7108000",
                "ref:mise": "39361"
            }
        },
        {
            "type": "node",
            "id": 227539738,
            "lat": 43.5190913,
            "lon": 13.5288281,
            "timestamp": "2025-10-05T07:58:28Z",
            "version": 15,
            "changeset": 172856891,
            "user": "btcitnet",
            "uid": 22525435,
            "tags": {
                "addr:city": "Camerano",
                "addr:postcode": "60021",
                "addr:street": "Via Farfisa",
                "amenity": "fuel",
                "brand": "Q8",
                "brand:wikidata": "Q1634762",
                "brand:wikipedia": "en:Kuwait Petroleum Corporation",
                "compressed_air": "no",
                "fuel:cng": "yes",
                "fuel:diesel": "yes",
                "fuel:lng": "yes",
                "fuel:octane_95": "yes",
                "name": "Q8",
                "opening_hours": "24/7",
                "operator": "Servizi & Gestioni Italia S.R.L.",
                "ref:mise": "6601",
                "self_service": "yes"
            }
        },
        {
            "type": "node",
            "id": 227739748,
            "lat": 43.2825287,
            "lon": 13.6836214,
            "timestamp": "2023-05-03T08:30:25Z",
            "version": 10,
            "changeset": 135648380,
            "user": "totera",
            "uid": 123412,
            "tags": {
                "addr:city": "Civitanova Marche",
                "addr:postcode": "62012",
                "addr:street": "Via Piero Gobetti",
                "amenity": "fuel",
                "brand": "Gep carburanti",
                "brand:wikidata": "Q1634762",
                "fuel:cng": "yes",
                "fuel:diesel": "yes",
                "fuel:lpg": "yes",
                "fuel:octane_95": "yes",
                "name": "Q8",
                "nohousenumber": "yes",
                "operator": "Gep Carburanti",
                "ref:mise": "50041"
            }
        },
        {
            "type": "node",
            "id": 227894834,
            "lat": 43.4462138,
            "lon": 13.5540438,
            "timestamp": "2025-10-05T11:14:15Z",
            "version": 10,
            "changeset": 172862238,
            "user": "totera",
            "uid": 123412,
            "tags": {
                "addr:city": "Castelfidardo",
                "addr:milestone": "5",
                "addr:postcode": "60022",
                "addr:street": "Via Jesina",
                "amenity": "fuel",
                "brand": "Q8",
                "brand:wikidata": "Q1634762",
                "brand:wikipedia": "en:Kuwait Petroleum Corporation",
                "fuel:diesel": "yes",
                "fuel:lpg": "yes",
                "fuel:octane_95": "yes",
                "name": "Q8",
                "nohousenumber": "yes",
                "operator": "Servizi & Gestioni Italia Srl",
                "ref:mise": "6602",
                "self_service": "yes"
            }
        },
        {
            "type": "node",
            "id": 227895026,
            "lat": 43.272159,
            "lon": 13.6568,
            "timestamp": "2024-10-14T05:29:23Z",
            "version": 8,
            "changeset": 157859548,
            "user": "totera",
            "uid": 123412,
            "tags": {
                "addr:city": "Sant'Elpidio a Mare",
                "addr:postcode": "63811",
                "addr:street": "Via Brancadoro",
                "amenity": "fuel",
                "brand": "Q8",
                "brand:wikidata": "Q1634762",
                "brand:wikipedia": "en:Kuwait Petroleum Corporation",
                "fuel:diesel": "yes",
                "fuel:lpg": "yes",
                "fuel:octane_95": "yes",
                "name": "Q8",
                "nohousenumber": "yes",
                "operator": "Servizi & Gestioni Italia S.R.L.",
                "ref:mise": "20248"
            }
        },
        {
            "type": "node",
            "id": 227902769,
            "lat": 43.3210622,
            "lon": 13.4268148,
            "timestamp": "2022-12-27T00:53:34Z",
            "version": 8,
            "changeset": 130535901,
            "user": "totera",
            "uid": 123412,
            "tags": {
                "addr:city": "Macerata",
                "addr:milestone": "94.879",
                "addr:postcode": "62100",
                "addr:street": "Strada Provinciale 77 Val di Chienti",
                "amenity": "fuel",
                "brand": "Q8",
                "brand:wikidata": "Q1634762",
                "brand:wikipedia": "en:Kuwait Petroleum Corporation",
                "fuel:diesel": "yes",
                "fuel:octane_95": "yes",
                "name": "Q8",
                "operator": "Servizi & Gestioni Italia S.R.L.",
                "ref:mise": "24372"
            }
        },
        {
            "type": "node",
            "id": 227909946,
            "lat": 43.5084326,
            "lon": 13.6247188,
            "timestamp": "2025-04-19T21:34:41Z",
            "version": 9,
            "changeset": 165171793,
            "user": "btcitnet",
            "uid": 22525435,
            "tags": {
                "addr:city": "Numana",
                "addr:postcode": "60026",
                "brand": "Q8",
                "brand:wikidata": "Q1634762",
                "brand:wikipedia": "en:Kuwait Petroleum Corporation",
                "name": "Q8",
                "operator": "Q8",
                "self_service": "no",
                "waterway": "fuel"
            }
        },
        {
            "type": "node",
            "id": 227910110,
            "lat": 43.503629,
            "lon": 13.499362,
            "timestamp": "2022-11-03T09:35:01Z",
            "version": 8,
            "changeset": 128428569,
            "user": "totera",
            "uid": 123412,
            "tags": {
                "addr:city": "Osimo",
                "addr:milestone": "4.5",
                "addr:postcode": "60027",
                "addr:street": "Strada Provinciale 361 Septempedana",
                "amenity": "fuel",
                "brand": "Q8",
                "brand:wikidata": "Q1634762",
                "brand:wikipedia": "en:Kuwait Petroleum Corporation",
                "fuel:diesel": "yes",
                "fuel:octane_95": "yes",
                "name": "Q8",
                "operator": "Servizi & Gestioni Italia S.R.L.",
                "ref:mise": "6609"
            }
        },
        {
            "type": "node",
            "id": 484013538,
            "lat": 43.2956331,
            "lon": 13.5819979,
            "timestamp": "2024-07-30T12:40:56Z",
            "version": 6,
            "changeset": 154604455,
            "user": "dambuster80",
            "uid": 11734328,
            "tags": {
                "addr:city": "Morrovalle",
                "addr:housenumber": "114",
                "addr:postcode": "62010",
                "addr:street": "Via Martin Luther King",
                "amenity": "fuel",
                "brand": "Tamoil",
                "brand:wikidata": "Q706793",
                "fuel:diesel": "yes",
                "fuel:octane_95": "yes",
                "name": "Galtor Oil",
                "nobrand": "yes",
                "operator": "Torresi Real Estate S.R.L.",
                "ref:mise": "15742"
            }
        },
        {
            "type": "node",
            "id": 593195525,
            "lat": 43.1567122,
            "lon": 13.7238651,
            "timestamp": "2023-01-10T07:37:01Z",
            "version": 4,
            "changeset": 131094938,
            "user": "totera",
            "uid": 123412,
            "tags": {
                "addr:city": "Fermo",
                "addr:housenumber": "41",
                "addr:postcode": "63900",
                "addr:street": "Viale Trieste",
                "brand": "Conad City",
                "brand:wikidata": "Q57543102",
                "name": "Conad City",
                "phone": "+39 0734 225561",
                "shop": "supermarket"
            }
        },
        {
            "type": "node",
            "id": 610647853,
            "lat": 42.8597321,
            "lon": 13.569579,
            "timestamp": "2025-01-22T11:13:39Z",
            "version": 10,
            "changeset": 161633509,
            "user": "totera",
            "uid": 123412,
            "tags": {
                "addr:city": "Ascoli Piceno",
                "addr:housenumber": "26",
                "addr:postcode": "63100",
                "addr:street": "Via Bengasi",
                "brand": "Conad",
                "brand:wikidata": "Q639075",
                "brand:wikipedia": "it:Conad",
                "check_date": "2025-01-22",
                "check_date:opening_hours": "2025-01-21",
                "contact:facebook": "https://www.facebook.com/ConadAscoliPicenoViaBengasi/",
                "name": "Conad",
                "old_name": "Punto Sma; Simply Market",
                "opening_hours": "Mo-Sa 08:00-20:00; Su 08:30-13:00",
                "operator": "Memento Srl",
                "phone": "+39 0736 093313",
                "ref:vatin": "IT02409140445",
                "shop": "supermarket",
                "website": "https://www.conad.it/ricerca-negozi/negozio.010258.html"
            }
        },
        {
            "type": "node",
            "id": 658940312,
            "lat": 42.8580096,
            "lon": 13.7097086,
            "timestamp": "2025-10-06T19:21:35Z",
            "version": 9,
            "changeset": 172930818,
            "user": "btcitnet",
            "uid": 22525435,
            "tags": {
                "addr:city": "Castel di Lama",
                "addr:postcode": "63100",
                "addr:street": "Via Zona Industriale Campolungo",
                "brand": "Intimissimi",
                "brand:wikidata": "Q305404",
                "brand:wikipedia": "en:Intimissimi",
                "check_date": "2025-04-16",
                "clothes": "underwear",
                "level": "0",
                "local_ref": "11;12",
                "mobile": "+39 375 6504713",
                "name": "Intimissimi",
                "operator": "Mi.Lo. srl Unipersonale",
                "phone": "+39 0736 895134",
                "ref:vatin": "IT02022910679",
                "shop": "clothes"
            }
        },
        {
            "type": "node",
            "id": 692295194,
            "lat": 42.8505259,
            "lon": 13.597868,
            "timestamp": "2025-10-06T19:25:36Z",
            "version": 9,
            "changeset": 172930962,
            "user": "btcitnet",
            "uid": 22525435,
            "tags": {
                "addr:city": "Ascoli Piceno",
                "addr:housenumber": "30",
                "addr:postcode": "63100",
                "addr:street": "Via Erasmo Mari",
                "brand": "Conad",
                "brand:wikidata": "Q639075",
                "brand:wikipedia": "it:Conad",
                "check_date": "2025-01-02",
                "name": "Conad",
                "old_name": "Standa;Billa",
                "opening_hours": "Mo-Sa 08:00-20:30; Su 08:30-13:00",
                "shop": "supermarket"
            }
        },
        {
            "type": "node",
            "id": 700299435,
            "lat": 42.8424619,
            "lon": 13.6260277,
            "timestamp": "2025-07-10T10:37:10Z",
            "version": 10,
            "changeset": 168736235,
            "user": "totera",
            "uid": 123412,
            "tags": {
                "addr:city": "Marino del Tronto",
                "addr:direction": "S",
                "addr:milestone": "3.6",
                "addr:postcode": "63100",
                "addr:street": "Strada Statale 81 Piceno Aprutina",
                "amenity": "fuel",
                "brand": "Tamoil",
                "brand:wikidata": "Q706793",
                "brand:wikipedia": "en:Tamoil",
                "fuel:diesel": "yes",
                "fuel:octane_95": "yes",
                "name": "Tamoil",
                "opening_hours": "24/7",
                "operator": "F.lli Armillei-Societ\u00e0 in Nome Collettivo di Armillei Enzo & C.",
                "ref:mise": "21472",
                "self_service": "yes"
            }
        },
        {
            "type": "node",
            "id": 806145697,
            "lat": 42.8370527,
            "lon": 13.6364343,
            "timestamp": "2025-10-22T10:16:06Z",
            "version": 3,
            "changeset": 173619860,
            "user": "btcitnet",
            "uid": 22525435,
            "tags": {
                "addr:city": "Folignano",
                "addr:housenumber": "8",
                "addr:postcode": "63084",
                "addr:street": "Via Barbarana",
                "brand": "Conad",
                "brand:wikidata": "Q639075",
                "brand:wikipedia": "it:Conad",
                "name": "Conad",
                "shop": "supermarket"
            }
        },
        {
            "type": "node",
            "id": 835642995,
            "lat": 43.5312591,
            "lon": 13.6009336,
            "timestamp": "2022-11-21T11:40:47Z",
            "version": 6,
            "changeset": 129192524,
            "user": "totera",
            "uid": 123412,
            "tags": {
                "addr:city": "Sirolo",
                "addr:milestone": "15.455",
                "addr:postcode": "60020",
                "addr:street": "Strada Provinciale 1 del Conero",
                "amenity": "fuel",
                "brand": "Tamoil",
                "brand:wikidata": "Q706793",
                "brand:wikipedia": "en:Tamoil",
                "fuel:diesel": "yes",
                "fuel:octane_95": "yes",
                "name": "Tamoil",
                "operator": "Giacchetta Nazzareno",
                "ref:mise": "12572",
                "wheelchair": "yes"
            }
        },
        {
            "type": "node",
            "id": 893969257,
            "lat": 43.564538,
            "lon": 13.5114443,
            "timestamp": "2025-04-10T17:41:27Z",
            "version": 12,
            "changeset": 164780607,
            "user": "totera",
            "uid": 123412,
            "tags": {
                "addr:city": "Ancona",
                "addr:housenumber": "23c",
                "addr:postcode": "60131",
                "addr:street": "Via Primo Maggio",
                "brand": "MediaWorld",
                "brand:wikidata": "Q2381223",
                "name": "MediaWorld",
                "opening_hours": "Mo-Su 09:30-20:30",
                "operator": "MediaMarket S.p.A. con Socio Unico",
                "ref": "66",
                "ref:vatin": "IT02630120166",
                "shop": "electronics",
                "wheelchair": "yes"
            }
        },
        {
            "type": "node",
            "id": 893975167,
            "lat": 43.5522916,
            "lon": 13.512835,
            "timestamp": "2024-12-31T17:38:30Z",
            "version": 7,
            "changeset": 160842811,
            "user": "mpbin",
            "uid": 21850090,
            "tags": {
                "addr:city": "Ancona",
                "addr:housenumber": "7",
                "addr:postcode": "60131",
                "addr:street": "Via Franco Scataglini",
                "brand": "Unieuro",
                "brand:wikidata": "Q4004687",
                "brand:wikipedia": "en:Unieuro",
                "check_date": "2024-11-22",
                "check_date:opening_hours": "2024-11-22",
                "name": "Unieuro",
                "old_name": "Marco Polo Expert",
                "opening_hours": "Mo-Su 09:30-20:00",
                "operator": "Unieuro S.p.A.",
                "shop": "electronics",
                "wheelchair": "yes"
            }
        },
        {
            "type": "node",
            "id": 945519654,
            "lat": 42.845328,
            "lon": 13.6242355,
            "timestamp": "2025-01-06T00:18:38Z",
            "version": 4,
            "changeset": 161040656,
            "user": "totera",
            "uid": 123412,
            "tags": {
                "addr:city": "Ascoli Piceno",
                "addr:housenumber": "52",
                "addr:postcode": "63100",
                "addr:street": "Viale del Commercio",
                "brand": "United Colors of Benetton",
                "brand:wikidata": "Q817139",
                "brand:wikipedia": "en:Benetton Group",
                "check_date": "2024-10-21",
                "name": "United Colors of Benetton",
                "opening_hours": "Mo-Su 09:00-21:00",
                "shop": "clothes",
                "short_name": "Benetton"
            }
        },
        {
            "type": "node",
            "id": 945519740,
            "lat": 42.8464104,
            "lon": 13.6225391,
            "timestamp": "2025-03-02T19:47:08Z",
            "version": 8,
            "changeset": 163135988,
            "user": "totera",
            "uid": 123412,
            "tags": {
                "addr:city": "Ascoli Piceno",
                "addr:housenumber": "52",
                "addr:postcode": "63100",
                "addr:street": "Viale del Commercio",
                "branch": "Ascoli Battente",
                "brand": "Unieuro",
                "brand:wikidata": "Q4004687",
                "brand:wikipedia": "en:Unieuro",
                "check_date": "2025-03-02",
                "name": "Unieuro",
                "old_name": "Euronics",
                "opening_hours": "Mo-Su 09:00-21:00",
                "operator": "Unieuro S.p.A.",
                "phone": "+39 0736 46625",
                "ref": "173",
                "ref:vatin": "IT00876320409",
                "shop": "electronics",
                "website": "https://www.unieuro.it/online/negozi/Unieuro-Ascoli-Piceno---via-del-Commercio-"
            }
        },
        {
            "type": "node",
            "id": 1268117617,
            "lat": 43.4890684,
            "lon": 13.4934801,
            "timestamp": "2025-10-05T08:02:16Z",
            "version": 5,
            "changeset": 172857007,
            "user": "btcitnet",
            "uid": 22525435,
            "tags": {
                "addr:city": "Osimo",
                "addr:housenumber": "16",
                "addr:postcode": "60027",
                "addr:street": "Via Vecchia Fornace",
                "brand": "Conad",
                "brand:wikidata": "Q639075",
                "brand:wikipedia": "it:Conad",
                "name": "Conad",
                "old_name": "Simply Market",
                "phone": "+39 071 7133512",
                "shop": "supermarket"
            }
        },
        {
            "type": "node",
            "id": 1280815211,
            "lat": 43.1794715,
            "lon": 13.7959945,
            "timestamp": "2025-10-06T19:42:16Z",
            "version": 3,
            "changeset": 172931487,
            "user": "btcitnet",
            "uid": 22525435,
            "tags": {
                "addr:city": "Porto San Giorgio",
                "addr:housenumber": "30",
                "addr:postcode": "63822",
                "addr:street": "Viale Bruno Buozzi",
                "brand": "Intimissimi",
                "brand:wikidata": "Q305404",
                "brand:wikipedia": "en:Intimissimi",
                "clothes": "underwear",
                "name": "Intimissimi",
                "shop": "clothes"
            }
        },
        {
            "type": "node",
            "id": 1390061945,
            "lat": 43.1438593,
            "lon": 13.2233507,
            "timestamp": "2021-11-15T01:12:24Z",
            "version": 4,
            "changeset": 113783330,
            "user": "totera",
            "uid": 123412,
            "tags": {
                "addr:city": "Caldarola",
                "addr:postcode": "62020",
                "addr:street": "Viale Aldo Moro",
                "amenity": "fuel",
                "brand": "Tamoil",
                "brand:wikidata": "Q706793",
                "brand:wikipedia": "en:Tamoil",
                "fuel:diesel": "yes",
                "fuel:octane_91": "yes",
                "fuel:octane_95": "yes",
                "name": "Gino Persicoross",
                "operator": "Persicorossi Gino",
                "ref:mise": "11110"
            }
        },
        {
            "type": "node",
            "id": 1401570925,
            "lat": 42.8874657,
            "lon": 13.816458,
            "timestamp": "2025-01-25T09:47:58Z",
            "version": 4,
            "changeset": 161739147,
            "user": "mueschel",
            "uid": 616774,
            "tags": {
                "addr:city": "Stella di Monsampolo",
                "addr:housenumber": "5",
                "addr:postcode": "63077",
                "addr:street": "Via Cristoforo Colombo",
                "brand": "Conad City",
                "brand:wikidata": "Q57543102",
                "name": "Conad City",
                "opening_hours": "Mo-Sa 08:30-20:00",
                "phone": "+39 0735 703089",
                "shop": "supermarket",
                "website": "https://www.conad.it/ricerca-negozi/conad-city-via-colombo-5-5-a-63077-monsampolo-del-tronto--006493"
            }
        },
        {
            "type": "node",
            "id": 1568652619,
            "lat": 43.3572738,
            "lon": 13.4875666,
            "timestamp": "2021-04-09T20:00:09Z",
            "version": 8,
            "changeset": 102668054,
            "user": "sorcrosc",
            "uid": 160229,
            "tags": {
                "addr:city": "Recanati",
                "addr:milestone": "102.02",
                "addr:postcode": "62019",
                "addr:street": "Strada Provinciale 77 Val di Chienti",
                "amenity": "fuel",
                "brand": "Tamoil",
                "brand:wikidata": "Q706793",
                "brand:wikipedia": "en:Tamoil",
                "fuel:diesel": "yes",
                "fuel:octane_95": "yes",
                "name": "Tamoil",
                "operator": "Fermana Carburanti S.R.L.",
                "ref:mise": "29125"
            }
        },
        {
            "type": "node",
            "id": 1578984289,
            "lat": 42.853652,
            "lon": 13.5894867,
            "timestamp": "2024-12-13T10:15:42Z",
            "version": 5,
            "changeset": 160239099,
            "user": "totera",
            "uid": 123412,
            "tags": {
                "addr:city": "Ascoli Piceno",
                "addr:housenumber": "10",
                "addr:postcode": "63100",
                "addr:street": "Viale Benedetto Croce",
                "brand": "OVS Kids",
                "brand:wikidata": "Q2042514",
                "clothes": "children",
                "name": "OVS Kids",
                "old_name": "Super Coal",
                "old_shop": "supermarket",
                "opening_hours": "Mo 16:30-19:30; Tu-Sa 09:00-13:00,16:00-19:30",
                "shop": "clothes",
                "website": "https://www.ovs.it/it/it/stores/italia/marche/ascoli-piceno/ovs-ascoli-kids"
            }
        },
        {
            "type": "node",
            "id": 1579771561,
            "lat": 43.3572051,
            "lon": 13.4820174,
            "timestamp": "2024-12-06T05:17:03Z",
            "version": 7,
            "changeset": 159980704,
            "user": "totera",
            "uid": 123412,
            "tags": {
                "addr:city": "Sambucheto",
                "addr:housenumber": "48",
                "addr:postcode": "62010",
                "addr:street": "Via Michelangelo",
                "brand": "Conad",
                "brand:wikidata": "Q639075",
                "name": "Conad",
                "old_name": "Smafin S.R.L",
                "opening_hours": "Mo-Sa 08:15-20:00; Su 08:30-13:00",
                "phone": "+39 0733 599155",
                "shop": "supermarket",
                "website": "https://www.conad.it/ricerca-negozi/conad-via-michelangelo-48-62010-montecassiano--009864"
            }
        },
        {
            "type": "node",
            "id": 1580967832,
            "lat": 43.5291556,
            "lon": 13.5512292,
            "timestamp": "2025-09-21T17:29:20Z",
            "version": 6,
            "changeset": 172257907,
            "user": "jeanl",
            "uid": 839857,
            "tags": {
                "addr:city": "Camerano",
                "addr:postcode": "60021",
                "addr:street": "Via Papa Giovanni XXIII",
                "amenity": "fuel",
                "brand": "Tamoil",
                "brand:wikidata": "Q706793",
                "brand:wikipedia": "en:Tamoil",
                "check_date": "2025-09-21",
                "fuel:diesel": "yes",
                "fuel:octane_95": "yes",
                "name": "Tamoil",
                "operator": "T.D.M. S.R.L.",
                "ref:mise": "38051"
            }
        },
        {
            "type": "node",
            "id": 1611180921,
            "lat": 42.8541912,
            "lon": 13.7017986,
            "timestamp": "2024-12-24T01:10:47Z",
            "version": 9,
            "changeset": 160559377,
            "user": "totera",
            "uid": 123412,
            "tags": {
                "addr:city": "Campolungo",
                "addr:postcode": "63100",
                "addr:street": "Viale dei Mutilati e Invalidi del Lavoro",
                "amenity": "fuel",
                "brand": "Tamoil",
                "brand:wikidata": "Q706793",
                "brand:wikipedia": "en:Tamoil",
                "fuel:cng": "yes",
                "fuel:diesel": "yes",
                "fuel:octane_95": "yes",
                "name": "Tamoil",
                "nohousenumber": "yes",
                "operator": "T.D.M. S.R.L.",
                "ref:mise": "27708",
                "self_service": "yes"
            }
        },
        {
            "type": "node",
            "id": 1962703672,
            "lat": 43.2372762,
            "lon": 13.689256,
            "timestamp": "2025-10-06T11:02:21Z",
            "version": 6,
            "changeset": 172907791,
            "user": "totera",
            "uid": 123412,
            "tags": {
                "addr:city": "Sant'Elpidio a Mare",
                "addr:housenumber": "132",
                "addr:postcode": "63811",
                "addr:street": "Via Porta Romana",
                "brand": "Conad City",
                "brand:wikidata": "Q57543102",
                "name": "Conad City",
                "opening_hours": "Mo-Sa 08:30-13:00,16:30-20:00",
                "phone": "+39 0734 253811",
                "shop": "supermarket",
                "website": "https://www.conad.it/ricerca-negozi/conad-city-via-porta-romana-132-63811-santelpidio-a-mare--001824"
            }
        },
        {
            "type": "node",
            "id": 1974988739,
            "lat": 43.2968881,
            "lon": 13.7056795,
            "timestamp": "2025-01-01T22:35:12Z",
            "version": 8,
            "changeset": 160887651,
            "user": "mpbin",
            "uid": 21850090,
            "tags": {
                "addr:city": "Civitanova Marche",
                "addr:country": "IT",
                "addr:housenumber": "14",
                "addr:postcode": "62012",
                "addr:street": "Via Giovanni Gronchi",
                "brand": "Trony",
                "brand:wikidata": "Q3999692",
                "brand:wikipedia": "it:Trony",
                "email": "civitanova@trony.it",
                "entrance": "main",
                "fax": "+39 0733 829826",
                "name": "Trony",
                "opening_hours": "Mo-Fr 09:30-13:00,15:30-20:00; Sa 09:30-20:00; Su 10:00-13:00,15:30-20:15",
                "operator": "Trony",
                "phone": "+39 0733 784551",
                "shop": "electronics"
            }
        },
        {
            "type": "node",
            "id": 2120124973,
            "lat": 43.3091288,
            "lon": 13.7271727,
            "timestamp": "2025-10-06T10:59:09Z",
            "version": 3,
            "changeset": 172907654,
            "user": "btcitnet",
            "uid": 22525435,
            "tags": {
                "addr:city": "Civitanova Marche",
                "addr:housenumber": "109",
                "addr:postcode": "62012",
                "addr:street": "Corso Umberto I",
                "brand": "Calzedonia",
                "brand:wikidata": "Q1027874",
                "brand:wikipedia": "en:Calzedonia",
                "name": "Calzedonia",
                "shop": "clothes"
            }
        },
        {
            "type": "node",
            "id": 2292455689,
            "lat": 43.2907423,
            "lon": 13.4330858,
            "timestamp": "2024-12-06T05:17:03Z",
            "version": 4,
            "changeset": 159980704,
            "user": "totera",
            "uid": 123412,
            "tags": {
                "addr:city": "Macerata",
                "addr:housenumber": "43",
                "addr:postcode": "62100",
                "addr:street": "Via Ignazio Silone",
                "brand": "Conad",
                "brand:wikidata": "Q639075",
                "name": "Conad",
                "old_name": "SMA",
                "opening_hours": "Mo-Sa 08:00-20:00; Su 08:30-13:00",
                "phone": "+39 0733 31619",
                "shop": "supermarket",
                "website": "https://www.conad.it/ricerca-negozi/conad-via-ignazio-silone-43-62100-macerata--009739"
            }
        },
        {
            "type": "node",
            "id": 2450535109,
            "lat": 43.2172576,
            "lon": 13.3084424,
            "timestamp": "2025-05-29T09:05:07Z",
            "version": 5,
            "changeset": 166909667,
            "user": "damianeue",
            "uid": 10124288,
            "tags": {
                "brand": "Upim",
                "brand:wikidata": "Q1414836",
                "brand:wikipedia": "it:UPIM",
                "name": "Upim",
                "opening_hours": "Mo-Su 09:00-20:30",
                "shop": "department_store",
                "toilets": "yes"
            }
        },
        {
            "type": "node",
            "id": 2483886289,
            "lat": 42.8085691,
            "lon": 13.9353892,
            "timestamp": "2025-10-25T16:22:41Z",
            "version": 3,
            "changeset": 173763571,
            "user": "btcitnet",
            "uid": 22525435,
            "tags": {
                "addr:city": "Tortoreto",
                "addr:postcode": "64018",
                "addr:street": "Via Leonardo da Vinci",
                "addr:village": "Tortoreto Lido",
                "brand": "Conad",
                "brand:wikidata": "Q639075",
                "brand:wikipedia": "it:Conad",
                "name": "Conad",
                "shop": "supermarket"
            }
        },
        {
            "type": "node",
            "id": 2685081876,
            "lat": 43.1652239,
            "lon": 13.8008944,
            "timestamp": "2020-06-07T15:20:33Z",
            "version": 2,
            "changeset": 86311239,
            "user": "totera",
            "uid": 123412,
            "tags": {
                "brand": "Expert",
                "brand:wikidata": "Q680990",
                "brand:wikipedia": "en:Expert (company)",
                "name": "Expert",
                "shop": "electronics"
            }
        },
        {
            "type": "node",
            "id": 2815535801,
            "lat": 43.2223741,
            "lon": 13.3343341,
            "timestamp": "2020-11-01T08:33:19Z",
            "version": 2,
            "changeset": 93361787,
            "user": "mascalzone67",
            "uid": 1861652,
            "tags": {
                "addr:city": "Tolentino",
                "addr:country": "IT",
                "addr:housename": "Centro commerciale \"La Rancia\"",
                "addr:postcode": "62029",
                "addr:street": "Contrada Cisterna",
                "brand": "Conad",
                "brand:wikidata": "Q639075",
                "brand:wikipedia": "it:Conad",
                "name": "Conad",
                "opening_hours": "Mo-Su 08:30-20:30",
                "operator": "Conad",
                "payment:bancomat": "yes",
                "payment:cash": "yes",
                "payment:credit_cards": "yes",
                "phone": "+39 0733 9571",
                "shop": "supermarket",
                "website": "https://www.conad.it/ricerca-negozi/negozio.010156.html"
            }
        },
        {
            "type": "node",
            "id": 2859976387,
            "lat": 43.3032088,
            "lon": 13.4397575,
            "timestamp": "2025-10-22T10:08:25Z",
            "version": 4,
            "changeset": 173619502,
            "user": "btcitnet",
            "uid": 22525435,
            "tags": {
                "addr:city": "Macerata",
                "addr:housenumber": "30",
                "addr:postcode": "62100",
                "addr:street": "Via dei Velini",
                "brand": "Conad",
                "brand:wikidata": "Q639075",
                "brand:wikipedia": "it:Conad",
                "name": "Conad",
                "shop": "supermarket"
            }
        },
        {
            "type": "node",
            "id": 2868778314,
            "lat": 42.8626513,
            "lon": 13.7663072,
            "timestamp": "2025-06-05T21:45:51Z",
            "version": 11,
            "changeset": 167242696,
            "user": "totera",
            "uid": 123412,
            "tags": {
                "addr:city": "Pagliare",
                "addr:housenumber": "10",
                "addr:postcode": "63078",
                "addr:street": "Via Otto Marzo",
                "amenity": "fuel",
                "brand": "Q8",
                "brand:wikidata": "Q1634762",
                "fuel:GTL_diesel": "yes",
                "fuel:cng": "yes",
                "fuel:diesel": "yes",
                "fuel:lpg": "yes",
                "fuel:octane_95": "yes",
                "name": "IDP Pagliare di Spinetoli",
                "old_name": "Carburanti Discount Pagliare;Q8 Pagliare",
                "operator": "Impianti Distribuzione Petroli - S.r.l.",
                "ref:mise": "60027"
            }
        },
        {
            "type": "node",
            "id": 2964603266,
            "lat": 43.2919225,
            "lon": 13.7023079,
            "timestamp": "2025-01-01T12:54:11Z",
            "version": 11,
            "changeset": 160861881,
            "user": "mpbin",
            "uid": 21850090,
            "tags": {
                "addr:city": "Civitanova Marche",
                "addr:housenumber": "98",
                "addr:postcode": "62012",
                "addr:street": "Via San Costantino",
                "brand": "Unieuro",
                "brand:wikidata": "Q4004687",
                "level": "0",
                "name": "Unieuro",
                "opening_hours": "Mo-Su 09:00-21:00; PH closed",
                "operator": "Unieuro S.p.A.",
                "shop": "electronics",
                "wheelchair": "yes"
            }
        },
        {
            "type": "node",
            "id": 2981129360,
            "lat": 43.5236842,
            "lon": 13.5241258,
            "timestamp": "2025-07-09T23:18:10Z",
            "version": 15,
            "changeset": 168717962,
            "user": "totera",
            "uid": 123412,
            "tags": {
                "addr:city": "Aspio Terme",
                "addr:postcode": "60021",
                "addr:street": "Via del Campo d'Aviazione",
                "brand": "Decathlon",
                "brand:wikidata": "Q509349",
                "brand:wikipedia": "en:Decathlon Group",
                "name": "Decathlon",
                "nohousenumber": "yes",
                "opening_hours": "Mo-Su 09:00-20:30",
                "operator": "Decathlon",
                "phone": "+39 071 7309128",
                "ref:vatin": "IT11005760159",
                "shop": "sports"
            }
        },
        {
            "type": "node",
            "id": 2999866446,
            "lat": 43.5230997,
            "lon": 13.5240897,
            "timestamp": "2023-08-05T13:06:15Z",
            "version": 3,
            "changeset": 139478913,
            "user": "totera",
            "uid": 123412,
            "tags": {
                "addr:city": "Camerano",
                "addr:housenumber": "17",
                "addr:postcode": "60021",
                "addr:street": "Via del Campo d'Aviazione",
                "brand": "H&M",
                "brand:wikidata": "Q188326",
                "brand:wikipedia": "en:H&M",
                "name": "H&M",
                "operator": "Hennes & Mauritz S.r.l.",
                "ref": "IT0430",
                "ref:vatin": "IT03269110965",
                "shop": "clothes"
            }
        },
        {
            "type": "node",
            "id": 3186852562,
            "lat": 43.3383958,
            "lon": 13.4369227,
            "timestamp": "2025-01-03T10:19:29Z",
            "version": 6,
            "changeset": 160941514,
            "user": "mpbin",
            "uid": 21850090,
            "tags": {
                "addr:city": "Montecassiano",
                "addr:hamlet": "Zona Commerciale Piane di Potenza",
                "addr:postcode": "62010",
                "addr:street": "Via Giuseppe Mainini",
                "branch": "Easy",
                "brand": "Decathlon",
                "brand:wikidata": "Q509349",
                "name": "Decathlon",
                "operator": "Decathlon",
                "shop": "sports"
            }
        },
        {
            "type": "node",
            "id": 3923782713,
            "lat": 43.2910623,
            "lon": 13.3387774,
            "timestamp": "2024-06-30T23:23:58Z",
            "version": 11,
            "changeset": 153388796,
            "user": "totera",
            "uid": 123412,
            "tags": {
                "addr:city": "Treia",
                "addr:milestone": "41.669",
                "addr:postcode": "62010",
                "addr:street": "Contrada San Marco Vecchio",
                "amenity": "fuel",
                "brand": "Tamoil",
                "brand:wikidata": "Q706793",
                "fuel:diesel": "yes",
                "fuel:octane_95": "yes",
                "name": "Tamoil - Treia",
                "nohousenumber": "yes",
                "opening_hours": "24/7",
                "operator": "Forini S.p.A.",
                "ref:mise": "43396",
                "wheelchair": "yes"
            }
        },
        {
            "type": "node",
            "id": 3930776375,
            "lat": 43.0681142,
            "lon": 13.6578042,
            "timestamp": "2024-06-27T20:10:30Z",
            "version": 13,
            "changeset": 153264548,
            "user": "ludomi05",
            "uid": 20159881,
            "tags": {
                "addr:city": "Petritoli",
                "addr:housenumber": "4",
                "addr:postcode": "63848",
                "addr:street": "Piazza Costantino Tamanti",
                "amenity": "fuel",
                "brand": "Tamoil",
                "brand:wikidata": "Q706793",
                "fuel:diesel": "yes",
                "fuel:octane_95": "yes",
                "name": "Tamoil Petritoli",
                "operator": "Fermana Carburanti S.R.L.",
                "ref:mise": "57823",
                "self_service": "yes"
            }
        },
        {
            "type": "node",
            "id": 4244886377,
            "lat": 43.371668,
            "lon": 13.6312058,
            "timestamp": "2022-08-03T08:42:01Z",
            "version": 9,
            "changeset": 124424657,
            "user": "totera",
            "uid": 123412,
            "tags": {
                "addr:city": "Potenza Picena",
                "addr:postcode": "62018",
                "addr:street": "Via Piana",
                "amenity": "fuel",
                "brand": "Q8",
                "brand:wikidata": "Q1634762",
                "brand:wikipedia": "en:Kuwait Petroleum Corporation",
                "fuel:diesel": "yes",
                "fuel:octane_95": "yes",
                "name": "Distributore Benzina Dichiara Silvano e Verde Antonio Snc",
                "nohousenumber": "yes",
                "operator": "Dichiara Silvano e Verde Antonio S.N.C.",
                "ref:mise": "9153"
            }
        },
        {
            "type": "node",
            "id": 4451895491,
            "lat": 42.8597114,
            "lon": 13.7103334,
            "timestamp": "2021-09-14T13:04:17Z",
            "version": 3,
            "changeset": 111195983,
            "user": "inlovewosm",
            "uid": 11299004,
            "tags": {
                "branch": "Marozzi",
                "brand": "Expert",
                "brand:wikidata": "Q680990",
                "brand:wikipedia": "en:Expert (company)",
                "name": "Expert",
                "shop": "electronics"
            }
        },
        {
            "type": "node",
            "id": 4635242366,
            "lat": 42.959617,
            "lon": 13.8754905,
            "timestamp": "2024-03-11T11:04:59Z",
            "version": 4,
            "changeset": 148500450,
            "user": "basilare",
            "uid": 10057790,
            "tags": {
                "addr:city": "San Benedetto del Tronto",
                "addr:housenumber": "264",
                "addr:postcode": "63074",
                "addr:street": "Corso Giuseppe Mazzini",
                "brand": "Conad",
                "brand:wikidata": "Q639075",
                "brand:wikipedia": "it:Conad",
                "name": "Conad",
                "shop": "supermarket"
            }
        },
        {
            "type": "node",
            "id": 4635242368,
            "lat": 42.955987,
            "lon": 13.8756335,
            "timestamp": "2025-01-03T16:32:14Z",
            "version": 5,
            "changeset": 160956864,
            "user": "mpbin",
            "uid": 21850090,
            "tags": {
                "addr:city": "San Benedetto del Tronto",
                "addr:housenumber": "183",
                "addr:postcode": "63074",
                "addr:street": "Corso Giuseppe Mazzini",
                "brand": "OVS",
                "brand:wikidata": "Q2042514",
                "brand:wikipedia": "en:OVS (company)",
                "name": "OVS",
                "operator": "OVS",
                "shop": "clothes"
            }
        },
        {
            "type": "node",
            "id": 4770534421,
            "lat": 43.2656779,
            "lon": 13.3482256,
            "timestamp": "2023-11-04T00:25:02Z",
            "version": 8,
            "changeset": 143595739,
            "user": "ivanbranco",
            "uid": 11220113,
            "tags": {
                "addr:city": "Pollenza",
                "addr:postcode": "62010",
                "addr:street": "Via Raffaello Sanzio",
                "amenity": "fuel",
                "brand": "Tamoil",
                "brand:wikidata": "Q706793",
                "fuel:diesel": "yes",
                "fuel:octane_95": "yes",
                "name": "Tamoil",
                "operator": "Pad Multienergy S.P.A",
                "phone": "+39 0733 549042",
                "ref:mise": "47321"
            }
        },
        {
            "type": "node",
            "id": 4916291276,
            "lat": 43.2697973,
            "lon": 13.4797654,
            "timestamp": "2021-11-11T15:24:49Z",
            "version": 3,
            "changeset": 113656398,
            "user": "totera",
            "uid": 123412,
            "tags": {
                "addr:city": "Corridonia",
                "addr:postcode": "62014",
                "addr:street": "Via Enrico Mattei",
                "brand": "Mondadori",
                "brand:wikidata": "Q85355",
                "brand:wikipedia": "en:Arnoldo Mondadori Editore",
                "name": "Mondadori",
                "shop": "books"
            }
        },
        {
            "type": "node",
            "id": 4916325898,
            "lat": 43.2701137,
            "lon": 13.4830309,
            "timestamp": "2025-01-03T16:35:30Z",
            "version": 6,
            "changeset": 160956958,
            "user": "mpbin",
            "uid": 21850090,
            "tags": {
                "addr:city": "Corridonia",
                "addr:housenumber": "177/C",
                "addr:postcode": "62014",
                "addr:street": "Via Enrico Mattei",
                "brand": "OVS",
                "brand:wikidata": "Q2042514",
                "brand:wikipedia": "en:OVS (company)",
                "entrance": "yes",
                "name": "OVS",
                "operator": "OVS",
                "shop": "clothes"
            }
        },
        {
            "type": "node",
            "id": 5043859532,
            "lat": 42.8544587,
            "lon": 13.5878536,
            "timestamp": "2024-12-31T11:14:29Z",
            "version": 15,
            "changeset": 160827880,
            "user": "DnaX",
            "uid": 69259,
            "tags": {
                "addr:city": "Ascoli Piceno",
                "addr:housenumber": "3",
                "addr:postcode": "63100",
                "addr:street": "Via Luigi Luciani",
                "amenity": "fuel",
                "brand": "Tamoil",
                "brand:wikidata": "Q706793",
                "fuel:diesel": "yes",
                "fuel:octane_95": "yes",
                "name": "Tamoil",
                "operator": "Ventura Marco Daniele",
                "ref:mise": "59560",
                "self_service": "yes"
            }
        },
        {
            "type": "node",
            "id": 5370509916,
            "lat": 42.9012868,
            "lon": 13.8945182,
            "timestamp": "2025-01-02T21:40:10Z",
            "version": 6,
            "changeset": 160927282,
            "user": "mpbin",
            "uid": 21850090,
            "tags": {
                "addr:city": "San Benedetto Del Tronto",
                "addr:housenumber": "66",
                "addr:postcode": "63074",
                "addr:street": "Via Pasubio",
                "brand": "Trony",
                "brand:wikidata": "Q3999692",
                "brand:wikipedia": "it:Trony",
                "name": "Trony",
                "operator": "Trony",
                "shop": "electronics"
            }
        },
        {
            "type": "node",
            "id": 5493166500,
            "lat": 43.3677776,
            "lon": 13.6234371,
            "timestamp": "2024-12-05T07:49:56Z",
            "version": 6,
            "changeset": 159946278,
            "user": "totera",
            "uid": 123412,
            "tags": {
                "addr:city": "Potenza Picena",
                "addr:postcode": "62018",
                "addr:street": "Via Giovanni Battista Boni",
                "brand": "Conad City",
                "brand:wikidata": "Q57543102",
                "name": "Conad City",
                "nohousenumber": "yes",
                "old_name": "Punto Simply Sma",
                "opening_hours": "Mo-Sa 08:00-19:45",
                "phone": "+39 0733 672045",
                "shop": "supermarket",
                "website": "https://www.conad.it/ricerca-negozi/conad-city-via-giovan-battista-boni-snc-62018-potenza-picena--009956"
            }
        },
        {
            "type": "node",
            "id": 5497258400,
            "lat": 43.4047348,
            "lon": 13.5476948,
            "timestamp": "2020-05-13T12:05:42Z",
            "version": 5,
            "changeset": 85144032,
            "user": "marchemap",
            "uid": 4624362,
            "tags": {
                "addr:city": "Recanati",
                "addr:housenumber": "32",
                "addr:postcode": "62019",
                "addr:street": "Corso Persiani",
                "brand": "United Colors of Benetton",
                "brand:wikidata": "Q817139",
                "brand:wikipedia": "en:Benetton Group",
                "name": "United Colors of Benetton",
                "shop": "clothes",
                "short_name": "Benetton"
            }
        },
        {
            "type": "node",
            "id": 5550211600,
            "lat": 43.4048565,
            "lon": 13.5606909,
            "timestamp": "2021-02-16T18:04:02Z",
            "version": 4,
            "changeset": 99398376,
            "user": "totera",
            "uid": 123412,
            "tags": {
                "addr:city": "Recanati",
                "addr:postcode": "62019",
                "addr:street": "Via Cupa Madonna di Varano",
                "amenity": "fuel",
                "brand": "Q8",
                "brand:wikidata": "Q1634762",
                "brand:wikipedia": "en:Kuwait Petroleum Corporation",
                "fuel:GTL_diesel": "yes",
                "fuel:diesel": "yes",
                "fuel:octane_100": "yes",
                "fuel:octane_95": "yes",
                "name": "Severini e Riccetti",
                "operator": "Severini Armando e Riccetti Ivano S.N.C.",
                "ref:mise": "42150"
            }
        },
        {
            "type": "node",
            "id": 5677922217,
            "lat": 43.481965,
            "lon": 13.48039,
            "timestamp": "2025-10-22T10:07:32Z",
            "version": 3,
            "changeset": 173619448,
            "user": "btcitnet",
            "uid": 22525435,
            "tags": {
                "addr:city": "Osimo",
                "addr:housenumber": "4",
                "addr:postcode": "60027",
                "addr:street": "Via Montefanese",
                "brand": "Conad",
                "brand:wikidata": "Q639075",
                "brand:wikipedia": "it:Conad",
                "name": "Conad",
                "shop": "supermarket"
            }
        },
        {
            "type": "node",
            "id": 5679617169,
            "lat": 43.4860152,
            "lon": 13.4842053,
            "timestamp": "2020-05-13T12:05:42Z",
            "version": 2,
            "changeset": 85144032,
            "user": "marchemap",
            "uid": 4624362,
            "tags": {
                "brand": "Intimissimi",
                "brand:wikidata": "Q305404",
                "brand:wikipedia": "en:Intimissimi",
                "clothes": "underwear",
                "name": "Intimissimi",
                "shop": "clothes"
            }
        },
        {
            "type": "node",
            "id": 5741992921,
            "lat": 42.8016859,
            "lon": 13.94101,
            "timestamp": "2025-10-22T10:18:12Z",
            "version": 3,
            "changeset": 173619947,
            "user": "btcitnet",
            "uid": 22525435,
            "tags": {
                "addr:city": "Tortoreto",
                "addr:housenumber": "19",
                "addr:postcode": "64018",
                "addr:street": "Via Venezia",
                "brand": "Conad",
                "brand:wikidata": "Q639075",
                "brand:wikipedia": "it:Conad",
                "name": "Conad",
                "shop": "supermarket"
            }
        },
        {
            "type": "node",
            "id": 5802493877,
            "lat": 43.338111,
            "lon": 13.4372891,
            "timestamp": "2025-10-21T15:37:18Z",
            "version": 3,
            "changeset": 173589279,
            "user": "btcitnet",
            "uid": 22525435,
            "tags": {
                "addr:city": "Montecassiano",
                "addr:postcode": "62010",
                "addr:street": "Via Giuseppe Mainini",
                "brand": "PittaRosso",
                "brand:wikidata": "Q105643314",
                "name": "PittaRosso",
                "shop": "shoes"
            }
        },
        {
            "type": "node",
            "id": 5851831304,
            "lat": 42.8522462,
            "lon": 13.5544869,
            "timestamp": "2025-10-08T11:53:44Z",
            "version": 8,
            "changeset": 173000530,
            "user": "totera",
            "uid": 123412,
            "tags": {
                "addr:city": "Ascoli Piceno",
                "addr:housenumber": "209",
                "addr:postcode": "63100",
                "addr:street": "Viale Treviri",
                "amenity": "fuel",
                "brand": "Tamoil",
                "brand:wikidata": "Q706793",
                "brand:wikipedia": "en:Tamoil",
                "fuel:diesel": "yes",
                "fuel:octane_95": "yes",
                "name": "Stazione di Servizio Bar Tamoil",
                "operator": "Claudio Amatucci",
                "ref:mise": "8499",
                "self_service": "yes"
            }
        },
        {
            "type": "node",
            "id": 5851831364,
            "lat": 43.0047568,
            "lon": 13.8668811,
            "timestamp": "2024-11-08T15:59:01Z",
            "version": 8,
            "changeset": 158901462,
            "user": "Flight777",
            "uid": 9925732,
            "tags": {
                "addr:city": "Grottammare",
                "addr:milestone": "379",
                "addr:postcode": "63066",
                "addr:street": "Strada Statale 16 Adriatica",
                "amenity": "fuel",
                "brand": "Tamoil",
                "brand:wikidata": "Q706793",
                "compressed_air": "yes",
                "fuel:diesel": "yes",
                "fuel:octane_95": "yes",
                "name": "Tamoil",
                "nohousenumber": "yes",
                "opening_hours": "24/7",
                "operator": "Pad Multienergy S.P.A",
                "ref:mise": "7816",
                "self_service": "yes",
                "wheelchair": "yes"
            }
        },
        {
            "type": "node",
            "id": 5851831497,
            "lat": 43.2063939,
            "lon": 13.7828924,
            "timestamp": "2024-06-29T07:38:51Z",
            "version": 6,
            "changeset": 153320426,
            "user": "totera",
            "uid": 123412,
            "tags": {
                "addr:city": "Lido di Fermo",
                "addr:milestone": "355.011",
                "addr:postcode": "63900",
                "addr:street": "Strada Statale 16 Adriatica",
                "amenity": "fuel",
                "brand": "Q8",
                "brand:wikidata": "Q1634762",
                "brand:wikipedia": "en:Kuwait Petroleum Corporation",
                "fuel:diesel": "yes",
                "fuel:octane_95": "yes",
                "name": "Q8",
                "nohousenumber": "yes",
                "opening_hours": "24/7",
                "operator": "Servizi & Gestioni Italia S.R.L.",
                "ref:mise": "6612",
                "self_service": "yes"
            }
        },
        {
            "type": "node",
            "id": 5851837709,
            "lat": 43.1965439,
            "lon": 13.6691616,
            "timestamp": "2025-08-08T18:03:58Z",
            "version": 5,
            "changeset": 170169373,
            "user": "totera",
            "uid": 123412,
            "tags": {
                "addr:city": "Monte Urano",
                "addr:housenumber": "202",
                "addr:postcode": "63813",
                "addr:street": "Via Incancellata",
                "amenity": "fuel",
                "brand": "Tamoil",
                "brand:wikidata": "Q706793",
                "brand:wikipedia": "en:Tamoil",
                "fuel:diesel": "yes",
                "fuel:octane_95": "yes",
                "name": "Tamoil",
                "operator": "Fermana Carburanti S.R.L.",
                "ref:mise": "61282"
            }
        },
        {
            "type": "node",
            "id": 5851842516,
            "lat": 42.7944008,
            "lon": 13.9405292,
            "timestamp": "2025-10-22T18:39:41Z",
            "version": 3,
            "changeset": 173642710,
            "user": "btcitnet",
            "uid": 22525435,
            "tags": {
                "addr:city": "Tortoreto",
                "addr:postcode": "64018",
                "addr:street": "Strada Statale 16 Adriatica",
                "amenity": "fuel",
                "brand": "Q8",
                "brand:wikidata": "Q1634762",
                "brand:wikipedia": "en:Kuwait Petroleum Corporation",
                "name": "Q8",
                "operator": "Rapagna' Edoardo",
                "ref:mise": "23871"
            }
        },
        {
            "type": "node",
            "id": 5851843015,
            "lat": 43.3668998,
            "lon": 13.6940852,
            "timestamp": "2022-02-02T09:07:12Z",
            "version": 4,
            "changeset": 116902814,
            "user": "Mapper56K",
            "uid": 14976718,
            "tags": {
                "addr:city": "Potenza Picena",
                "addr:direction": "S",
                "addr:milestone": "335",
                "addr:postcode": "62018",
                "addr:street": "Strada Statale 16 Adriatica",
                "amenity": "fuel",
                "brand": "Q8",
                "brand:wikidata": "Q1634762",
                "brand:wikipedia": "en:Kuwait Petroleum Corporation",
                "fuel:diesel": "yes",
                "fuel:octane_95": "yes",
                "name": "Q8",
                "operator": "Fedeli Paolo e Perugini Andrea S.N.C.",
                "ref:mise": "21545"
            }
        },
        {
            "type": "node",
            "id": 5851845235,
            "lat": 43.2106093,
            "lon": 13.5164759,
            "timestamp": "2024-09-09T00:00:42Z",
            "version": 7,
            "changeset": 156372374,
            "user": "Assadermanassa",
            "uid": 17445709,
            "tags": {
                "addr:city": "Mogliano",
                "addr:housenumber": "65",
                "addr:postcode": "62010",
                "addr:street": "Contrada Macina",
                "amenity": "fuel",
                "brand": "Tamoil",
                "brand:wikidata": "Q706793",
                "fuel:diesel": "yes",
                "fuel:octane_95": "yes",
                "name": "Tamoil Mogliano RAL",
                "operator": "R.A.L. Service S.N.C. di Pompei Luisa e C.",
                "ref:mise": "57850"
            }
        },
        {
            "type": "node",
            "id": 5856441031,
            "lat": 43.0938096,
            "lon": 13.4955826,
            "timestamp": "2023-10-19T09:51:42Z",
            "version": 4,
            "changeset": 142805236,
            "user": "DnaX",
            "uid": 69259,
            "tags": {
                "addr:city": "Falerone",
                "addr:milestone": "31.222",
                "addr:postcode": "63837",
                "addr:street": "Strada Provinciale 239 Ex SS210 Fermana Faleriense",
                "amenity": "fuel",
                "brand": "Q8",
                "brand:wikidata": "Q1634762",
                "fuel:diesel": "yes",
                "fuel:lpg": "yes",
                "fuel:octane_95": "yes",
                "name": "Q8",
                "operator": "Morichetti Arianna",
                "ref:mise": "50529"
            }
        },
        {
            "type": "node",
            "id": 5856461916,
            "lat": 43.2910394,
            "lon": 13.729037,
            "timestamp": "2022-09-30T10:53:19Z",
            "version": 5,
            "changeset": 126817855,
            "user": "Flight777",
            "uid": 9925732,
            "tags": {
                "addr:city": "Civitanova Marche",
                "addr:housenumber": "67",
                "addr:postcode": "62012",
                "addr:street": "Via Fontanella",
                "amenity": "fuel",
                "brand": "Tamoil",
                "brand:wikidata": "Q706793",
                "fuel:cng": "yes",
                "fuel:diesel": "yes",
                "fuel:lpg": "yes",
                "fuel:octane_95": "yes",
                "name": "Tamoil",
                "operator": "Autobella di Benedetti Goffredo e Latini S.A.S.",
                "ref:mise": "12378"
            }
        },
        {
            "type": "node",
            "id": 6041313672,
            "lat": 43.2883639,
            "lon": 13.7361783,
            "timestamp": "2025-01-03T10:48:31Z",
            "version": 9,
            "changeset": 160942576,
            "user": "mpbin",
            "uid": 21850090,
            "tags": {
                "addr:city": "Porto Sant'Elpidio",
                "addr:housenumber": "41",
                "addr:postcode": "63821",
                "addr:street": "Via Fratte",
                "brand": "Decathlon",
                "brand:wikidata": "Q509349",
                "brand:wikipedia": "en:Decathlon (retailer)",
                "name": "Decathlon",
                "opening_hours": "Mo-Su 09:00-20:30",
                "operator": "Decathlon",
                "shop": "sports",
                "survey:date": "2023-11-15",
                "website": "https://www.decathlon.it/",
                "wheelchair": "yes"
            }
        },
        {
            "type": "node",
            "id": 6066502297,
            "lat": 43.4345528,
            "lon": 13.6628958,
            "timestamp": "2023-08-25T23:07:37Z",
            "version": 3,
            "changeset": 140391750,
            "user": "totera",
            "uid": 123412,
            "tags": {
                "addr:city": "Porto Recanati",
                "addr:housenumber": "31",
                "addr:postcode": "62017",
                "addr:province": "Macerata",
                "addr:street": "Corso Giacomo Matteotti",
                "brand": "Intimissimi",
                "brand:wikidata": "Q305404",
                "clothes": "underwear",
                "name": "Intimissimi",
                "shop": "clothes"
            }
        },
        {
            "type": "node",
            "id": 6070906250,
            "lat": 43.5206137,
            "lon": 13.55757,
            "timestamp": "2024-09-25T08:19:37Z",
            "version": 13,
            "changeset": 157069869,
            "user": "mpbin",
            "uid": 21850090,
            "tags": {
                "addr:city": "Camerano",
                "addr:postcode": "60021",
                "addr:street": "Via Luigi Einaudi",
                "check_date": "2024-09-25",
                "check_date:currency:XBT": "2024-09-25",
                "currency:XBT": "yes",
                "description": "Servizi di Consulenza, Formazione, Progettazione. Risk Management, Salute e Sicurezza sul Lavoro, Corsi di Formazione D.Lgs. 81/2008",
                "email": "contattaci@agrsicurezza.com",
                "name": "AGRsicurezza",
                "office": "occupational_safety",
                "phone": "+39 071 8760 041",
                "website": "https://www.agrsicurezza.it"
            }
        },
        {
            "type": "node",
            "id": 6399647074,
            "lat": 43.5528092,
            "lon": 13.5141562,
            "timestamp": "2024-12-03T23:27:50Z",
            "version": 3,
            "changeset": 159900104,
            "user": "totera",
            "uid": 123412,
            "tags": {
                "addr:city": "Ancona",
                "addr:housenumber": "6",
                "addr:postcode": "60131",
                "addr:street": "Via Franco Scataglini",
                "branch": "Ancona",
                "brand": "Foot Locker",
                "brand:wikidata": "Q63335",
                "check_date": "2024-11-22",
                "local_ref": "n29b",
                "name": "Foot Locker",
                "old_amenity": "fast_food",
                "old_name": "L'Isola del Ristoro",
                "opening_hours": "Mo-Su 09:00-20:30",
                "phone": "+39 071 9759166",
                "shop": "shoes",
                "website": "https://stores.footlocker.it/it/it-57/ancona/unit-41-conero-sc-57_31_06289.html"
            }
        },
        {
            "type": "node",
            "id": 6591068387,
            "lat": 43.317177,
            "lon": 13.7183131,
            "timestamp": "2025-10-14T12:54:04Z",
            "version": 6,
            "changeset": 173273826,
            "user": "f_gonella",
            "uid": 8716397,
            "tags": {
                "brand": "Conad City",
                "brand:wikidata": "Q57543102",
                "name": "Conad City",
                "opening_hours": "Mo-Sa 08:15-13:00,16:45-20:00",
                "shop": "supermarket"
            }
        },
        {
            "type": "node",
            "id": 6896322177,
            "lat": 43.2999663,
            "lon": 13.4529136,
            "timestamp": "2021-10-21T10:13:48Z",
            "version": 2,
            "changeset": 112784572,
            "user": "SimoGine",
            "uid": 11449631,
            "tags": {
                "addr:city": "Macerata",
                "addr:housenumber": "4",
                "addr:postcode": "62100",
                "addr:street": "Corso della Repubblica",
                "brand": "La Feltrinelli",
                "brand:wikidata": "Q96311190",
                "name": "La Feltrinelli",
                "phone": "199151173",
                "shop": "books"
            }
        },
        {
            "type": "node",
            "id": 7572224985,
            "lat": 43.1286216,
            "lon": 13.5957407,
            "timestamp": "2023-11-17T19:39:51Z",
            "version": 3,
            "changeset": 144152218,
            "user": "toponomastica_comune_arenzano",
            "uid": 14257573,
            "tags": {
                "addr:city": "Magliano di Tenna",
                "addr:housenumber": "2a",
                "addr:postcode": "63832",
                "addr:street": "Viale Europa",
                "brand": "Conad",
                "brand:wikidata": "Q639075",
                "brand:wikipedia": "it:Conad",
                "name": "Conad",
                "opening_hours": "Mo-Sa 08:30-20:00; Su 09:00-13:00,15:30-20:00",
                "phone": "+39 0734 632533",
                "shop": "supermarket",
                "website": "https://www.conad.it/ricerca-negozi/negozio.002486.html"
            }
        },
        {
            "type": "node",
            "id": 7632632759,
            "lat": 42.8371423,
            "lon": 13.8994662,
            "timestamp": "2024-10-12T18:19:53Z",
            "version": 4,
            "changeset": 157808312,
            "user": "mpbin",
            "uid": 21850090,
            "tags": {
                "addr:city": "Colonnella",
                "addr:postcode": "64010",
                "addr:street": "Centro Commerciale Arcobaleno",
                "brand": "Mondo Convenienza",
                "brand:wikidata": "Q55830962",
                "check_date:currency:XBT": "2023-07-31",
                "contact:facebook": "https://www.facebook.com/mondoconv/",
                "currency:XBT": "yes",
                "name": "Mondo Convenienza",
                "opening_hours": "Mo-Su 09:30-20:30",
                "phone": "+39 06 91515",
                "shop": "furniture",
                "website": "https://www.mondoconv.it/"
            }
        },
        {
            "type": "node",
            "id": 7877818516,
            "lat": 42.9519865,
            "lon": 13.8829001,
            "timestamp": "2024-08-03T10:41:50Z",
            "version": 2,
            "changeset": 154768574,
            "user": "barbaralu",
            "uid": 12191123,
            "tags": {
                "addr:city": "San Benedetto del Tronto",
                "addr:housenumber": "2",
                "addr:postcode": "63074",
                "addr:street": "Via Antonio Gramsci",
                "brand": "Mondadori",
                "brand:wikidata": "Q85355",
                "brand:wikipedia": "en:Arnoldo Mondadori Editore",
                "contact:phone": "+39 0735 592494",
                "name": "Mondadori",
                "opening_hours": "Mo-Su 09:00-13:00,15:30-24:00+",
                "operator": "Zelig Spa",
                "ref:vatin": "IT02574880403",
                "shop": "books"
            }
        },
        {
            "type": "node",
            "id": 7924846919,
            "lat": 42.845985,
            "lon": 13.6224252,
            "timestamp": "2025-01-06T00:18:38Z",
            "version": 6,
            "changeset": 161040656,
            "user": "totera",
            "uid": 123412,
            "tags": {
                "addr:city": "Ascoli Piceno",
                "addr:housenumber": "52",
                "addr:postcode": "63100",
                "addr:street": "Viale del Commercio",
                "brand": "Tezenis",
                "brand:wikidata": "Q28056374",
                "brand:wikipedia": "ru:Tezenis",
                "check_date": "2024-10-21",
                "clothes": "underwear",
                "name": "Tezenis",
                "opening_hours": "Mo-Su 09:00-21:00",
                "phone": "+39 0736 348940",
                "shop": "clothes",
                "website": "http://it.tezenis.com/"
            }
        },
        {
            "type": "node",
            "id": 7924851194,
            "lat": 42.8458573,
            "lon": 13.62358,
            "timestamp": "2025-01-06T00:18:38Z",
            "version": 7,
            "changeset": 161040656,
            "user": "totera",
            "uid": 123412,
            "tags": {
                "addr:city": "Ascoli Piceno",
                "addr:housenumber": "52",
                "addr:postcode": "63100",
                "addr:street": "Viale del Commercio",
                "branch": "Ascoli Piceno Ccle Al Battente",
                "brand": "Calzedonia",
                "brand:wikidata": "Q1027874",
                "brand:wikipedia": "en:Calzedonia",
                "check_date": "2025-01-02",
                "name": "Calzedonia",
                "opening_hours": "Mo-Su 09:00-21:00",
                "phone": "+39 0736 336059",
                "shop": "clothes",
                "website": "https://www.calzedonia.com/it/negozi/ascoli_piceno_ccle_al_battente/CC3.html"
            }
        },
        {
            "type": "node",
            "id": 7924864531,
            "lat": 42.8459024,
            "lon": 13.6224145,
            "timestamp": "2025-01-06T00:18:38Z",
            "version": 6,
            "changeset": 161040656,
            "user": "totera",
            "uid": 123412,
            "tags": {
                "addr:city": "Ascoli Piceno",
                "addr:housenumber": "52",
                "addr:postcode": "63100",
                "addr:street": "Viale del Commercio",
                "brand": "Kasanova",
                "brand:wikidata": "Q116214505",
                "name": "Kasanova",
                "opening_hours": "Mo-Su 09:00-21:00",
                "phone": "+39 0736 342570",
                "shop": "houseware",
                "website": "https://www.kasanova.com/it/"
            }
        },
        {
            "type": "node",
            "id": 7924866512,
            "lat": 42.8454191,
            "lon": 13.6234811,
            "timestamp": "2025-01-06T00:18:38Z",
            "version": 8,
            "changeset": 161040656,
            "user": "totera",
            "uid": 123412,
            "tags": {
                "addr:city": "Ascoli Piceno",
                "addr:housenumber": "52",
                "addr:postcode": "63100",
                "addr:street": "Viale del Commercio",
                "brand": "Mondadori",
                "brand:wikidata": "Q85355",
                "brand:wikipedia": "en:Arnoldo Mondadori Editore",
                "check_date": "2025-01-02",
                "contact:facebook": "https://www.facebook.com/mondadoriascolipiceno/",
                "name": "Mondadori",
                "opening_hours": "Mo-Su 09:00-21:00",
                "operator": "Zelig S.p.A.",
                "phone": "+39 0736 44272",
                "ref:vatin": "IT02574880403",
                "shop": "books",
                "website": "https://www.mondadoristore.it/"
            }
        },
        {
            "type": "node",
            "id": 8149840457,
            "lat": 43.1868814,
            "lon": 13.7928068,
            "timestamp": "2021-12-05T01:16:43Z",
            "version": 3,
            "changeset": 114569886,
            "user": "totera",
            "uid": 123412,
            "tags": {
                "addr:city": "Porto San Giorgio",
                "addr:housenumber": "150",
                "addr:postcode": "63822",
                "addr:street": "Viale dei Pini",
                "brand": "Conad City",
                "brand:wikidata": "Q57543102",
                "name": "Conad City",
                "ref:vatin": "IT02690680422",
                "shop": "supermarket"
            }
        },
        {
            "type": "node",
            "id": 8503397491,
            "lat": 42.8310829,
            "lon": 13.9247026,
            "timestamp": "2025-10-10T21:34:54Z",
            "version": 2,
            "changeset": 173114047,
            "user": "btcitnet",
            "uid": 22525435,
            "tags": {
                "addr:city": "Alba Adriatica",
                "addr:housenumber": "45",
                "addr:postcode": "64011",
                "addr:street": "Via Duca d'Aosta",
                "brand": "Conad",
                "brand:wikidata": "Q639075",
                "brand:wikipedia": "it:Conad",
                "name": "Conad",
                "shop": "supermarket"
            }
        },
        {
            "type": "node",
            "id": 8957342073,
            "lat": 43.164857,
            "lon": 13.801135,
            "timestamp": "2025-01-03T14:19:09Z",
            "version": 3,
            "changeset": 160951328,
            "user": "mpbin",
            "uid": 21850090,
            "tags": {
                "addr:city": "Porto San Giorgio",
                "addr:postcode": "63822",
                "addr:street": "Via Fratelli Rosselli",
                "brand": "OVS",
                "brand:wikidata": "Q2042514",
                "brand:wikipedia": "en:OVS (company)",
                "name": "OVS",
                "nohousenumber": "yes",
                "opening_hours": "Mo-Sa 09:00-20:00; Su,PH 10:00-20:00",
                "operator": "OVS",
                "phone": "+39 0734 687086",
                "ref:vatin": "IT04240010274",
                "shop": "clothes"
            }
        },
        {
            "type": "node",
            "id": 9687735313,
            "lat": 42.8988657,
            "lon": 13.8567974,
            "timestamp": "2022-04-30T10:43:47Z",
            "version": 2,
            "changeset": 120379448,
            "user": "totera",
            "uid": 123412,
            "tags": {
                "brand": "Conad",
                "brand:wikidata": "Q639075",
                "brand:wikipedia": "it:Conad",
                "name": "Conad",
                "shop": "supermarket"
            }
        },
        {
            "type": "node",
            "id": 10554651585,
            "lat": 43.2174824,
            "lon": 13.3064053,
            "timestamp": "2025-05-29T07:31:59Z",
            "version": 6,
            "changeset": 166906000,
            "user": "totera",
            "uid": 123412,
            "tags": {
                "addr:city": "Tolentino",
                "addr:housenumber": "1",
                "addr:postcode": "62029",
                "addr:street": "Viale della Concordia",
                "check_date": "2025-05-12",
                "check_date:currency:XBT": "2023-01-14",
                "currency:XBT": "yes",
                "description": "Software house",
                "email": "info@protocollicreativi.it",
                "name": "Protocolli Creativi",
                "office": "it",
                "opening_hours": "Mo-Fr 10:00-13:00, 15:00-19:00",
                "payment:lightning": "yes",
                "payment:lightning_contactless": "yes",
                "payment:onchain": "yes",
                "phone": "+39 0733 974921",
                "website": "https://www.protocollicreativi.it/"
            }
        },
        {
            "type": "node",
            "id": 10566976132,
            "lat": 43.2217632,
            "lon": 13.4651049,
            "timestamp": "2023-01-19T06:35:47Z",
            "version": 1,
            "changeset": 131449355,
            "user": "BSN21M",
            "uid": 17441326,
            "tags": {
                "addr:city": "Petriolo",
                "addr:housenumber": "35",
                "addr:postcode": "62014",
                "addr:street": "Via Porta Nuova",
                "check_date:currency:XBT": "2023-01-19",
                "currency:XBT": "yes",
                "name": "Natali Calzature",
                "opening_hours": "Mo-Sa 16:30-19:30",
                "payment:lightning": "yes",
                "payment:lightning_contactless": "no",
                "payment:onchain": "yes",
                "phone": "+39 339 613 4291",
                "shop": "shoes",
                "website": "https://natalicalzature.business.site"
            }
        },
        {
            "type": "node",
            "id": 10722344249,
            "lat": 43.4827895,
            "lon": 13.5954674,
            "timestamp": "2024-04-02T14:03:36Z",
            "version": 2,
            "changeset": 149483177,
            "user": "totera",
            "uid": 123412,
            "tags": {
                "addr:city": "Numana",
                "addr:direction": "N",
                "addr:milestone": "239",
                "addr:postcode": "60026",
                "addr:street": "Autostrada Adriatica",
                "amenity": "fuel",
                "brand": "Q8",
                "brand:wikidata": "Q1634762",
                "fuel:GTL_diesel": "yes",
                "fuel:diesel": "yes",
                "fuel:lpg": "yes",
                "fuel:octane_100": "yes",
                "fuel:octane_95": "yes",
                "name": "AdS Conero est",
                "opening_hours": "24/7",
                "operator": "Conero Est S.R.L.",
                "ref:mise": "51024",
                "self_service": "yes",
                "wheelchair": "yes"
            }
        },
        {
            "type": "node",
            "id": 10814136257,
            "lat": 42.9755318,
            "lon": 13.3501747,
            "timestamp": "2023-04-15T09:25:01Z",
            "version": 1,
            "changeset": 134932766,
            "user": "gs3\u00a7zba",
            "uid": 4439645,
            "tags": {
                "brand": "Conad City",
                "brand:wikidata": "Q57543102",
                "name": "Conad City",
                "shop": "supermarket"
            }
        },
        {
            "type": "node",
            "id": 10852549720,
            "lat": 43.1968639,
            "lon": 13.7879854,
            "timestamp": "2024-10-08T19:39:31Z",
            "version": 4,
            "changeset": 157643567,
            "user": "mpbin",
            "uid": 21850090,
            "tags": {
                "addr:city": "Porto San Giorgio",
                "addr:housenumber": "25",
                "addr:postcode": "63822",
                "addr:street": "via Abruzzo",
                "check_date": "2024-10-08",
                "check_date:currency:XBT": "2024-10-08",
                "currency:XBT": "yes",
                "email": "betasrls01@gmail.com",
                "name": "Studio BETA SRLS",
                "opening_hours": "Mo-Fr 09:00-17:00",
                "payment:onchain": "yes",
                "telecom": "data_center"
            }
        },
        {
            "type": "node",
            "id": 10862567240,
            "lat": 43.2302873,
            "lon": 13.6848136,
            "timestamp": "2024-07-05T19:57:27Z",
            "version": 2,
            "changeset": 153602893,
            "user": "mauropili",
            "uid": 1496865,
            "tags": {
                "addr:city": "Sant'Elpidio a Mare",
                "addr:housenumber": "64",
                "addr:postcode": "63811",
                "addr:street": "Corso Baccio",
                "amenity": "restaurant",
                "check_date": "2023-05-02",
                "contact:facebook": "https://www.facebook.com/ipozzacci",
                "cuisine": "italian",
                "currency:XBT": "yes",
                "name": "I Pozzacci",
                "phone": "+390734466623"
            }
        },
        {
            "type": "node",
            "id": 11101515276,
            "lat": 43.5125887,
            "lon": 13.5277251,
            "timestamp": "2025-10-08T20:51:00Z",
            "version": 5,
            "changeset": 173023177,
            "user": "btcitnet",
            "uid": 22525435,
            "tags": {
                "addr:city": "Osimo",
                "addr:housenumber": "22",
                "addr:postcode": "60027",
                "addr:street": "Via Sbrozzola",
                "brand": "OVS",
                "brand:wikidata": "Q2042514",
                "name": "OVS",
                "opening_hours": "Mo-Su 09:00-20:00",
                "shop": "clothes",
                "wheelchair": "yes"
            }
        },
        {
            "type": "node",
            "id": 11114837111,
            "lat": 42.9514515,
            "lon": 13.8816648,
            "timestamp": "2023-08-20T11:20:37Z",
            "version": 2,
            "changeset": 140128122,
            "user": "damianeue",
            "uid": 10124288,
            "tags": {
                "brand": "Intimissimi",
                "brand:wikidata": "Q305404",
                "clothes": "underwear",
                "name": "Intimissimi",
                "shop": "clothes"
            }
        },
        {
            "type": "node",
            "id": 11114852096,
            "lat": 42.9510564,
            "lon": 13.8802186,
            "timestamp": "2024-11-08T15:34:52Z",
            "version": 3,
            "changeset": 158900569,
            "user": "Flight777",
            "uid": 9925732,
            "tags": {
                "brand": "Tezenis",
                "brand:wikidata": "Q28056374",
                "clothes": "women;underwear;swimwear;men;children",
                "name": "Tezenis",
                "shop": "clothes"
            }
        },
        {
            "type": "node",
            "id": 11173847767,
            "lat": 43.3231583,
            "lon": 13.7143383,
            "timestamp": "2023-09-07T10:17:08Z",
            "version": 1,
            "changeset": 140933019,
            "user": "acifani",
            "uid": 13608596,
            "tags": {
                "brand": "Conad",
                "brand:wikidata": "Q639075",
                "name": "Conad",
                "shop": "supermarket"
            }
        },
        {
            "type": "node",
            "id": 11182456133,
            "lat": 42.8541971,
            "lon": 13.5754279,
            "timestamp": "2025-04-21T07:31:35Z",
            "version": 3,
            "changeset": 165223580,
            "user": "totera",
            "uid": 123412,
            "tags": {
                "addr:city": "Ascoli Piceno",
                "addr:housenumber": "25",
                "addr:postcode": "63100",
                "addr:street": "Piazza del Popolo",
                "brand": "Salmoiraghi & Vigan\u00f2",
                "brand:wikidata": "Q21272314",
                "check_date": "2025-04-20",
                "name": "Salmoiraghi & Vigan\u00f2",
                "shop": "optician"
            }
        },
        {
            "type": "node",
            "id": 11206224462,
            "lat": 43.2797885,
            "lon": 13.5020234,
            "timestamp": "2025-09-23T10:53:48Z",
            "version": 2,
            "changeset": 172337050,
            "user": "jeawrong",
            "uid": 179966,
            "tags": {
                "brand": "Upim",
                "brand:wikidata": "Q1414836",
                "name": "Upim",
                "opening_hours": "Mo-Su,PH 09:00-20:30",
                "shop": "department_store"
            }
        },
        {
            "type": "node",
            "id": 11230799201,
            "lat": 42.9177827,
            "lon": 13.890496,
            "timestamp": "2023-10-03T05:25:10Z",
            "version": 2,
            "changeset": 142079790,
            "user": "totera",
            "uid": 123412,
            "tags": {
                "brand": "OVS",
                "brand:wikidata": "Q2042514",
                "name": "OVS",
                "shop": "clothes"
            }
        },
        {
            "type": "node",
            "id": 11351377005,
            "lat": 43.2875203,
            "lon": 13.735028,
            "timestamp": "2025-10-23T18:48:35Z",
            "version": 6,
            "changeset": 173688326,
            "user": "btcitnet",
            "uid": 22525435,
            "tags": {
                "addr:city": "Porto Sant'Elpidio",
                "addr:postcode": "63821",
                "addr:street": "Via Mare del Nord",
                "brand": "Bottega Verde",
                "brand:wikidata": "Q894870",
                "name": "Bottega Verde",
                "opening_hours": "Mo-Su 09:00-20:30",
                "shop": "cosmetics",
                "wheelchair": "yes"
            }
        },
        {
            "type": "node",
            "id": 11351377009,
            "lat": 43.2873935,
            "lon": 13.7357871,
            "timestamp": "2023-11-16T17:01:26Z",
            "version": 5,
            "changeset": 144104797,
            "user": "totera",
            "uid": 123412,
            "tags": {
                "brand": "Upim",
                "brand:wikidata": "Q1414836",
                "name": "Upim",
                "opening_hours": "Mo-Su 09:00-20:30",
                "shop": "department_store",
                "wheelchair": "yes"
            }
        },
        {
            "type": "node",
            "id": 11351377013,
            "lat": 43.2874254,
            "lon": 13.7348138,
            "timestamp": "2025-01-14T12:01:07Z",
            "version": 5,
            "changeset": 161342515,
            "user": "DnaX",
            "uid": 69259,
            "tags": {
                "brand": "GrandVision",
                "brand:wikidata": "Q105644278",
                "name": "GrandVision",
                "opening_hours": "Mo-Su 09:00-20:30",
                "shop": "optician",
                "wheelchair": "yes"
            }
        },
        {
            "type": "node",
            "id": 11351377016,
            "lat": 43.2874658,
            "lon": 13.7349007,
            "timestamp": "2025-10-08T20:20:41Z",
            "version": 7,
            "changeset": 173022166,
            "user": "btcitnet",
            "uid": 22525435,
            "tags": {
                "addr:city": "Porto Sant'Elpidio",
                "addr:housenumber": "41",
                "addr:postcode": "63018",
                "addr:street": "Via Fratte",
                "brand": "Tezenis",
                "brand:wikidata": "Q28056374",
                "clothes": "women;underwear;swimwear;men;children",
                "name": "Tezenis",
                "opening_hours": "Mo-Su 09:00-20:30",
                "shop": "clothes",
                "wheelchair": "yes"
            }
        },
        {
            "type": "node",
            "id": 11351377018,
            "lat": 43.28759,
            "lon": 13.7349675,
            "timestamp": "2025-10-23T08:31:50Z",
            "version": 6,
            "changeset": 173661573,
            "user": "btcitnet",
            "uid": 22525435,
            "tags": {
                "addr:city": "Porto Sant'Elpidio",
                "addr:housenumber": "41",
                "addr:postcode": "63821",
                "addr:street": "Via Fratte",
                "brand": "Kasanova",
                "brand:wikidata": "Q116214505",
                "name": "Kasanova",
                "opening_hours": "Mo-Su 09:00-20:30",
                "shop": "houseware",
                "wheelchair": "yes"
            }
        },
        {
            "type": "node",
            "id": 11351580782,
            "lat": 43.4403339,
            "lon": 13.625995,
            "timestamp": "2025-01-01T21:19:37Z",
            "version": 3,
            "changeset": 160885827,
            "user": "mpbin",
            "uid": 21850090,
            "tags": {
                "addr:city": "Loreto",
                "addr:housenumber": "1",
                "addr:postcode": "60025",
                "addr:street": "Via Buffolareccia",
                "brand": "Unieuro",
                "brand:wikidata": "Q4004687",
                "name": "Unieuro",
                "operator": "Unieuro S.p.A.",
                "shop": "electronics",
                "wheelchair": "yes"
            }
        },
        {
            "type": "node",
            "id": 11351584816,
            "lat": 43.4402862,
            "lon": 13.6263378,
            "timestamp": "2023-11-15T17:21:14Z",
            "version": 2,
            "changeset": 144059089,
            "user": "\u0110uro Ji\u0159\u00ed",
            "uid": 14617702,
            "tags": {
                "brand": "Mondadori",
                "brand:wikidata": "Q85355",
                "name": "Mondadori",
                "shop": "books",
                "wheelchair": "yes"
            }
        },
        {
            "type": "node",
            "id": 11417096286,
            "lat": 43.1604826,
            "lon": 13.7877303,
            "timestamp": "2024-01-05T15:52:55Z",
            "version": 5,
            "changeset": 145927855,
            "user": "Chiarant",
            "uid": 18452174,
            "tags": {
                "addr:city": "Fermo",
                "addr:housenumber": "111",
                "addr:postcode": "63900",
                "addr:street": "Via Francesco Egidi",
                "check_date": "2024-01-05",
                "currency:XBT": "yes",
                "email": "info@coworkingfermo.com",
                "internet_access": "yes",
                "internet_access:fee": "customers",
                "mobile": "+39 338 1450 312",
                "name": "Studio Civico 111",
                "office": "coworking",
                "opening_hours": "24/7",
                "payment:onchain": "yes",
                "phone": "+39 0734 300983",
                "website": "https://coworkingfermo.com/"
            }
        },
        {
            "type": "node",
            "id": 11539648985,
            "lat": 42.8718834,
            "lon": 13.7621275,
            "timestamp": "2024-01-23T08:52:38Z",
            "version": 2,
            "changeset": 146582566,
            "user": "totera",
            "uid": 123412,
            "tags": {
                "addr:city": "Pagliare",
                "addr:housenumber": "26",
                "addr:postcode": "63078",
                "addr:street": "Via Salaria",
                "brand": "Conad",
                "brand:wikidata": "Q639075",
                "name": "Conad",
                "opening_hours": "Mo-Fr 08:30-13:00,16:00-20:00; Sa 08:30-20:00; Su 09:00-13:00",
                "phone": "+39 0736 890025",
                "shop": "supermarket",
                "website": "https://www.conad.it/ricerca-negozi/conad-via-salaria-26-63079-spinetoli--002304"
            }
        },
        {
            "type": "node",
            "id": 11663889123,
            "lat": 43.1624728,
            "lon": 13.7965583,
            "timestamp": "2024-11-06T14:02:19Z",
            "version": 3,
            "changeset": 158819584,
            "user": "mpbin",
            "uid": 21850090,
            "tags": {
                "addr:city": "Fermo",
                "addr:housenumber": "181",
                "addr:postcode": "63900",
                "addr:street": "Via Francesco Egidi",
                "check_date": "2024-02-26",
                "contact:facebook": "https://www.facebook.com/gentlemanleathercare",
                "contact:instagram": "https://www.instagram.com/gentlemanleathercare/",
                "currency:XBT": "yes",
                "description": "Azienda specializzata nella produzione di materiali vernicianti per le pelli, per la loro ricostruzione e il loro mantenimento.",
                "email": "gentlemanleathercare@gmail.com",
                "name": "Gentleman Leather Care",
                "payment:lightning": "yes",
                "payment:onchain": "yes",
                "phone": "+39 0734 302677",
                "shop": "paint",
                "website": "https://www.gentlemanleathercare.com/"
            }
        },
        {
            "type": "node",
            "id": 11663940504,
            "lat": 43.1624355,
            "lon": 13.7966382,
            "timestamp": "2024-11-06T14:08:39Z",
            "version": 6,
            "changeset": 158819818,
            "user": "mpbin",
            "uid": 21850090,
            "tags": {
                "addr:city": "Fermo",
                "addr:housenumber": "181",
                "addr:postcode": "63900",
                "addr:street": "Via Francesco Egidi",
                "check_date": "2024-09-21",
                "check_date:currency:XBT": "2024-09-21",
                "contact:facebook": "https://www.facebook.com/sscgaragedetailer",
                "contact:instagram": "https://www.instagram.com/sscgarage/",
                "contact:twitter": "https://x.com/GarageSsc",
                "currency:XBT": "yes",
                "email": "info@sscgarage.com",
                "name": "SSC Garage di Mem\u00e8 Michele",
                "payment:lightning": "yes",
                "payment:onchain": "yes",
                "phone": "+39 0734 302677",
                "shop": "car_repair",
                "website": "https://www.sscgarage.com/"
            }
        },
        {
            "type": "node",
            "id": 11813795439,
            "lat": 43.1782928,
            "lon": 13.6714654,
            "timestamp": "2025-01-01T21:33:27Z",
            "version": 2,
            "changeset": 160886208,
            "user": "mpbin",
            "uid": 21850090,
            "tags": {
                "addr:city": "Fermo",
                "addr:housenumber": "42",
                "addr:postcode": "63900",
                "addr:street": "Via Giacomo Filippo Maria Prosperi",
                "brand": "Unieuro",
                "brand:wikidata": "Q4004687",
                "name": "Unieuro",
                "operator": "Unieuro S.p.A.",
                "shop": "electronics"
            }
        },
        {
            "type": "node",
            "id": 11843242870,
            "lat": 43.5529057,
            "lon": 13.5144481,
            "timestamp": "2024-12-03T23:27:50Z",
            "version": 2,
            "changeset": 159900104,
            "user": "totera",
            "uid": 123412,
            "tags": {
                "addr:city": "Ancona",
                "addr:housenumber": "6",
                "addr:postcode": "60131",
                "addr:street": "Via Franco Scataglini",
                "brand": "Intimissimi",
                "brand:wikidata": "Q305404",
                "check_date": "2024-04-24",
                "clothes": "underwear",
                "local_ref": "n26",
                "name": "Intimissimi",
                "opening_hours": "Mo-Su 09:00-20:30",
                "phone": "+39 071 2868588",
                "shop": "clothes",
                "website": "https://www.intimissimi.com/it/negozi/marche/ancona/ancona_via_scataglini_6/8BEC.html"
            }
        },
        {
            "type": "node",
            "id": 11843242873,
            "lat": 43.5530125,
            "lon": 13.5145633,
            "timestamp": "2024-12-03T23:27:50Z",
            "version": 2,
            "changeset": 159900104,
            "user": "totera",
            "uid": 123412,
            "tags": {
                "addr:city": "Ancona",
                "addr:housenumber": "6",
                "addr:postcode": "60131",
                "addr:street": "Via Franco Scataglini",
                "brand": "Bottega Verde",
                "brand:wikidata": "Q894870",
                "check_date": "2024-04-24",
                "local_ref": "n23",
                "name": "Bottega Verde",
                "opening_hours": "Mo-Su 09:00-20:30",
                "phone": "+39 071 2861416",
                "shop": "cosmetics",
                "website": "https://www.bottegaverde.com/it-it/storelocator/ancona/piane_baracola_an_cc_conero"
            }
        },
        {
            "type": "node",
            "id": 11843242874,
            "lat": 43.5529379,
            "lon": 13.5145593,
            "timestamp": "2024-12-03T23:27:50Z",
            "version": 2,
            "changeset": 159900104,
            "user": "totera",
            "uid": 123412,
            "tags": {
                "addr:city": "Ancona",
                "addr:housenumber": "6",
                "addr:postcode": "60131",
                "addr:street": "Via Franco Scataglini",
                "brand": "L'Erbolario",
                "brand:wikidata": "Q116304294",
                "check_date": "2024-04-24",
                "email": "shop1051@erbolario.com",
                "local_ref": "n25",
                "name": "L'Erbolario",
                "opening_hours": "Mo-Su 09:00-20:30",
                "operator": "L'Erbolario Franchising SB S.r.l.",
                "phone": "+39 071 9732832",
                "ref": "1051",
                "ref:vatin": "IT10846700150",
                "shop": "herbalist",
                "website": "https://www.erbolario.com/it/puntivendita/dettagli/R80328884010"
            }
        },
        {
            "type": "node",
            "id": 11874406150,
            "lat": 43.4896528,
            "lon": 13.4958801,
            "timestamp": "2024-11-15T21:13:47Z",
            "version": 5,
            "changeset": 159187520,
            "user": "mpbin",
            "uid": 21850090,
            "tags": {
                "addr:city": "Osimo",
                "addr:housenumber": "100",
                "addr:postcode": "60027",
                "addr:street": "Via Marco Polo",
                "check_date": "2024-11-15",
                "check_date:currency:XBT": "2024-11-15",
                "contact:facebook": "https://www.facebook.com/erboristeria.naturalmente.osimo/",
                "currency:XBT": "yes",
                "email": "erboristerianaturalmente@gmail.com",
                "name": "Erboristeria Naturalmente",
                "opening_hours": "Mo-Su 09:00-13:00,16:00-20:00",
                "payment:cash": "yes",
                "payment:credit_cards": "yes",
                "payment:debit_cards": "yes",
                "payment:lightning": "yes",
                "payment:lightning_contactless": "no",
                "payment:onchain": "no",
                "phone": "+39 071 7132123",
                "shop": "herbalist"
            }
        },
        {
            "type": "node",
            "id": 11919478635,
            "lat": 43.1795188,
            "lon": 13.7930083,
            "timestamp": "2024-05-20T10:06:54Z",
            "version": 1,
            "changeset": 151570849,
            "user": "Chiarant",
            "uid": 18452174,
            "tags": {
                "addr:city": "Porto San Giorgio",
                "addr:housenumber": "17",
                "addr:postcode": "63822",
                "addr:street": "Corso Castel San Giorgio",
                "amenity": "pub",
                "check_date": "2024-05-20",
                "contact:facebook": "https://www.facebook.com/lalocurapsg/",
                "cuisine": "burger",
                "currency:XBT": "yes",
                "email": "lalocurapsg@gmail.com",
                "name": "La Locura Bistrot",
                "payment:lightning": "yes",
                "payment:onchain": "yes",
                "phone": "+39 327 1352526"
            }
        },
        {
            "type": "node",
            "id": 11920480577,
            "lat": 43.4778625,
            "lon": 13.6301502,
            "timestamp": "2024-07-06T07:15:13Z",
            "version": 2,
            "changeset": 153612617,
            "user": "mauropili",
            "uid": 1496865,
            "tags": {
                "addr:city": "Numana",
                "check_date": "2024-05-20",
                "currency:XBT": "yes",
                "leisure": "resort",
                "name": "Resort Estivo",
                "payment:lightning": "yes",
                "payment:lightning_contactless": "yes",
                "payment:onchain": "yes",
                "phone": "+39 33 8761 1076",
                "website": "https://www.subito.it/vi/551785629.htm"
            }
        },
        {
            "type": "node",
            "id": 11938388563,
            "lat": 43.4832789,
            "lon": 13.4930931,
            "timestamp": "2024-05-29T04:05:55Z",
            "version": 2,
            "changeset": 151969827,
            "user": "totera",
            "uid": 123412,
            "tags": {
                "addr:city": "Osimo",
                "addr:housenumber": "15",
                "addr:postcode": "60027",
                "addr:street": "Via Cristoforo Colombo",
                "check_date": "2024-05-27",
                "currency:XBT": "yes",
                "name": "Tabaccheria Colombo",
                "payment:lightning": "yes",
                "payment:lightning_contactless": "no",
                "payment:onchain": "no",
                "shop": "tobacco"
            }
        },
        {
            "type": "node",
            "id": 11954201749,
            "lat": 42.8866527,
            "lon": 13.9122053,
            "timestamp": "2025-06-17T08:26:25Z",
            "version": 5,
            "changeset": 167727023,
            "user": "SekeRob",
            "uid": 1940323,
            "tags": {
                "addr:city": "Martinsicuro",
                "addr:housenumber": "28",
                "addr:postcode": "64014",
                "addr:street": "Via Piemonte",
                "check_date": "2024-10-30",
                "check_date:currency:XBT": "2024-10-30",
                "contact:facebook": "https://www.facebook.com/primopierantozzi.coach",
                "currency:XBT": "yes",
                "mobile": "+39 331 113 7193",
                "name": "Dr. Primo Pierantozzi - Mental coach professionista",
                "office": "company",
                "payment:lightning": "yes",
                "payment:onchain": "yes",
                "website": "https://www.pierantozzi.it/"
            }
        },
        {
            "type": "node",
            "id": 11975336450,
            "lat": 43.3086104,
            "lon": 13.7271027,
            "timestamp": "2024-09-21T18:44:16Z",
            "version": 2,
            "changeset": 156924689,
            "user": "mpbin",
            "uid": 21850090,
            "tags": {
                "addr:city": "Civitanova Marche",
                "addr:housenumber": "88",
                "addr:postcode": "62012",
                "addr:street": "Corso Umberto I",
                "check_date": "2024-06-12",
                "currency:XBT": "yes",
                "name": "Vittoria Profumi",
                "shop": "perfumery",
                "website": "https://www.vittoriaprofumi.com/"
            }
        },
        {
            "type": "node",
            "id": 12003242084,
            "lat": 42.8969965,
            "lon": 13.6623472,
            "timestamp": "2025-05-25T22:14:25Z",
            "version": 4,
            "changeset": 166753241,
            "user": "totera",
            "uid": 123412,
            "tags": {
                "addr:city": "Appignano del Tronto",
                "addr:housenumber": "29",
                "addr:postcode": "63083",
                "addr:street": "Via Dante Alighieri",
                "check_date": "2024-06-24",
                "check_date:currency:XBT": "2024-06-25",
                "currency:XBT": "yes",
                "email": "dinicolodanilo@gmail.com",
                "name": "Studio Tecnico Di Nicol\u00f2",
                "office": "surveyor",
                "operator": "Claudio di Nicol\u00f2",
                "payment:lightning": "yes",
                "payment:onchain": "yes",
                "phone": "+39 347 6314795",
                "website": "http://www.studiotecnicodinicolo.it/"
            }
        },
        {
            "type": "node",
            "id": 12041656375,
            "lat": 43.2840949,
            "lon": 13.430952,
            "timestamp": "2025-10-17T13:33:29Z",
            "version": 2,
            "changeset": 173411244,
            "user": "btcitnet",
            "uid": 22525435,
            "tags": {
                "addr:city": "Macerata",
                "addr:housenumber": "72a",
                "addr:postcode": "62100",
                "addr:street": "Via Giovanni Verga",
                "brand": "Conad",
                "brand:wikidata": "Q639075",
                "name": "Conad",
                "old_name": "Simply Market",
                "opening_hours": "Mo-Sa 08:00-20:00; Su 08:30-20:00",
                "phone": "+39 0733 34313",
                "shop": "supermarket",
                "website": "https://www.conad.it/ricerca-negozi/conad-via-giovanni-verga-72-a-62100--macerata--009738"
            }
        },
        {
            "type": "node",
            "id": 12049222891,
            "lat": 43.1780612,
            "lon": 13.7953845,
            "timestamp": "2024-07-30T08:18:45Z",
            "version": 3,
            "changeset": 154593999,
            "user": "totera",
            "uid": 123412,
            "tags": {
                "addr:city": "Porto San Giorgio",
                "addr:housenumber": "72",
                "addr:postcode": "63822",
                "addr:street": "Via Raffaele Tombolini",
                "check_date": "2024-07-12",
                "currency:XBT": "yes",
                "name": "Parrucchieria Umbertina",
                "operator": "Giovanni Ciucani",
                "payment:lightning": "yes",
                "payment:onchain": "yes",
                "phone": "+39 0734 675306",
                "shop": "hairdresser"
            }
        },
        {
            "type": "node",
            "id": 12124767372,
            "lat": 43.1620294,
            "lon": 13.717109,
            "timestamp": "2025-10-18T17:30:01Z",
            "version": 2,
            "changeset": 173460900,
            "user": "btcitnet",
            "uid": 22525435,
            "tags": {
                "addr:city": "Fermo",
                "addr:housenumber": "38",
                "addr:postcode": "63900",
                "addr:street": "Corso Cefalonia",
                "brand": "Mondadori",
                "brand:wikidata": "Q85355",
                "name": "Mondadori",
                "shop": "books"
            }
        },
        {
            "type": "node",
            "id": 12134519587,
            "lat": 42.8550138,
            "lon": 13.573992,
            "timestamp": "2025-06-07T13:12:38Z",
            "version": 3,
            "changeset": 167309510,
            "user": "clamemmel",
            "uid": 21864105,
            "tags": {
                "brand": "United Colors of Benetton",
                "brand:wikidata": "Q817139",
                "name": "United Colors of Benetton",
                "shop": "clothes",
                "short_name": "Benetton",
                "wheelchair": "yes"
            }
        },
        {
            "type": "node",
            "id": 12188096237,
            "lat": 43.5537821,
            "lon": 13.5144657,
            "timestamp": "2024-12-03T23:27:50Z",
            "version": 3,
            "changeset": 159900104,
            "user": "totera",
            "uid": 123412,
            "tags": {
                "addr:city": "Ancona",
                "addr:housenumber": "6",
                "addr:postcode": "60131",
                "addr:street": "Via Franco Scataglini",
                "brand": "Kasanova",
                "brand:wikidata": "Q116214505",
                "check_date": "2024-11-22",
                "contact:facebook": "kn.ancona",
                "email": "ancona@kasanova.it",
                "local_ref": "n11",
                "name": "Kasanova",
                "opening_hours": "Mo-Su 09:00-20:30",
                "operator": "Kasanova S.p.A.",
                "phone": "+39 071 9948922",
                "ref:vatin": "IT00743020968",
                "shop": "houseware",
                "website": "https://www.kasanova.com/it/stores/kasanova-ancona-conero-via-franco-scataglini-6"
            }
        },
        {
            "type": "node",
            "id": 12215496008,
            "lat": 42.8049081,
            "lon": 13.9275607,
            "timestamp": "2025-10-16T14:19:04Z",
            "version": 3,
            "changeset": 173368607,
            "user": "btcitnet",
            "uid": 22525435,
            "tags": {
                "addr:city": "Tortoreto",
                "addr:housenumber": "KM.323,7 A14",
                "addr:postcode": "64018",
                "addr:street": "Tortoreto ovest",
                "amenity": "fuel",
                "brand": "Tamoil",
                "brand:wikidata": "Q706793",
                "brand:wikipedia": "en:Tamoil",
                "fuel:diesel": "yes",
                "fuel:octane_95": "yes",
                "name": "Tamoil",
                "opening_hours": "24/7",
                "operator": "Fratelli Nepa di Nepa Umberto & C. S.A.S.",
                "payment:bancomat": "yes",
                "ref:mise": "3747",
                "self_service": "yes",
                "source": "Ministero dello Sviluppo Economico"
            }
        },
        {
            "type": "node",
            "id": 12219082631,
            "lat": 43.2702038,
            "lon": 13.5886348,
            "timestamp": "2025-01-01T20:08:30Z",
            "version": 2,
            "changeset": 160883683,
            "user": "mpbin",
            "uid": 21850090,
            "tags": {
                "addr:city": "Morrovalle",
                "addr:housenumber": "58",
                "addr:postcode": "62010",
                "addr:street": "Via Edmondo De Amicis",
                "brand": "Unieuro",
                "brand:wikidata": "Q4004687",
                "name": "Unieuro",
                "operator": "Unieuro S.p.A.",
                "phone": "+390733865184",
                "shop": "electronics"
            }
        },
        {
            "type": "node",
            "id": 12271289401,
            "lat": 42.8455072,
            "lon": 13.6227437,
            "timestamp": "2025-01-06T00:18:38Z",
            "version": 2,
            "changeset": 161040656,
            "user": "totera",
            "uid": 123412,
            "tags": {
                "addr:city": "Ascoli Piceno",
                "addr:housenumber": "52",
                "addr:postcode": "63100",
                "addr:street": "Viale del Commercio",
                "brand": "Guess",
                "brand:wikidata": "Q2470307",
                "check_date": "2024-10-20",
                "name": "Guess",
                "opening_hours": "Mo-Su 09:00-21:00",
                "shop": "clothes"
            }
        },
        {
            "type": "node",
            "id": 12271289404,
            "lat": 42.8462005,
            "lon": 13.6241076,
            "timestamp": "2025-01-06T00:18:38Z",
            "version": 2,
            "changeset": 161040656,
            "user": "totera",
            "uid": 123412,
            "tags": {
                "addr:city": "Ascoli Piceno",
                "addr:housenumber": "52",
                "addr:postcode": "63100",
                "addr:street": "Viale del Commercio",
                "brand": "OVS",
                "brand:wikidata": "Q2042514",
                "check_date": "2024-10-20",
                "name": "OVS",
                "opening_hours": "Mo-Su 09:00-21:00",
                "shop": "clothes"
            }
        },
        {
            "type": "node",
            "id": 12286517208,
            "lat": 43.1552238,
            "lon": 13.7041718,
            "timestamp": "2024-10-24T23:26:25Z",
            "version": 1,
            "changeset": 158316848,
            "user": "cla88",
            "uid": 8608593,
            "tags": {
                "brand": "Conad City",
                "brand:wikidata": "Q57543102",
                "name": "Conad City",
                "shop": "supermarket"
            }
        },
        {
            "type": "node",
            "id": 12324589823,
            "lat": 43.1858175,
            "lon": 13.4744237,
            "timestamp": "2025-08-28T13:32:15Z",
            "version": 3,
            "changeset": 171135901,
            "user": "damianeue",
            "uid": 10124288,
            "tags": {
                "addr:city": "Mogliano",
                "addr:housenumber": "33/C",
                "addr:postcode": "62010",
                "addr:street": "Viale Venti Settembre",
                "amenity": "bar",
                "currency:XBT": "yes",
                "name": "Kush Snc"
            }
        },
        {
            "type": "node",
            "id": 12365153134,
            "lat": 43.5535164,
            "lon": 13.5146223,
            "timestamp": "2025-01-14T10:43:32Z",
            "version": 3,
            "changeset": 161340005,
            "user": "DnaX",
            "uid": 69259,
            "tags": {
                "addr:city": "Ancona",
                "addr:housenumber": "6",
                "addr:postcode": "60131",
                "addr:street": "Via Franco Scataglini",
                "brand": "GrandVision",
                "brand:wikidata": "Q105644278",
                "check_date": "2024-11-22",
                "local_ref": "n8",
                "name": "GrandVision",
                "opening_hours": "Mo-Su 09:00-20:30",
                "phone": "+39 071 2868093",
                "ref": "K115",
                "shop": "optician",
                "website": "https://www.grandvision.it/it-it/trova-negozi/negozio?storeNumber=K115"
            }
        },
        {
            "type": "node",
            "id": 12365182932,
            "lat": 43.5531507,
            "lon": 13.5143041,
            "timestamp": "2024-12-03T23:27:50Z",
            "version": 2,
            "changeset": 159900104,
            "user": "totera",
            "uid": 123412,
            "tags": {
                "addr:city": "Ancona",
                "addr:housenumber": "6",
                "addr:postcode": "60131",
                "addr:street": "Via Franco Scataglini",
                "brand": "Tezenis",
                "brand:wikidata": "Q28056374",
                "check_date": "2024-11-22",
                "clothes": "women;underwear;swimwear;men;children",
                "local_ref": "n3",
                "name": "Tezenis",
                "opening_hours": "Mo-Su 09:00-20:30",
                "phone": "+39 071 2868777",
                "shop": "clothes",
                "website": "https://www.tezenis.com/it/negozi/marche/ancona/ancona_via_scataglini6_localit_pip_baraccola/T479.html"
            }
        },
        {
            "type": "node",
            "id": 12365182940,
            "lat": 43.5525431,
            "lon": 13.5145381,
            "timestamp": "2024-12-03T23:27:50Z",
            "version": 2,
            "changeset": 159900104,
            "user": "totera",
            "uid": 123412,
            "tags": {
                "addr:city": "Ancona",
                "addr:housenumber": "6",
                "addr:postcode": "60131",
                "addr:street": "Via Franco Scataglini",
                "brand": "Calzedonia",
                "brand:wikidata": "Q1027874",
                "check_date": "2024-11-22",
                "local_ref": "n35",
                "name": "Calzedonia",
                "opening_hours": "Mo-Su 09:00-20:30",
                "phone": "+39 071 4193015",
                "shop": "clothes",
                "website": "https://www.calzedonia.com/it/negozi/marche/ancona/ancona_via_scataglini_6/BQZ.html"
            }
        },
        {
            "type": "node",
            "id": 12463990495,
            "lat": 43.5284878,
            "lon": 13.5184065,
            "timestamp": "2024-12-31T00:01:11Z",
            "version": 1,
            "changeset": 160814756,
            "user": "totera",
            "uid": 123412,
            "tags": {
                "addr:city": "Osimo",
                "addr:milestone": "308.9",
                "addr:postcode": "60027",
                "addr:street": "Strada Statale 16 Adriatica",
                "branch": "Osimo",
                "brand": "Trony",
                "brand:wikidata": "Q3999692",
                "check_date": "2024-12-31",
                "name": "Trony",
                "operator": "DML Spa",
                "phone": "+39 071 7202046",
                "ref:vatin": "IT02106250398",
                "shop": "electronics"
            }
        },
        {
            "type": "node",
            "id": 12468465724,
            "lat": 42.8454545,
            "lon": 13.6242686,
            "timestamp": "2025-01-06T00:18:38Z",
            "version": 2,
            "changeset": 161040656,
            "user": "totera",
            "uid": 123412,
            "tags": {
                "addr:city": "Ascoli Piceno",
                "addr:housenumber": "52",
                "addr:postcode": "63100",
                "addr:street": "Viale del Commercio",
                "brand": "L'Erbolario",
                "brand:wikidata": "Q116304294",
                "check_date": "2025-01-02",
                "name": "L'Erbolario",
                "opening_hours": "Mo-Su 09:00-21:00",
                "shop": "herbalist"
            }
        },
        {
            "type": "node",
            "id": 12468465727,
            "lat": 42.8453112,
            "lon": 13.6240616,
            "timestamp": "2025-01-06T00:18:38Z",
            "version": 2,
            "changeset": 161040656,
            "user": "totera",
            "uid": 123412,
            "tags": {
                "addr:city": "Ascoli Piceno",
                "addr:housenumber": "52",
                "addr:postcode": "63100",
                "addr:street": "Viale del Commercio",
                "brand": "Bottega Verde",
                "brand:wikidata": "Q894870",
                "check_date": "2025-01-02",
                "name": "Bottega Verde",
                "opening_hours": "Mo-Su 09:00-21:00",
                "shop": "cosmetics"
            }
        },
        {
            "type": "node",
            "id": 12468465741,
            "lat": 42.8458928,
            "lon": 13.6230903,
            "timestamp": "2025-01-06T00:18:38Z",
            "version": 2,
            "changeset": 161040656,
            "user": "totera",
            "uid": 123412,
            "tags": {
                "addr:city": "Ascoli Piceno",
                "addr:housenumber": "52",
                "addr:postcode": "63100",
                "addr:street": "Viale del Commercio",
                "brand": "Intimissimi",
                "brand:wikidata": "Q305404",
                "check_date": "2025-01-02",
                "clothes": "underwear",
                "name": "Intimissimi",
                "opening_hours": "Mo-Su 09:00-21:00",
                "shop": "clothes"
            }
        },
        {
            "type": "node",
            "id": 12468465751,
            "lat": 42.8456784,
            "lon": 13.6235368,
            "timestamp": "2025-01-14T15:37:25Z",
            "version": 3,
            "changeset": 161349723,
            "user": "DnaX",
            "uid": 69259,
            "tags": {
                "addr:city": "Ascoli Piceno",
                "addr:housenumber": "52",
                "addr:postcode": "63100",
                "addr:street": "Viale del Commercio",
                "brand": "GrandVision",
                "brand:wikidata": "Q105644278",
                "check_date": "2025-01-02",
                "name": "GrandVision by Optissimo",
                "opening_hours": "Mo-Su 09:00-21:00",
                "shop": "optician"
            }
        },
        {
            "type": "node",
            "id": 12513364358,
            "lat": 43.3694106,
            "lon": 13.6921337,
            "timestamp": "2025-01-21T10:43:42Z",
            "version": 3,
            "changeset": 161595079,
            "user": "mueschel",
            "uid": 616774,
            "tags": {
                "addr:city": "Porto Potenza Picena",
                "addr:housenumber": "150",
                "addr:postcode": "62018",
                "addr:street": "Via Gioacchino Rossini",
                "check_date": "2025-01-19",
                "contact:instagram": "gl_immobiliare",
                "contact:whatsapp": "3355265696",
                "currency:XBT": "yes",
                "email": "stefano@gelimmobiliare.it",
                "name": "Impresa Edile G&L Immobiliare",
                "office": "estate_agent",
                "payment:lightning": "yes",
                "payment:lightning_contactless": "no",
                "payment:onchain": "yes",
                "phone": "+39 33 5526 5696",
                "website": "https://www.gelimmobiliare.it/"
            }
        },
        {
            "type": "node",
            "id": 12529481405,
            "lat": 42.8578795,
            "lon": 13.7097432,
            "timestamp": "2025-10-21T15:12:01Z",
            "version": 7,
            "changeset": 173588150,
            "user": "btcitnet",
            "uid": 22525435,
            "tags": {
                "addr:city": "Ascoli Piceno",
                "addr:housenumber": "106",
                "addr:postcode": "63100",
                "addr:street": "Viale dei Mutilati e Invalidi del Lavoro",
                "brand": "Calzedonia",
                "brand:wikidata": "Q1027874",
                "check_date": "2025-10-19",
                "level": "0",
                "local_ref": "18",
                "name": "Calzedonia",
                "phone": "+39 0736 895074",
                "shop": "clothes"
            }
        },
        {
            "type": "node",
            "id": 12529582965,
            "lat": 42.8576337,
            "lon": 13.7098135,
            "timestamp": "2025-03-12T11:18:20Z",
            "version": 4,
            "changeset": 163522937,
            "user": "totera",
            "uid": 123412,
            "tags": {
                "brand": "Salmoiraghi & Vigan\u00f2",
                "brand:wikidata": "Q21272314",
                "check_date": "2025-03-12",
                "level": "0",
                "local_ref": "24",
                "name": "Salmoiraghi & Vigan\u00f2",
                "phone": "+39 0736 812633",
                "shop": "optician"
            }
        },
        {
            "type": "node",
            "id": 12529673023,
            "lat": 42.8579735,
            "lon": 13.7110562,
            "timestamp": "2025-03-12T11:18:20Z",
            "version": 4,
            "changeset": 163522937,
            "user": "totera",
            "uid": 123412,
            "tags": {
                "brand": "H&M",
                "brand:wikidata": "Q188326",
                "check_date": "2025-03-12",
                "level": "0",
                "local_ref": "44;45;46;47;48",
                "name": "H&M",
                "shop": "clothes"
            }
        },
        {
            "type": "node",
            "id": 12531398282,
            "lat": 42.8576255,
            "lon": 13.7097222,
            "timestamp": "2025-10-18T17:34:04Z",
            "version": 4,
            "changeset": 173461041,
            "user": "btcitnet",
            "uid": 22525435,
            "tags": {
                "addr:city": "Castel di Lama",
                "addr:housenumber": "106/Lot 5",
                "addr:postcode": "63100",
                "addr:street": "Viale dei Mutilati e Invalidi del Lavoro",
                "brand": "Mondadori",
                "brand:wikidata": "Q85355",
                "check_date": "2025-03-12",
                "level": "1",
                "local_ref": "5bpp",
                "mobile": "+39 370 3002924",
                "name": "Mondadori",
                "opening_hours": "10:00-20:00",
                "phone": "+39 0736 812653",
                "shop": "books"
            }
        },
        {
            "type": "node",
            "id": 12632957186,
            "lat": 43.1608261,
            "lon": 13.7089557,
            "timestamp": "2025-03-03T10:06:09Z",
            "version": 2,
            "changeset": 163153935,
            "user": "Chiarant",
            "uid": 18452174,
            "tags": {
                "addr:city": "Fermo",
                "addr:housenumber": "17",
                "addr:street": "Corso Guglielmo Marconi",
                "check_date": "2025-03-01",
                "currency:XBT": "yes",
                "description": "Fornitura gas - consegna a domicilio per privati e/o aziende",
                "email": "pieronibombolegpl@gmail.com",
                "name": "Pieroni gas di Pieroni Lucio & C. snc",
                "payment:lightning": "yes",
                "payment:onchain": "yes",
                "phone": "+39 327 4562271",
                "shop": "gas",
                "website": "https://www.pieronibombolegpl.it/"
            }
        },
        {
            "type": "node",
            "id": 12649391674,
            "lat": 42.8215326,
            "lon": 13.7198381,
            "timestamp": "2025-10-22T10:16:50Z",
            "version": 2,
            "changeset": 173619892,
            "user": "btcitnet",
            "uid": 22525435,
            "tags": {
                "addr:city": "Sant'Egidio alla Vibrata",
                "addr:housenumber": "155",
                "addr:postcode": "64016",
                "addr:street": "Corso Adriatico",
                "brand": "Conad",
                "brand:wikidata": "Q639075",
                "name": "Conad",
                "shop": "supermarket"
            }
        },
        {
            "type": "node",
            "id": 12686931000,
            "lat": 43.234544,
            "lon": 13.6415154,
            "timestamp": "2025-08-27T20:49:04Z",
            "version": 2,
            "changeset": 171104159,
            "user": "Comino",
            "uid": 6794624,
            "tags": {
                "addr:city": "Montegranaro",
                "addr:housenumber": "40",
                "addr:postcode": "63812",
                "addr:street": "Via Elpidiense Sud",
                "check_date": "2025-03-21",
                "currency:XBT": "yes",
                "name": "Foresi Giuseppe",
                "payment:lightning": "yes",
                "payment:onchain": "no",
                "phone": "+39 328 7491786",
                "shop": "tobacco"
            }
        },
        {
            "type": "node",
            "id": 12709834471,
            "lat": 43.250963,
            "lon": 13.4044006,
            "timestamp": "2025-03-29T13:55:02Z",
            "version": 1,
            "changeset": 164250260,
            "user": "Robot8A",
            "uid": 393359,
            "tags": {
                "brand": "Expert",
                "brand:wikidata": "Q680990",
                "check_date": "2025-03-29",
                "name": "Expert",
                "shop": "electronics"
            }
        },
        {
            "type": "node",
            "id": 12741748360,
            "lat": 43.5224995,
            "lon": 13.5246878,
            "timestamp": "2025-10-18T17:35:22Z",
            "version": 2,
            "changeset": 173461086,
            "user": "btcitnet",
            "uid": 22525435,
            "tags": {
                "addr:city": "Camerano",
                "addr:housenumber": "17",
                "addr:postcode": "60021",
                "addr:street": "Via del Campo D'Aviazione",
                "brand": "Mondadori",
                "brand:wikidata": "Q85355",
                "check_date": "2025-04-09",
                "name": "Mondadori",
                "shop": "books"
            }
        },
        {
            "type": "node",
            "id": 13030027563,
            "lat": 42.962849,
            "lon": 13.421565,
            "timestamp": "2025-09-02T22:44:47Z",
            "version": 3,
            "changeset": 171382816,
            "user": "totera",
            "uid": 123412,
            "tags": {
                "addr:city": "Comunanza",
                "addr:housenumber": "153",
                "addr:postcode": "63087",
                "addr:street": "Viale Trieste",
                "brand": "Conad City",
                "brand:wikidata": "Q57543102",
                "contact:facebook": "ConadComunanzaViaTrieste",
                "name": "Conad City",
                "opening_hours": "Mo-Sa 08:30-13:00,16:00-20:00; Su 09:00-12:30",
                "operator": "Gesu\u00e8 Srl",
                "phone": "+39 0736 844090",
                "ref:vatin": "IT02367850449",
                "shop": "supermarket",
                "website": "https://www.conad.it/ricerca-negozi/conad-city-via-trieste-153-63087-comunanza--001828"
            }
        },
        {
            "type": "node",
            "id": 13065383775,
            "lat": 42.8888699,
            "lon": 13.9085278,
            "timestamp": "2025-09-02T07:50:21Z",
            "version": 2,
            "changeset": 171347527,
            "user": "Susymala",
            "uid": 14777719,
            "tags": {
                "addr:city": "Martinsicuro",
                "addr:housenumber": "59",
                "addr:postcode": "64014",
                "addr:street": "Via Roma",
                "brand": "Conad",
                "brand:wikidata": "Q639075",
                "contact:phone": "+39 0861 762517",
                "name": "Conad",
                "opening_hours": "Mo-Sa 08:00-20:30; Su 08:30-20:30",
                "shop": "supermarket",
                "website": "https://www.conad.it/ricerca-negozi/conad-via-roma-59-64014-martinsicuro--009517"
            }
        },
        {
            "type": "node",
            "id": 13133219453,
            "lat": 42.7922911,
            "lon": 13.6459473,
            "timestamp": "2025-10-23T14:54:21Z",
            "version": 2,
            "changeset": 173678915,
            "user": "btcitnet",
            "uid": 22525435,
            "tags": {
                "addr:city": "Villa Lempa",
                "addr:housenumber": "16",
                "addr:postcode": "64010",
                "addr:street": "Viale Piceno Aprutino",
                "brand": "Conad",
                "brand:wikidata": "Q639075",
                "name": "Conad",
                "shop": "supermarket"
            }
        },
        {
            "type": "node",
            "id": 13149527718,
            "lat": 43.4335975,
            "lon": 13.6071535,
            "timestamp": "2025-09-17T13:07:45Z",
            "version": 1,
            "changeset": 172064083,
            "user": "Chiarant",
            "uid": 18452174,
            "tags": {
                "addr:city": "Loreto",
                "addr:housenumber": "6",
                "addr:postcode": "60025",
                "addr:street": "Piazza Nazareth",
                "check_date": "2025-09-17",
                "currency:XBT": "yes",
                "healthcare": "alternative",
                "healthcare:speciality": "naturopathy",
                "name": "Giuseppina Ferrandes - Specialista Naturopata",
                "payment:lightning": "yes",
                "payment:onchain": "no",
                "phone": "+39 3396564325"
            }
        },
        {
            "type": "way",
            "id": 42208339,
            "timestamp": "2020-06-09T13:24:47Z",
            "version": 9,
            "changeset": 86410944,
            "user": "totera",
            "uid": 123412,
            "nodes": [
                525709778,
                525709785,
                525709797,
                525709513,
                525709500,
                1271135604,
                1271135782,
                2294415245,
                525709462,
                1271135591,
                1271135846,
                525709778
            ],
            "tags": {
                "addr:city": "Piediripa",
                "addr:housenumber": "22",
                "addr:street": "Strada Cluentina",
                "brand": "Trony",
                "brand:wikidata": "Q3999692",
                "brand:wikipedia": "it:Trony",
                "building": "yes",
                "description": "trony.macerata@dml-italia.com",
                "name": "Trony",
                "phone": "+39 0733 280175",
                "shop": "electronics"
            }
        },
        {
            "type": "way",
            "id": 60738957,
            "timestamp": "2025-08-12T00:44:09Z",
            "version": 9,
            "changeset": 170317399,
            "user": "totera",
            "uid": 123412,
            "nodes": [
                1364270438,
                484013707,
                760354398,
                760354363,
                760354470,
                760354479,
                760354416,
                760354379,
                760354333,
                760354449,
                1364270438
            ],
            "tags": {
                "addr:city": "Aspio Terme",
                "addr:country": "IT",
                "addr:postcode": "60021",
                "addr:street": "Via Terme dell'Aspio",
                "branch": "Ancona",
                "brand": "IKEA",
                "brand:wikidata": "Q54078",
                "brand:wikipedia": "en:IKEA",
                "building": "yes",
                "check_date": "2025-08-10",
                "name": "IKEA",
                "opening_hours": "09:30-20:00",
                "operator": "Ikea Italia Retail s.r.l.",
                "ref:vatin": "IT02992760963",
                "shop": "furniture",
                "website": "https://www.ikea.com/it/it/stores/ancona/",
                "wheelchair": "limited"
            }
        },
        {
            "type": "way",
            "id": 81249592,
            "timestamp": "2023-11-16T13:23:14Z",
            "version": 7,
            "changeset": 144089892,
            "user": "\u0110uro Ji\u0159\u00ed",
            "uid": 14617702,
            "nodes": [
                5523895781,
                946634422,
                946634425,
                5523895780,
                5523895781
            ],
            "tags": {
                "addr:city": "San Benedetto del Tronto",
                "addr:housenumber": "144",
                "addr:postcode": "63074",
                "addr:street": "Via Pasubio",
                "brand": "Decathlon",
                "brand:wikidata": "Q509349",
                "brand:wikipedia": "en:Decathlon Group",
                "building": "yes",
                "name": "Decathlon",
                "shop": "sports",
                "source:shop": "survey",
                "wheelchair": "yes"
            }
        },
        {
            "type": "way",
            "id": 117554574,
            "timestamp": "2025-10-25T17:18:38Z",
            "version": 10,
            "changeset": 173765716,
            "user": "btcitnet",
            "uid": 22525435,
            "nodes": [
                1324092985,
                1324093218,
                1879049665,
                1324092714,
                1879049663,
                1324093441,
                1879049650,
                1324093042,
                1879049628,
                1879049625,
                1324092572,
                1324092247,
                1324093157,
                1324092669,
                1324092325,
                1324093269,
                1879049598,
                1324092779,
                1324092414,
                1324093365,
                1324092944,
                1324092505,
                1324092985
            ],
            "tags": {
                "addr:city": "Corridonia",
                "addr:direction": "W",
                "addr:milestone": "85.103",
                "addr:postcode": "62014",
                "addr:street": "Strada Statale 77 della Val di Chienti",
                "addr:village": "Colbuccaro",
                "amenity": "fuel",
                "brand": "Tamoil",
                "brand:wikidata": "Q706793",
                "brand:wikipedia": "en:Tamoil",
                "contact:phone": "+39 0733 201924",
                "fuel:cng": "yes",
                "fuel:diesel": "yes",
                "fuel:lpg": "yes",
                "fuel:octane_95": "yes",
                "name": "Tamoil",
                "operator": "T.D.M. S.R.L.",
                "ref:mise": "33370",
                "shop": "convenience",
                "surface": "asphalt"
            }
        },
        {
            "type": "way",
            "id": 195306831,
            "timestamp": "2022-07-26T22:15:23Z",
            "version": 2,
            "changeset": 124114967,
            "user": "Yacine Boussoufa",
            "uid": 10341131,
            "nodes": [
                2057757596,
                254675943,
                9913451805,
                9913451806,
                2057757585,
                2057757589,
                2057757611,
                2057757633,
                9913451801,
                9913451802,
                2057757618,
                9913451803,
                9913451804,
                2057757607,
                2057757596
            ],
            "tags": {
                "addr:city": "Fermo",
                "addr:milestone": "1.6",
                "addr:postcode": "63900",
                "addr:street": "Strada Provinciale 157 Girola",
                "amenity": "fuel",
                "brand": "Tamoil",
                "brand:wikidata": "Q706793",
                "brand:wikipedia": "en:Tamoil",
                "fuel:diesel": "yes",
                "fuel:lpg": "yes",
                "fuel:octane_95": "yes",
                "name": "Tamoil",
                "operator": "Fermana Carburanti S.R.L.",
                "ref:mise": "28798"
            }
        },
        {
            "type": "way",
            "id": 221595055,
            "timestamp": "2024-05-08T08:21:20Z",
            "version": 6,
            "changeset": 151042444,
            "user": "Flynn_",
            "uid": 21081459,
            "nodes": [
                2306290625,
                2306290635,
                2306290633,
                2306290621,
                2893569394,
                2893569397,
                2306290625
            ],
            "tags": {
                "addr:city": "Corridonia",
                "addr:country": "IT",
                "addr:postcode": "62014",
                "addr:street": "Viale Trento",
                "amenity": "fuel",
                "brand": "Tamoil",
                "brand:wikidata": "Q706793",
                "contact:phone": "+39 0733 437204",
                "fuel:diesel": "yes",
                "fuel:octane_95": "yes",
                "name": "Tamoil",
                "operator": "Cetraro Lorella",
                "ref:mise": "48686"
            }
        },
        {
            "type": "way",
            "id": 238292470,
            "timestamp": "2024-05-20T16:51:20Z",
            "version": 12,
            "changeset": 151590441,
            "user": "totera",
            "uid": 123412,
            "nodes": [
                2461397360,
                2461397355,
                2461397350,
                2461397357,
                2461397360
            ],
            "tags": {
                "addr:city": "Monteprandone",
                "addr:direction": "N",
                "addr:milestone": "228.49",
                "addr:postcode": "63076",
                "addr:street": "Strada Statale 4 radd Via Salaria",
                "amenity": "fuel",
                "brand": "Tamoil",
                "brand:wikidata": "Q706793",
                "building": "yes",
                "fuel:diesel": "yes",
                "fuel:octane_95": "yes",
                "name": "Trioil",
                "operator": "Acema S.p.A.",
                "ref:mise": "54005",
                "self_service": "yes"
            }
        },
        {
            "type": "way",
            "id": 245784052,
            "timestamp": "2024-11-02T10:44:24Z",
            "version": 7,
            "changeset": 158652584,
            "user": "mircozorzo",
            "uid": 224342,
            "nodes": [
                2529093852,
                2529093853,
                2529093854,
                2529093855,
                2529093852
            ],
            "tags": {
                "addr:city": "San Benedetto del Tronto",
                "addr:housenumber": "2",
                "addr:postcode": "63074",
                "addr:street": "Piazza Enzo Tortora",
                "brand": "Conad",
                "brand:wikidata": "Q639075",
                "brand:wikipedia": "it:Conad",
                "building": "retail",
                "name": "Conad",
                "operator": "Conad",
                "phone": "+39 0735 781200;+39 324 8999840",
                "shop": "supermarket"
            }
        },
        {
            "type": "way",
            "id": 320379957,
            "timestamp": "2025-10-29T08:48:33Z",
            "version": 3,
            "changeset": 173917333,
            "user": "damianeue",
            "uid": 10124288,
            "nodes": [
                3268905507,
                3268905500,
                3268905505,
                3268905512,
                3268905507
            ],
            "tags": {
                "brand": "Intimissimi",
                "brand:wikidata": "Q305404",
                "brand:wikipedia": "en:Intimissimi",
                "buildingpart": "room",
                "clothes": "underwear",
                "indoor": "room",
                "level": "0",
                "name": "Intimissimi",
                "ref": "21",
                "room": "shop",
                "shop": "clothes"
            }
        },
        {
            "type": "way",
            "id": 320379961,
            "timestamp": "2025-10-29T08:48:33Z",
            "version": 3,
            "changeset": 173917333,
            "user": "damianeue",
            "uid": 10124288,
            "nodes": [
                3268905509,
                3268905506,
                3268905496,
                3268905498,
                3268905502,
                3268905509
            ],
            "tags": {
                "brand": "United Colors of Benetton",
                "brand:wikidata": "Q817139",
                "buildingpart": "room",
                "indoor": "room",
                "level": "0",
                "name": "United Colors of Benetton",
                "ref": "27",
                "room": "shop",
                "shop": "clothes",
                "short_name": "Benetton"
            }
        },
        {
            "type": "way",
            "id": 320383970,
            "timestamp": "2025-10-29T08:48:33Z",
            "version": 5,
            "changeset": 173917333,
            "user": "damianeue",
            "uid": 10124288,
            "nodes": [
                3040020856,
                3268946009,
                3268946008,
                3268946002,
                520737147,
                3040020851,
                3040020856
            ],
            "tags": {
                "brand": "Tezenis",
                "brand:wikidata": "Q28056374",
                "buildingpart": "room",
                "clothes": "women;underwear;swimwear;men;children",
                "fax": "+39 0733 292163",
                "indoor": "room",
                "level": "0",
                "name": "Tezenis",
                "phone": "+39 0733 292163",
                "ref": "20",
                "room": "shop",
                "shop": "clothes",
                "website": "https://www.tezenis.com/"
            }
        },
        {
            "type": "way",
            "id": 320383975,
            "timestamp": "2025-10-23T19:47:30Z",
            "version": 4,
            "changeset": 173690322,
            "user": "btcitnet",
            "uid": 22525435,
            "nodes": [
                3268945964,
                3268945963,
                3268945965,
                3268945968,
                3268945964
            ],
            "tags": {
                "addr:city": "Piediripa",
                "addr:housenumber": "31",
                "addr:postcode": "62100",
                "addr:street": "Via Giambattista Velluti",
                "brand": "Bottega Verde",
                "brand:wikidata": "Q894870",
                "buildingpart": "room",
                "level": "0",
                "name": "Bottega Verde",
                "phone": "+39 3316868398",
                "ref": "35",
                "room": "shop",
                "shop": "cosmetics"
            }
        },
        {
            "type": "way",
            "id": 320415268,
            "timestamp": "2025-10-29T08:48:33Z",
            "version": 4,
            "changeset": 173917333,
            "user": "damianeue",
            "uid": 10124288,
            "nodes": [
                575319156,
                3269287203,
                3269287190,
                3269287181,
                3269287173,
                3269287164,
                3269286358,
                520737090,
                3269286359,
                3269287162,
                3269287166,
                3269287165,
                3269287174,
                3269287183,
                3269287176,
                3269287189,
                3269287193,
                575319156
            ],
            "tags": {
                "addr:city": "Piediripa",
                "addr:country": "IT",
                "addr:postcode": "62100",
                "addr:street": "Via Giambattista Velluti",
                "brand": "Unieuro",
                "brand:it": "Unieuro",
                "brand:wikidata": "Q4004687",
                "buildingpart": "room",
                "indoor": "room",
                "level": "0",
                "name": "Unieuro",
                "phone": "+39 0733 408133",
                "ref": "1",
                "room": "shop",
                "shop": "electronics"
            }
        },
        {
            "type": "way",
            "id": 320415284,
            "timestamp": "2025-10-29T08:48:33Z",
            "version": 6,
            "changeset": 173917333,
            "user": "damianeue",
            "uid": 10124288,
            "nodes": [
                3269287204,
                3269287214,
                3269287222,
                3269287218,
                3269287212,
                3269287204
            ],
            "tags": {
                "addr:city": "Piediripa",
                "addr:housenumber": "31",
                "addr:postcode": "62100",
                "addr:street": "Via Giambattista Velluti",
                "brand": "Kasanova",
                "brand:wikidata": "Q116214505",
                "buildingpart": "room",
                "indoor": "room",
                "level": "0",
                "name": "Kasanova",
                "ref": "11",
                "room": "shop",
                "shop": "houseware"
            }
        },
        {
            "type": "way",
            "id": 320415289,
            "timestamp": "2025-10-29T08:48:33Z",
            "version": 4,
            "changeset": 173917333,
            "user": "damianeue",
            "uid": 10124288,
            "nodes": [
                3269287232,
                3269287236,
                3269287239,
                3269287241,
                3269287240,
                3269287237,
                575319125,
                3269287234,
                3269287233,
                3269287235,
                3269287232
            ],
            "tags": {
                "brand": "Calzedonia",
                "brand:wikidata": "Q1027874",
                "buildingpart": "room",
                "indoor": "room",
                "level": "0",
                "name": "Calzedonia",
                "ref": "14",
                "room": "shop",
                "shop": "clothes"
            }
        },
        {
            "type": "way",
            "id": 435763140,
            "timestamp": "2022-11-03T09:35:01Z",
            "version": 6,
            "changeset": 128428569,
            "user": "totera",
            "uid": 123412,
            "nodes": [
                4336592331,
                4336592332,
                4336592333,
                4336592334,
                4336592335,
                4336592336,
                4336592331
            ],
            "tags": {
                "addr:city": "Sirolo",
                "addr:housenumber": "1",
                "addr:postcode": "60020",
                "addr:street": "Via Carlo Maratta",
                "amenity": "fuel",
                "brand": "Tamoil",
                "brand:wikidata": "Q706793",
                "brand:wikipedia": "en:Tamoil",
                "fuel:diesel": "yes",
                "fuel:octane_95": "yes",
                "name": "Tamoil Sirolo",
                "operator": "Babini Sauro",
                "ref:mise": "24436"
            }
        },
        {
            "type": "way",
            "id": 661211218,
            "timestamp": "2024-01-12T20:19:46Z",
            "version": 2,
            "changeset": 146194405,
            "user": "f_gonella",
            "uid": 8716397,
            "nodes": [
                6190369808,
                6190369809,
                6190369810,
                6190369811,
                6190369812,
                6190369813,
                6190369814,
                6190369815,
                6190369808
            ],
            "tags": {
                "brand": "Conad",
                "brand:wikidata": "Q639075",
                "brand:wikipedia": "en:Simply Market",
                "building": "yes",
                "name": "Conad",
                "shop": "supermarket"
            }
        },
        {
            "type": "way",
            "id": 705731126,
            "timestamp": "2024-11-08T16:05:17Z",
            "version": 4,
            "changeset": 158901729,
            "user": "Flight777",
            "uid": 9925732,
            "nodes": [
                2519555046,
                6631212885,
                6631169084,
                6631169083,
                2519555046
            ],
            "tags": {
                "brand": "Conad",
                "brand:wikidata": "Q639075",
                "brand:wikipedia": "en:Simply Market",
                "building": "retail",
                "name": "Conad",
                "shop": "supermarket"
            }
        },
        {
            "type": "way",
            "id": 802442484,
            "timestamp": "2020-05-11T09:31:58Z",
            "version": 1,
            "changeset": 85014455,
            "user": "mascalzone67",
            "uid": 1861652,
            "nodes": [
                7506093509,
                7506093510,
                7506093511,
                7506093512,
                7506093509
            ],
            "tags": {
                "addr:city": "Porto Sant'Elpidio",
                "addr:housenumber": "10",
                "addr:postcode": "63821",
                "addr:street": "Via Caserta",
                "brand": "Conad",
                "brand:wikidata": "Q639075",
                "brand:wikipedia": "it:Conad",
                "building": "retail",
                "email": "psantelpidio_cheope1166@di-net.it",
                "name": "Conad",
                "opening_hours": "Mo-Sa 08:30-20:00; Su 09:00-13:00",
                "operator": "Conad",
                "payment:bancomat": "yes",
                "payment:cash": "yes",
                "payment:credit_cards": "yes",
                "phone": "+39 0734 877371",
                "shop": "supermarket",
                "website": "https://www.conad.it/ricerca-negozi/negozio.007668.html"
            }
        },
        {
            "type": "way",
            "id": 933635497,
            "timestamp": "2021-04-21T21:25:02Z",
            "version": 1,
            "changeset": 103365002,
            "user": "A_SP",
            "uid": 12176569,
            "nodes": [
                8653508976,
                8653508977,
                8653508978,
                8653508979,
                8653508976
            ],
            "tags": {
                "brand": "Conad",
                "brand:wikidata": "Q639075",
                "brand:wikipedia": "it:Conad",
                "building": "yes",
                "name": "Conad",
                "opening_hours": "Mo-Su 08:30-20:30",
                "shop": "supermarket"
            }
        },
        {
            "type": "way",
            "id": 1087041166,
            "timestamp": "2023-04-26T14:28:12Z",
            "version": 4,
            "changeset": 135389876,
            "user": "_PhilB_",
            "uid": 11554099,
            "nodes": [
                9960012222,
                9960012223,
                10844087162,
                9960012224,
                9960012225,
                10802172632,
                10802172630,
                9960012222
            ],
            "tags": {
                "brand": "Spar",
                "brand:wikidata": "Q610492",
                "building": "yes",
                "name": "Despar",
                "opening_hours": "Mo-Sa 08:00-13:00,16:00-19:30",
                "operator": "D'Anesio Antonio",
                "shop": "convenience"
            }
        },
        {
            "type": "way",
            "id": 1096729147,
            "timestamp": "2023-01-15T02:24:13Z",
            "version": 3,
            "changeset": 131284609,
            "user": "totera",
            "uid": 123412,
            "nodes": [
                10042860899,
                10036631392,
                10042880766,
                10042880757,
                10042880754,
                10042880756,
                10042880759,
                10042880791,
                10042880790,
                10042880798,
                10042880797,
                10042880796,
                10042880801,
                10035152619,
                10035152620,
                10035152621,
                10042860892,
                10042860894,
                10042860896,
                10042860897,
                10042860898,
                10042860899
            ],
            "tags": {
                "brand": "OVS",
                "brand:wikidata": "Q2042514",
                "clothes": "women;men;children",
                "indoor": "room",
                "level": "0",
                "name": "OVS",
                "opening_hours": "Mo-Su 09:00-21:00",
                "operator": "Ovs c/o Val Vibrata",
                "phone": "+39 0861 753407",
                "shop": "clothes"
            }
        },
        {
            "type": "way",
            "id": 1096729150,
            "timestamp": "2023-01-15T02:24:13Z",
            "version": 3,
            "changeset": 131284609,
            "user": "totera",
            "uid": 123412,
            "nodes": [
                10042860899,
                10042860898,
                10042860897,
                10042860896,
                10042860895,
                10042860899
            ],
            "tags": {
                "brand": "Calzedonia",
                "brand:wikidata": "Q1027874",
                "clothes": "underwear;women",
                "indoor": "room",
                "level": "0",
                "name": "Calzedonia",
                "opening_hours": "Mo-Su 09:00-21:00",
                "operator": "Calzedonia c/o Val Vibrata",
                "phone": "+39 0861 753565",
                "shop": "clothes",
                "temporary": "yes"
            }
        },
        {
            "type": "way",
            "id": 1096729153,
            "timestamp": "2025-01-28T10:35:03Z",
            "version": 6,
            "changeset": 161852023,
            "user": "damianeue",
            "uid": 10124288,
            "nodes": [
                2301179654,
                10042860904,
                10035113999,
                10035114000,
                10035114001,
                10035114002,
                10035114003,
                2301179698,
                2301179568,
                10035152632,
                10035152631,
                2301179660,
                2301179640,
                2301179680,
                2301179654
            ],
            "tags": {
                "brand": "MediaWorld",
                "brand:wikidata": "Q2381223",
                "indoor": "room",
                "level": "0",
                "name": "MediaWorld",
                "opening_hours": "Mo-Su 09:00-21:00",
                "operator": "MediaWorld c/o Val Vibrata",
                "phone": "+39 0861 753 9111",
                "shop": "electronics"
            }
        },
        {
            "type": "way",
            "id": 1096729156,
            "timestamp": "2023-01-15T02:24:13Z",
            "version": 4,
            "changeset": 131284609,
            "user": "totera",
            "uid": 123412,
            "nodes": [
                10042880773,
                10042880774,
                1657606131,
                10042860911,
                2301179556,
                10042860915,
                10042860914,
                10042860913,
                10042880717,
                10042880718,
                10042880719,
                10042860908,
                10042860907,
                10042880773
            ],
            "tags": {
                "addr:city": "Colonnella",
                "addr:postcode": "64010",
                "addr:street": "Strada Provinciale 3 di Colonnella",
                "brand": "Conad",
                "brand:wikidata": "Q639075",
                "indoor": "area",
                "level": "0",
                "name": "Conad",
                "opening_hours": "Mo-Fr 09:00-20:00; Sa 09:00-19:00; Su 09:00-13:00",
                "operator": "Conad",
                "payment:bancomat": "yes",
                "payment:cash": "yes",
                "payment:credit_cards": "yes",
                "phone": "+39 0861 7991",
                "shop": "supermarket",
                "website": "https://www.conad.it/ricerca-negozi/negozio.009720.html",
                "wheelchair": "yes"
            }
        },
        {
            "type": "way",
            "id": 1096729159,
            "timestamp": "2022-10-17T10:14:50Z",
            "version": 4,
            "changeset": 127662291,
            "user": "mueschel",
            "uid": 616774,
            "nodes": [
                10042880726,
                10042880725,
                2301179564,
                10042880735,
                10042880723,
                10042880722,
                10043178212,
                10043178205,
                10042880719,
                10042880718,
                10042880717,
                10042880726
            ],
            "tags": {
                "brand": "Upim",
                "brand:wikidata": "Q1414836",
                "indoor": "area",
                "level": "0",
                "name": "Upim",
                "opening_hours": "Mo-Su 09:00-21:00",
                "phone": "+39 0861 195 8110",
                "shop": "department_store"
            }
        },
        {
            "type": "way",
            "id": 1096729169,
            "timestamp": "2023-01-15T02:24:13Z",
            "version": 3,
            "changeset": 131284609,
            "user": "totera",
            "uid": 123412,
            "nodes": [
                10042880767,
                10042880755,
                10042880754,
                10042880756,
                10042880767
            ],
            "tags": {
                "brand": "Intimissimi",
                "brand:wikidata": "Q305404",
                "clothes": "underwear",
                "indoor": "room",
                "level": "0",
                "name": "Intimissimi",
                "opening_hours": "Mo-Su 09:00-21:00",
                "operator": "Intimissimi c/o Val Vibrata",
                "phone": "+39 0861 753580",
                "shop": "clothes"
            }
        },
        {
            "type": "way",
            "id": 1096729175,
            "timestamp": "2025-10-23T08:47:58Z",
            "version": 7,
            "changeset": 173662206,
            "user": "btcitnet",
            "uid": 22525435,
            "nodes": [
                10042880778,
                10042880786,
                10042880777,
                2301179675,
                2301179651,
                10035114010,
                10035114009,
                10035114011,
                10042880778
            ],
            "tags": {
                "addr:city": "Colonnella",
                "addr:postcode": "64013",
                "addr:street": "Via Gabbiano",
                "brand": "Kasanova",
                "brand:wikidata": "Q116214505",
                "indoor": "room",
                "level": "0",
                "name": "Kasanova",
                "opening_hours": "Mo-Su 09:00-21:00",
                "operator": "Co.import C/o Val Vibrata",
                "phone": "+39 0861 712888",
                "shop": "houseware"
            }
        },
        {
            "type": "way",
            "id": 1096729182,
            "timestamp": "2025-01-14T12:23:08Z",
            "version": 5,
            "changeset": 161343180,
            "user": "DnaX",
            "uid": 69259,
            "nodes": [
                10042880821,
                10036631397,
                10043178210,
                10042880800,
                10042880799,
                10042880798,
                10042880797,
                10042880796,
                10042880821
            ],
            "tags": {
                "brand": "GrandVision",
                "brand:wikidata": "Q105644278",
                "indoor": "room",
                "level": "0",
                "name": "GrandVision",
                "opening_hours": "Mo-Su 09:00-21:00",
                "operator": "GrandVision by Avanzi c/o Val Vibrata",
                "phone": "+39 0861 753582",
                "shop": "optician"
            }
        },
        {
            "type": "way",
            "id": 1096729200,
            "timestamp": "2023-01-15T02:24:13Z",
            "version": 3,
            "changeset": 131284609,
            "user": "totera",
            "uid": 123412,
            "nodes": [
                10042880869,
                10036631380,
                10042880847,
                10042880846,
                10035152626,
                10042880849,
                10042880850,
                10042880848,
                10042880869
            ],
            "tags": {
                "brand": "Mondadori",
                "brand:wikidata": "Q85355",
                "indoor": "room",
                "level": "0",
                "name": "Mondadori",
                "opening_hours": "Mo-Su 09:00-21:00",
                "operator": "Mondadori Bookstore C/o Val Vibrata",
                "phone": "+39 0861 710318",
                "shop": "books"
            }
        },
        {
            "type": "way",
            "id": 1096729202,
            "timestamp": "2025-10-25T20:52:22Z",
            "version": 4,
            "changeset": 173772200,
            "user": "btcitnet",
            "uid": 22525435,
            "nodes": [
                10042880851,
                10042880870,
                10042880850,
                10042880849,
                10042880852,
                10042880851
            ],
            "tags": {
                "addr:city": "Colonnella",
                "addr:hamlet": "Riomoro",
                "addr:housenumber": "210",
                "addr:postcode": "64010",
                "addr:street": "Strada Provinciale 3 di Colonnella",
                "addr:village": "Colonnella",
                "brand": "Chicco",
                "brand:wikidata": "Q27897515",
                "indoor": "room",
                "level": "0",
                "name": "Chicco",
                "opening_hours": "Mo-Su 09:00-21:00",
                "operator": "Chicco c/o Val Vibrata",
                "phone": "+39 0861 753224",
                "shop": "baby_goods"
            }
        },
        {
            "type": "way",
            "id": 1096729203,
            "timestamp": "2025-10-25T15:26:51Z",
            "version": 4,
            "changeset": 173761062,
            "user": "btcitnet",
            "uid": 22525435,
            "nodes": [
                10042880852,
                10042880851,
                10042880854,
                10042880853,
                10042880857,
                10042880856,
                10042880855,
                10042880862,
                10042880863,
                10035152622,
                10042880841,
                10042880852
            ],
            "tags": {
                "addr:city": "Colonnella",
                "addr:hamlet": "Prosperi",
                "addr:postcode": "64014",
                "addr:street": "Strada Provinciale 3 di Colonnella",
                "addr:unit": "20",
                "addr:village": "Colonnella",
                "brand": "Foot Locker",
                "brand:wikidata": "Q63335",
                "indoor": "room",
                "level": "0",
                "name": "Foot Locker",
                "opening_hours": "Mo-Su 09:00-21:00",
                "operator": "Foot Locker c/o Val Vibrata",
                "phone": "+39 0861 193 1106",
                "shop": "shoes"
            }
        },
        {
            "type": "way",
            "id": 1096729206,
            "timestamp": "2025-01-28T10:35:03Z",
            "version": 4,
            "changeset": 161852023,
            "user": "damianeue",
            "uid": 10124288,
            "nodes": [
                10042880862,
                10042880855,
                10042880860,
                10042880859,
                10042880861,
                10042880862
            ],
            "tags": {
                "brand": "Tezenis",
                "brand:wikidata": "Q28056374",
                "clothes": "women;underwear;swimwear;men;children",
                "indoor": "room",
                "level": "0",
                "name": "Tezenis",
                "opening_hours": "Mo-Su 09:00-21:00",
                "phone": "+39 348 3654472",
                "shop": "clothes",
                "temporary": "yes"
            }
        },
        {
            "type": "way",
            "id": 1096729215,
            "timestamp": "2023-01-15T02:24:13Z",
            "version": 3,
            "changeset": 131284609,
            "user": "totera",
            "uid": 123412,
            "nodes": [
                10042880889,
                10035114006,
                10035114005,
                10042860901,
                10042880892,
                10042880890,
                10042880889
            ],
            "tags": {
                "brand": "Salmoiraghi & Vigan\u00f2",
                "brand:wikidata": "Q21272314",
                "indoor": "room",
                "level": "0",
                "name": "Salmoiraghi & Vigan\u00f2",
                "opening_hours": "Mo-Su 09:00-21:00",
                "phone": "+39 0861 714576",
                "shop": "optician",
                "temporary": "yes"
            }
        },
        {
            "type": "way",
            "id": 1096729216,
            "timestamp": "2025-10-23T19:52:35Z",
            "version": 5,
            "changeset": 173690488,
            "user": "btcitnet",
            "uid": 22525435,
            "nodes": [
                10042880892,
                10042880890,
                10042880889,
                10036631363,
                10042880892
            ],
            "tags": {
                "addr:city": "Colonnella",
                "addr:postcode": "64014",
                "addr:street": "Strada Provinciale 3 di Colonnella",
                "brand": "Bottega Verde",
                "brand:wikidata": "Q894870",
                "indoor": "room",
                "level": "0",
                "name": "Bottega Verde",
                "opening_hours": "Mo-Su 09:00-21:00",
                "phone": "+39 0861 714465",
                "shop": "cosmetics"
            }
        },
        {
            "type": "way",
            "id": 1207229689,
            "timestamp": "2025-09-28T13:20:20Z",
            "version": 7,
            "changeset": 172565555,
            "user": "jeawrong",
            "uid": 179966,
            "nodes": [
                11186257655,
                11186257656,
                11186258339,
                11186257846,
                11186257845,
                11186257659,
                11186258637,
                11186257844,
                11186257753,
                11186258050,
                9362270829,
                9001964282,
                11186257739,
                11186257655
            ],
            "tags": {
                "brand": "H&M",
                "brand:wikidata": "Q188326",
                "indoor": "room",
                "level": "0",
                "name": "H&M",
                "opening_hours": "Mo-Su,PH 09:00-21:00",
                "shop": "clothes"
            }
        },
        {
            "type": "way",
            "id": 1207229694,
            "timestamp": "2025-09-28T13:23:39Z",
            "version": 4,
            "changeset": 172565555,
            "user": "jeawrong",
            "uid": 179966,
            "nodes": [
                11186257761,
                11186257660,
                11186257662,
                11186258074,
                11186257762,
                11186257761
            ],
            "tags": {
                "brand": "Tezenis",
                "brand:wikidata": "Q28056374",
                "indoor": "room",
                "level": "0",
                "name": "Tezenis",
                "opening_hours": "Mo-Su,PH 09:00-21:00",
                "shop": "clothes"
            }
        },
        {
            "type": "way",
            "id": 1207229721,
            "timestamp": "2023-09-14T10:19:08Z",
            "version": 4,
            "changeset": 141250123,
            "user": "Map47",
            "uid": 11976,
            "nodes": [
                11186258061,
                11186258039,
                9882962391,
                11186258064,
                9470145033,
                11186258060,
                11186258061
            ],
            "tags": {
                "brand": "Intimissimi",
                "brand:wikidata": "Q305404",
                "clothes": "underwear",
                "indoor": "room",
                "level": "0",
                "name": "Intimissimi",
                "shop": "clothes"
            }
        },
        {
            "type": "way",
            "id": 1207229722,
            "timestamp": "2023-09-14T10:19:08Z",
            "version": 4,
            "changeset": 141250123,
            "user": "Map47",
            "uid": 11976,
            "nodes": [
                11186258039,
                11186257777,
                11186257643,
                11186258064,
                9882962391,
                11186258039
            ],
            "tags": {
                "brand": "L'Erbolario",
                "brand:wikidata": "Q116304294",
                "indoor": "room",
                "level": "0",
                "name": "L'Erbolario",
                "shop": "herbalist"
            }
        },
        {
            "type": "way",
            "id": 1207229787,
            "timestamp": "2025-10-23T09:42:30Z",
            "version": 5,
            "changeset": 173664482,
            "user": "btcitnet",
            "uid": 22525435,
            "nodes": [
                11186258439,
                11186258740,
                11186257948,
                11186257851,
                11186257955,
                11186258439
            ],
            "tags": {
                "addr:city": "Civitanova Marche",
                "addr:postcode": "62012",
                "addr:street": "Via San Costantino",
                "brand": "Kasanova",
                "brand:wikidata": "Q116214505",
                "indoor": "room",
                "level": "0",
                "name": "Kasanova",
                "opening_hours": "Mo-Su,PH 09:00-21:00",
                "shop": "houseware"
            }
        },
        {
            "type": "way",
            "id": 1207229792,
            "timestamp": "2025-09-28T13:03:57Z",
            "version": 4,
            "changeset": 172565555,
            "user": "jeawrong",
            "uid": 179966,
            "nodes": [
                11186257785,
                11186257856,
                11186257855,
                11186257787,
                11186257677,
                11186257785
            ],
            "tags": {
                "brand": "Calzedonia",
                "brand:wikidata": "Q1027874",
                "indoor": "room",
                "level": "0",
                "name": "Calzedonia",
                "opening_hours": "Mo-Su,PH 09:00-21:00",
                "shop": "clothes"
            }
        },
        {
            "type": "way",
            "id": 1207229799,
            "timestamp": "2025-09-28T12:55:13Z",
            "version": 4,
            "changeset": 172565555,
            "user": "jeawrong",
            "uid": 179966,
            "nodes": [
                11186258343,
                7991359757,
                11186257958,
                11186258937,
                11186258069,
                11186257793,
                11186257681,
                11186258343
            ],
            "tags": {
                "brand": "Guess",
                "brand:wikidata": "Q2470307",
                "indoor": "room",
                "level": "0",
                "name": "Guess",
                "opening_hours": "Mo-Su,PH 09:00-21:00",
                "shop": "clothes"
            }
        },
        {
            "type": "way",
            "id": 1207229812,
            "timestamp": "2025-01-14T15:09:35Z",
            "version": 5,
            "changeset": 161348838,
            "user": "DnaX",
            "uid": 69259,
            "nodes": [
                11186257794,
                11186257687,
                11186257801,
                11186257686,
                11186257688,
                11186257794
            ],
            "tags": {
                "brand": "GrandVision",
                "brand:wikidata": "Q105644278",
                "indoor": "room",
                "level": "0",
                "name": "GrandVision",
                "shop": "optician"
            }
        },
        {
            "type": "way",
            "id": 1221957686,
            "timestamp": "2023-11-08T10:24:23Z",
            "version": 1,
            "changeset": 143772989,
            "user": "damianeue",
            "uid": 10124288,
            "nodes": [
                11332725728,
                11332725727,
                11332725726,
                11332725725,
                11332725728
            ],
            "tags": {
                "brand": "Brico",
                "brand:wikidata": "Q2510786",
                "building": "commercial",
                "name": "Brico",
                "shop": "doityourself"
            }
        },
        {
            "type": "way",
            "id": 1295175951,
            "timestamp": "2024-08-28T17:35:56Z",
            "version": 2,
            "changeset": 155892533,
            "user": "SekeRob",
            "uid": 1940323,
            "nodes": [
                12002245355,
                12002245356,
                12002245359,
                12002245357,
                12002245358,
                12002245355
            ],
            "tags": {
                "addr:city": "Mosciano Sant'Angelo",
                "addr:housenumber": "42",
                "addr:postcode": "64023",
                "addr:street": "Via Milano",
                "brand": "Conad",
                "brand:wikidata": "Q639075",
                "building": "supermarket",
                "contact:phone": "+39 085 422 4822",
                "name": "Conad",
                "shop": "supermarket"
            }
        },
        {
            "type": "way",
            "id": 1305391408,
            "timestamp": "2025-07-09T23:43:22Z",
            "version": 5,
            "changeset": 168718309,
            "user": "totera",
            "uid": 123412,
            "nodes": [
                12090305967,
                12090305968,
                12090330569,
                12090330570,
                12090330571,
                12090305967
            ],
            "tags": {
                "addr:city": "Trodica",
                "addr:housenumber": "57",
                "addr:postcode": "62010",
                "addr:street": "Via Michelangelo",
                "amenity": "fuel",
                "brand": "Tamoil",
                "brand:wikidata": "Q706793",
                "fuel:diesel": "yes",
                "fuel:octane_95": "yes",
                "name": "Tamoil",
                "operator": "Gattari Enrica",
                "ref:mise": "55972",
                "self_service": "yes"
            }
        },
        {
            "type": "way",
            "id": 1314244277,
            "timestamp": "2025-06-23T13:15:26Z",
            "version": 2,
            "changeset": 168003370,
            "user": "f_gonella",
            "uid": 8716397,
            "nodes": [
                12164361627,
                12164361628,
                12164361629,
                12164361630,
                12164361627
            ],
            "tags": {
                "brand": "Conad",
                "brand:wikidata": "Q639075",
                "building": "retail",
                "name": "Conad",
                "shop": "supermarket"
            }
        },
        {
            "type": "way",
            "id": 1314268511,
            "timestamp": "2024-09-09T00:00:42Z",
            "version": 1,
            "changeset": 156372374,
            "user": "Assadermanassa",
            "uid": 17445709,
            "nodes": [
                12164591162,
                12164591163,
                12164591164,
                12164591165,
                12164591166,
                12164591167,
                12164591168,
                12164591169,
                12164591170,
                12164591171,
                12164591172,
                12164591173,
                12164591162
            ],
            "tags": {
                "amenity": "fuel",
                "brand": "Tamoil",
                "brand:wikidata": "Q706793",
                "name": "Tamoil"
            }
        },
        {
            "type": "relation",
            "id": 3198899,
            "timestamp": "2024-05-05T21:04:01Z",
            "version": 3,
            "changeset": 150939213,
            "user": "DnaX",
            "uid": 69259,
            "members": [
                {
                    "type": "way",
                    "ref": 237384539,
                    "role": "outer"
                },
                {
                    "type": "way",
                    "ref": 237384540,
                    "role": "outer"
                }
            ],
            "tags": {
                "brand": "Conad",
                "brand:wikidata": "Q639075",
                "building": "yes",
                "name": "Conad",
                "shop": "supermarket",
                "type": "multipolygon"
            }
        }
    ],
    "telegram": []
}