{
    "id": "ss-cagliari",
    "name": "Satoshi Spritz Cagliari",
    "lng": 39.21721,
    "lat": 9.11335,
    "localita": "Cagliari",
    "idlocalita": "cagliari",
    "telegram_weburl": "https://web.telegram.org/a/#-1001802453419",
    "telegram_app": "https://t.me/SatoshiSpritzCagliari",
    "telegram_members": 117.0,
    "network": "satoshispritz",
    "poi": [
        {
            "type": "node",
            "id": 226917920,
            "lat": 39.234048,
            "lon": 9.13753,
            "timestamp": "2025-04-20T08:54:16Z",
            "version": 7,
            "changeset": 165182899,
            "user": "btcitnet",
            "uid": 22525435,
            "tags": {
                "addr:city": "Cagliari",
                "addr:postcode": "09131",
                "addr:street": "Via Guglielmo Marconi",
                "amenity": "fuel",
                "brand": "Q8",
                "brand:wikidata": "Q1634762",
                "brand:wikipedia": "en:Kuwait Petroleum Corporation",
                "compressed_air": "yes",
                "name": "Q8",
                "operator": "Q8",
                "ref:mise": "6692"
            }
        },
        {
            "type": "node",
            "id": 227562709,
            "lat": 39.263315,
            "lon": 9.172779,
            "timestamp": "2025-09-29T20:36:12Z",
            "version": 6,
            "changeset": 172631469,
            "user": "btcitnet",
            "uid": 22525435,
            "tags": {
                "addr:city": "Selargius",
                "addr:housenumber": "9",
                "addr:postcode": "09047",
                "addr:street": "Strada Statale 554 Cagliaritana",
                "amenity": "fuel",
                "brand": "Q8",
                "brand:wikidata": "Q1634762",
                "brand:wikipedia": "en:Kuwait Petroleum Corporation",
                "fixme": "operator",
                "name": "Q8",
                "operator": "Impianto di Cristiano Dessalvi & Pietrangelo Fanti S.N.C. con Sigla Dessalvi & Fanti S.N.C.",
                "ref:mise": "8410"
            }
        },
        {
            "type": "node",
            "id": 227590484,
            "lat": 39.2284012,
            "lon": 9.1320594,
            "timestamp": "2025-09-30T10:00:24Z",
            "version": 7,
            "changeset": 172652458,
            "user": "btcitnet",
            "uid": 22525435,
            "tags": {
                "addr:city": "Cagliari",
                "addr:housenumber": "23",
                "addr:postcode": "09131",
                "addr:street": "Via Guglielmo Marconi",
                "amenity": "fuel",
                "brand": "Tamoil",
                "brand:wikidata": "Q706793",
                "brand:wikipedia": "en:Tamoil",
                "name": "Tamoil",
                "operator": "T.D.M. S.R.L.",
                "ref:mise": "30821"
            }
        },
        {
            "type": "node",
            "id": 227777261,
            "lat": 39.1728024,
            "lon": 8.978313,
            "timestamp": "2021-08-31T14:49:32Z",
            "version": 6,
            "changeset": 110518894,
            "user": "sportskanone85",
            "uid": 5859005,
            "tags": {
                "addr:city": "Capoterra",
                "addr:housenumber": "202",
                "addr:postcode": "09012",
                "addr:street": "Via Cagliari",
                "amenity": "fuel",
                "brand": "Tamoil",
                "brand:wikidata": "Q706793",
                "brand:wikipedia": "en:Tamoil",
                "fuel:diesel": "yes",
                "fuel:octane_95": "yes",
                "name": "Tamoil",
                "operator": "Loddo Marina e Marongiu Emilia S.N.C.",
                "phone": "+39 070 721543",
                "ref:mise": "31128",
                "website": "https://www.tamoil.it/"
            }
        },
        {
            "type": "node",
            "id": 228188130,
            "lat": 39.2832963,
            "lon": 9.2283918,
            "timestamp": "2025-09-29T21:11:07Z",
            "version": 7,
            "changeset": 172632743,
            "user": "btcitnet",
            "uid": 22525435,
            "tags": {
                "addr:city": "Maracalagonis",
                "addr:housenumber": "120",
                "addr:postcode": "09040",
                "addr:street": "Via Nazionale",
                "amenity": "fuel",
                "brand": "Q8",
                "brand:wikidata": "Q1634762",
                "brand:wikipedia": "en:Kuwait Petroleum Corporation",
                "name": "Q8",
                "operator": "Servizi & Gestioni Italia Srl",
                "ref:mise": "6688"
            }
        },
        {
            "type": "node",
            "id": 228194554,
            "lat": 39.2329393,
            "lon": 9.1029085,
            "timestamp": "2025-09-29T21:12:25Z",
            "version": 6,
            "changeset": 172632788,
            "user": "btcitnet",
            "uid": 22525435,
            "tags": {
                "addr:city": "Cagliari",
                "addr:postcode": "09122",
                "addr:street": "Via Is Maglias",
                "amenity": "fuel",
                "brand": "Tamoil",
                "brand:wikidata": "Q706793",
                "brand:wikipedia": "en:Tamoil",
                "name": "Tamoil",
                "operator": "T.D.M. S.R.L.",
                "ref:mise": "30626"
            }
        },
        {
            "type": "node",
            "id": 228194557,
            "lat": 39.2984247,
            "lon": 9.0933658,
            "timestamp": "2025-09-29T11:03:27Z",
            "version": 6,
            "changeset": 172606905,
            "user": "btcitnet",
            "uid": 22525435,
            "tags": {
                "addr:city": "Sestu",
                "addr:housenumber": "26",
                "addr:postcode": "09028",
                "addr:street": "Via Monserrato",
                "amenity": "fuel",
                "brand": "Tamoil",
                "brand:wikidata": "Q706793",
                "brand:wikipedia": "en:Tamoil",
                "name": "Tamoil",
                "operator": "Tamoil"
            }
        },
        {
            "type": "node",
            "id": 228194726,
            "lat": 39.2968868,
            "lon": 9.0009544,
            "timestamp": "2025-09-29T21:13:55Z",
            "version": 7,
            "changeset": 172632836,
            "user": "btcitnet",
            "uid": 22525435,
            "tags": {
                "addr:city": "Assemini",
                "addr:housenumber": "81",
                "addr:postcode": "09032",
                "addr:street": "Via Piave",
                "amenity": "fuel",
                "brand": "Tamoil",
                "brand:wikidata": "Q706793",
                "name": "Tamoil",
                "operator": "Palmas Minuccio",
                "ref:mise": "27922"
            }
        },
        {
            "type": "node",
            "id": 311649521,
            "lat": 39.2996626,
            "lon": 9.2006497,
            "timestamp": "2025-09-29T21:15:27Z",
            "version": 6,
            "changeset": 172632898,
            "user": "btcitnet",
            "uid": 22525435,
            "tags": {
                "addr:city": "Sinnai",
                "addr:postcode": "09048",
                "addr:street": "Via Trieste",
                "amenity": "fuel",
                "brand": "Q8",
                "brand:wikidata": "Q1634762",
                "brand:wikipedia": "en:Kuwait Petroleum Corporation",
                "fuel:diesel": "yes",
                "fuel:octane_95": "yes",
                "name": "Q8",
                "opening_hours": "Mo-Su,PH 00:00-24:00",
                "operator": "Servizi & Gestioni Italia S.R.L.",
                "ref:mise": "23792",
                "self_service": "yes"
            }
        },
        {
            "type": "node",
            "id": 737546479,
            "lat": 39.1744912,
            "lon": 8.9770079,
            "timestamp": "2021-08-18T19:37:08Z",
            "version": 3,
            "changeset": 109893928,
            "user": "sportskanone85",
            "uid": 5859005,
            "tags": {
                "addr:city": "Capoterra",
                "addr:postcode": "09012",
                "addr:street": "Via Monteverdi Snc",
                "brand": "Conad",
                "brand:wikidata": "Q639075",
                "brand:wikipedia": "it:Conad",
                "name": "Conad",
                "opening_hours": "Mo-Sa 08:00-20:30, 08:30-13:00",
                "phone": "+39 070 721396",
                "shop": "supermarket",
                "website": "https://www.conad.it/ricerca-negozi/negozio.005733.html"
            }
        },
        {
            "type": "node",
            "id": 945268543,
            "lat": 39.4862808,
            "lon": 8.899938,
            "timestamp": "2025-09-29T21:17:44Z",
            "version": 5,
            "changeset": 172632984,
            "user": "btcitnet",
            "uid": 22525435,
            "tags": {
                "addr:city": "Samassi",
                "addr:housenumber": "KM. 6+288 SNC",
                "addr:postcode": "09030",
                "addr:street": "Strada Statale 293 di Giba",
                "amenity": "fuel",
                "brand": "Tamoil",
                "brand:wikidata": "Q706793",
                "brand:wikipedia": "en:Tamoil",
                "name": "Tamoil",
                "operator": "Porcu Giuseppe",
                "ref:mise": "24498"
            }
        },
        {
            "type": "node",
            "id": 2201764501,
            "lat": 39.2948667,
            "lon": 9.0660103,
            "timestamp": "2024-12-30T18:25:28Z",
            "version": 4,
            "changeset": 160803710,
            "user": "mpbin",
            "uid": 21850090,
            "tags": {
                "addr:city": "Sestu",
                "addr:housenumber": "Km 10",
                "addr:postcode": "09028",
                "addr:street": "ex SS131",
                "brand": "Trony",
                "brand:wikidata": "Q3999692",
                "name": "Trony",
                "operator": "Trony",
                "shop": "electronics"
            }
        },
        {
            "type": "node",
            "id": 2317627942,
            "lat": 39.2155701,
            "lon": 9.1114928,
            "timestamp": "2025-08-16T12:19:01Z",
            "version": 8,
            "changeset": 170520779,
            "user": "dan980",
            "uid": 1240942,
            "tags": {
                "addr:city": "Cagliari",
                "addr:housenumber": "26",
                "addr:postcode": "09124",
                "addr:street": "Largo Carlo Felice di Savoia",
                "check_date:currency:XBT": "2023-01-26",
                "currency:XBT": "yes",
                "email": "info@sardiniadomus.it",
                "fax": "+39 070 6401360",
                "internet_access": "wlan",
                "internet_access:fee": "no",
                "name": "Affittacamere B&B Sardinia Domus",
                "phone": "+39 070659783",
                "smoking": "no",
                "tourism": "guest_house",
                "website": "https://www.sardiniadomus.it/",
                "wheelchair": "no"
            }
        },
        {
            "type": "node",
            "id": 2637983020,
            "lat": 39.4208935,
            "lon": 9.570718,
            "timestamp": "2024-12-30T23:01:45Z",
            "version": 4,
            "changeset": 160813474,
            "user": "mpbin",
            "uid": 21850090,
            "tags": {
                "addr:city": "Muravera",
                "addr:housenumber": "SNC",
                "addr:postcode": "09043",
                "addr:street": "Viale Rinascita",
                "brand": "Conad City",
                "brand:wikidata": "Q57543102",
                "name": "Conad City",
                "operator": "Conad",
                "shop": "supermarket"
            }
        },
        {
            "type": "node",
            "id": 3348350949,
            "lat": 39.2210153,
            "lon": 9.1295594,
            "timestamp": "2025-09-29T10:01:54Z",
            "version": 4,
            "changeset": 172604243,
            "user": "btcitnet",
            "uid": 22525435,
            "tags": {
                "addr:city": "Cagliari",
                "addr:housenumber": "67",
                "addr:street": "Via Giovanni Battista Pergolesi",
                "brand": "Despar",
                "brand:wikidata": "Q610492",
                "brand:wikipedia": "it:SPAR",
                "name": "Despar Mini Market",
                "opening_hours": "08:00 - 22:30",
                "operator": "Despar",
                "shop": "convenience"
            }
        },
        {
            "type": "node",
            "id": 4167706400,
            "lat": 39.307477,
            "lon": 8.5494116,
            "timestamp": "2025-09-29T09:39:40Z",
            "version": 5,
            "changeset": 172603150,
            "user": "btcitnet",
            "uid": 22525435,
            "tags": {
                "addr:city": "Iglesias",
                "addr:postcode": "09016",
                "addr:street": "Via Monsignor Agostino Saba",
                "brand": "Conad",
                "brand:wikidata": "Q639075",
                "brand:wikipedia": "it:Conad",
                "name": "Conad Superstore",
                "opening_hours": "Mo-Sa 08:00-21:00; Su 08:00-13:00",
                "operator": "CONAD Soc. Coop.",
                "payment:bancomat": "yes",
                "payment:cash": "yes",
                "payment:credit_cards": "yes",
                "phone": "+39 0781 398120",
                "shop": "supermarket",
                "website": "https://www.conad.it/ricerca-negozi/negozio.006526.html"
            }
        },
        {
            "type": "node",
            "id": 4213395454,
            "lat": 39.201503,
            "lon": 9.1601009,
            "timestamp": "2025-07-11T10:53:40Z",
            "version": 5,
            "changeset": 168789456,
            "user": "Antanicus",
            "uid": 8799619,
            "tags": {
                "addr:city": "Cagliari",
                "addr:housenumber": "3",
                "addr:street": "Via Ischia",
                "brand": "Spar",
                "brand:wikidata": "Q610492",
                "check_date": "2023-09-14",
                "name": "Despar",
                "operator": "despar",
                "shop": "supermarket",
                "wheelchair": "yes"
            }
        },
        {
            "type": "node",
            "id": 4213453689,
            "lat": 39.2326516,
            "lon": 9.0909889,
            "timestamp": "2024-12-30T21:55:44Z",
            "version": 7,
            "changeset": 160811773,
            "user": "mpbin",
            "uid": 21850090,
            "tags": {
                "addr:city": "Cagliari",
                "addr:housenumber": "60",
                "addr:place": "Santa Gilla",
                "addr:postcode": "09122",
                "addr:street": "Via San Simone",
                "brand": "Conad",
                "brand:wikidata": "Q639075",
                "brand:wikipedia": "it:Conad",
                "name": "Conad",
                "operator": "CONAD Soc. Coop.",
                "shop": "supermarket"
            }
        },
        {
            "type": "node",
            "id": 4213453789,
            "lat": 39.2475737,
            "lon": 9.1361551,
            "timestamp": "2020-11-29T10:54:27Z",
            "version": 3,
            "changeset": 94978942,
            "user": "mascalzone67",
            "uid": 1861652,
            "tags": {
                "addr:city": "Cagliari",
                "addr:housenumber": "35",
                "addr:place": "Pirri",
                "addr:postcode": "09134",
                "addr:street": "Via Dolianova",
                "brand": "Conad",
                "brand:wikidata": "Q639075",
                "brand:wikipedia": "it:Conad",
                "name": "Conad",
                "opening_hours": "Mo-Su 08:30-21:00",
                "operator": "Conad",
                "payment:bancomat": "yes",
                "payment:cash": "yes",
                "payment:credit_cards": "yes",
                "shop": "supermarket",
                "start_date": "2020-11-30",
                "website": "https://www.conad.it/ricerca-negozi/negozio.010168.html",
                "wheelchair": "yes"
            }
        },
        {
            "type": "node",
            "id": 4213455201,
            "lat": 39.2159087,
            "lon": 9.1036527,
            "timestamp": "2025-01-03T14:06:35Z",
            "version": 9,
            "changeset": 160950753,
            "user": "mpbin",
            "uid": 21850090,
            "tags": {
                "addr:city": "Cagliari",
                "addr:street": "Viale La Plaia",
                "brand": "OVS",
                "brand:wikidata": "Q2042514",
                "brand:wikipedia": "en:OVS (company)",
                "level": "1",
                "name": "OVS",
                "operator": "OVS",
                "shop": "clothes",
                "toilets:wheelchair": "yes",
                "wheelchair": "yes"
            }
        },
        {
            "type": "node",
            "id": 4213532192,
            "lat": 39.2440944,
            "lon": 9.1662722,
            "timestamp": "2025-09-29T20:42:58Z",
            "version": 6,
            "changeset": 172631697,
            "user": "btcitnet",
            "uid": 22525435,
            "tags": {
                "addr:city": "Quartu Sant'Elena",
                "addr:housenumber": "6",
                "addr:postcode": "09045",
                "addr:street": "Viale Guglielmo Marconi",
                "brand": "Carrefour",
                "brand:wikidata": "Q217599",
                "brand:wikipedia": "fr:Carrefour (enseigne)",
                "name": "Carrefour",
                "phone": "+39 070 828181",
                "shop": "supermarket"
            }
        },
        {
            "type": "node",
            "id": 4213587392,
            "lat": 39.2360993,
            "lon": 9.1083436,
            "timestamp": "2025-03-15T10:22:39Z",
            "version": 6,
            "changeset": 163644411,
            "user": "bluemywn",
            "uid": 17079474,
            "tags": {
                "addr:city": "Cagliari",
                "addr:housenumber": "111",
                "addr:street": "Via Is Mirrionis",
                "brand": "Conad City",
                "brand:wikidata": "Q57543102",
                "name": "Conad City",
                "operator": "CONAD Soc. Coop.",
                "shop": "supermarket"
            }
        },
        {
            "type": "node",
            "id": 4213695244,
            "lat": 39.2914466,
            "lon": 9.2158607,
            "timestamp": "2025-01-23T14:45:27Z",
            "version": 4,
            "changeset": 161677495,
            "user": "Dom61",
            "uid": 10368945,
            "tags": {
                "addr:city": "Sinnai",
                "addr:place": "Zona Industriale Sienis",
                "branch": "Superstore",
                "brand": "Conad",
                "brand:wikidata": "Q639075",
                "brand:wikipedia": "it:Conad",
                "name": "Conad",
                "opening_hours": "Mo-Su 08:00-21:00",
                "shop": "supermarket"
            }
        },
        {
            "type": "node",
            "id": 4228916757,
            "lat": 39.2227388,
            "lon": 9.124882,
            "timestamp": "2024-04-11T04:46:55Z",
            "version": 4,
            "changeset": 149846844,
            "user": "Igor Bubelov",
            "uid": 2104834,
            "tags": {
                "addr:city": "Cagliari",
                "addr:housenumber": "134",
                "addr:postcode": "09128",
                "addr:street": "Via Dante Alighieri",
                "check_date": "2024-03-26",
                "currency:XBT": "yes",
                "name": "Dante 134 Rooms",
                "payment:lightning": "yes",
                "payment:lightning_contactless": "yes",
                "payment:onchain": "yes",
                "phone": "+39 375 593 3115",
                "rooms": "2",
                "source": "Regione Autonoma della Sardegna (www.sardegnageoportale.it)",
                "tourism": "hotel",
                "website": "https://ceowelcomingitaly.it/"
            }
        },
        {
            "type": "node",
            "id": 4228932492,
            "lat": 39.2081831,
            "lon": 9.1643846,
            "timestamp": "2025-10-11T16:33:12Z",
            "version": 8,
            "changeset": 173145898,
            "user": "confusedbuffalo",
            "uid": 242345,
            "tags": {
                "addr:city": "Cagliari",
                "addr:country": "IT",
                "addr:housenumber": "12",
                "addr:postcode": "09126",
                "addr:street": "Via Isola San Domino",
                "check_date": "2024-02-13",
                "currency:XBT": "yes",
                "internet_access": "wlan",
                "name": "Domino 12",
                "payment:lightning": "yes",
                "payment:lightning_contactless": "yes",
                "payment:onchain": "yes",
                "phone": "+39 347 577 4500",
                "source": "Regione Autonoma della Sardegna (www.sardegnageoportale.it)",
                "tourism": "hotel",
                "website": "https://ceowelcomingitaly.it/"
            }
        },
        {
            "type": "node",
            "id": 4228955178,
            "lat": 39.2174699,
            "lon": 9.1195516,
            "timestamp": "2022-12-23T15:37:20Z",
            "version": 3,
            "changeset": 130426463,
            "user": "DDeL",
            "uid": 8377693,
            "tags": {
                "addr:city": "Cagliari",
                "addr:housenumber": "145",
                "addr:street": "Via Giuseppe Garibaldi",
                "brand": "Foot Locker",
                "brand:wikidata": "Q63335",
                "name": "Foot Locker",
                "shop": "shoes",
                "source": "Regione Autonoma della Sardegna (www.sardegnageoportale.it)"
            }
        },
        {
            "type": "node",
            "id": 4228966247,
            "lat": 39.2146376,
            "lon": 9.1114382,
            "timestamp": "2025-04-20T20:58:36Z",
            "version": 4,
            "changeset": 165212247,
            "user": "btcitnet",
            "uid": 22525435,
            "tags": {
                "addr:city": "Cagliari",
                "addr:housenumber": "129",
                "addr:postcode": "09124",
                "addr:street": "Via Roma",
                "brand": "Calzedonia",
                "brand:wikidata": "Q1027874",
                "clothes": "underwear",
                "name": "Calzedonia",
                "operator": "Calzedonia",
                "shop": "clothes",
                "source": "Regione Autonoma della Sardegna (www.sardegnageoportale.it)"
            }
        },
        {
            "type": "node",
            "id": 4228979833,
            "lat": 39.2173004,
            "lon": 9.1212942,
            "timestamp": "2024-04-11T04:51:04Z",
            "version": 9,
            "changeset": 149846905,
            "user": "Igor Bubelov",
            "uid": 2104834,
            "tags": {
                "addr:city": "Cagliari",
                "addr:housenumber": "177",
                "addr:street": "Via Sidney Sonnino",
                "check_date": "2024-02-07",
                "currency:XBT": "yes",
                "internet_access": "wlan",
                "name": "C&O Luxury Suite",
                "payment:lightning": "yes",
                "payment:lightning_contactless": "yes",
                "payment:onchain": "yes",
                "phone": "+39 375 593 3115",
                "rooms": "4",
                "source": "Regione Autonoma della Sardegna (www.sardegnageoportale.it)",
                "tourism": "hotel",
                "website": "https://ceowelcomingitaly.it/"
            }
        },
        {
            "type": "node",
            "id": 4229005318,
            "lat": 39.2185612,
            "lon": 9.1101337,
            "timestamp": "2023-10-04T12:30:24Z",
            "version": 4,
            "changeset": 142143518,
            "user": "Fradeve11",
            "uid": 37791,
            "tags": {
                "addr:city": "Cagliari",
                "addr:housenumber": "160",
                "addr:street": "Corso Vittorio Emanuele II",
                "brand": "Mondadori",
                "brand:wikidata": "Q85355",
                "name": "Mondadori",
                "shop": "books",
                "source": "Regione Autonoma della Sardegna (www.sardegnageoportale.it)"
            }
        },
        {
            "type": "node",
            "id": 4229034861,
            "lat": 39.213179,
            "lon": 9.1151683,
            "timestamp": "2024-07-20T20:58:19Z",
            "version": 4,
            "changeset": 154195840,
            "user": "mauropili",
            "uid": 1496865,
            "tags": {
                "addr:city": "Cagliari",
                "addr:housenumber": "19",
                "addr:postcode": "09125",
                "addr:street": "Via Vittorio Porcile",
                "check_date:currency:XBT": "2023-02-15",
                "contact:facebook": "https://www.facebook.com/cagliarese/",
                "contact:instagram": "https://www.instagram.com/ilcagliarese/",
                "currency:XBT": "yes",
                "email": "info@ilcagliarese.com",
                "name": "Il Cagliarese",
                "name:it": "Il Cagliarese",
                "payment:lightning": "yes",
                "payment:lightning_contactless": "no",
                "payment:onchain": "yes",
                "phone": "+39 339 654 4083",
                "source": "Regione Autonoma della Sardegna (www.sardegnageoportale.it)",
                "tourism": "hotel",
                "website": "http://ilcagliarese.com/le-camere/"
            }
        },
        {
            "type": "node",
            "id": 4229074925,
            "lat": 39.2160261,
            "lon": 9.1109682,
            "timestamp": "2025-01-05T08:54:08Z",
            "version": 6,
            "changeset": 161012478,
            "user": "mpbin",
            "uid": 21850090,
            "tags": {
                "addr:city": "Cagliari",
                "addr:housenumber": "23",
                "addr:postcode": "09124",
                "addr:street": "Via Giovanni Maria Angioy",
                "currency:XBT": "yes",
                "email": "info@cagliarinovecento.it",
                "guest_house": "bed_and_breakfast",
                "internet_access": "wlan",
                "internet_access:fee": "no",
                "name": "Affittacamere B&B Cagliari Novecento",
                "phone": "+39 070 650607",
                "phone:mobile": "+39 349 840 6839",
                "source": "Regione Autonoma della Sardegna (www.sardegnageoportale.it)",
                "tourism": "guest_house",
                "website": "https://www.cagliarinovecento.it/",
                "wheelchair": "no"
            }
        },
        {
            "type": "node",
            "id": 4229079492,
            "lat": 39.216118,
            "lon": 9.1150768,
            "timestamp": "2025-03-31T15:36:38Z",
            "version": 4,
            "changeset": 164336816,
            "user": "bluemywn",
            "uid": 17079474,
            "tags": {
                "addr:city": "Cagliari",
                "addr:housenumber": "23",
                "addr:street": "Via Giuseppe Manno",
                "brand": "United Colors of Benetton",
                "brand:wikidata": "Q817139",
                "brand:wikipedia": "en:Benetton Group",
                "check_date:opening_hours": "2025-03-26",
                "name": "United Colors of Benetton",
                "opening_hours:signed": "no",
                "shop": "clothes",
                "short_name": "Benetton",
                "source": "Regione Autonoma della Sardegna (www.sardegnageoportale.it)"
            }
        },
        {
            "type": "node",
            "id": 4229085549,
            "lat": 39.2160861,
            "lon": 9.1147839,
            "timestamp": "2025-03-31T15:36:38Z",
            "version": 4,
            "changeset": 164336816,
            "user": "bluemywn",
            "uid": 17079474,
            "tags": {
                "addr:city": "Cagliari",
                "addr:housenumber": "38",
                "addr:street": "Via Giuseppe Manno",
                "brand": "Tezenis",
                "brand:wikidata": "Q28056374",
                "check_date:opening_hours": "2025-03-26",
                "clothes": "underwear",
                "name": "Tezenis",
                "opening_hours:signed": "no",
                "shop": "clothes",
                "source": "Regione Autonoma della Sardegna (www.sardegnageoportale.it)"
            }
        },
        {
            "type": "node",
            "id": 4229520549,
            "lat": 39.217275,
            "lon": 9.1199153,
            "timestamp": "2024-04-11T04:49:34Z",
            "version": 4,
            "changeset": 149846881,
            "user": "Igor Bubelov",
            "uid": 2104834,
            "tags": {
                "addr:city": "Cagliari",
                "addr:housenumber": "43",
                "addr:postcode": "09127",
                "addr:street": "Via Giuseppe Abba",
                "check_date": "2024-03-26",
                "currency:XBT": "yes",
                "name": "Abba Rooms",
                "payment:lightning": "yes",
                "payment:lightning_contactless": "yes",
                "payment:onchain": "yes",
                "phone": "+39 375 593 3115",
                "rooms": "2",
                "source": "Regione Autonoma della Sardegna (www.sardegnageoportale.it)",
                "tourism": "hotel",
                "website": "https://ceowelcomingitaly.it/"
            }
        },
        {
            "type": "node",
            "id": 4229605793,
            "lat": 39.2204465,
            "lon": 9.1239728,
            "timestamp": "2020-12-31T10:19:00Z",
            "version": 3,
            "changeset": 96723037,
            "user": "Fabiano Peddis",
            "uid": 1096017,
            "tags": {
                "addr:city": "Cagliari",
                "addr:housenumber": "63",
                "addr:street": "Via Pasquale Paoli",
                "brand": "Tezenis",
                "brand:wikidata": "Q28056374",
                "clothes": "underwear",
                "name": "Tezenis",
                "shop": "clothes",
                "source": "Regione Autonoma della Sardegna (www.sardegnageoportale.it)"
            }
        },
        {
            "type": "node",
            "id": 4229634239,
            "lat": 39.2270415,
            "lon": 9.1163751,
            "timestamp": "2024-04-11T04:45:41Z",
            "version": 3,
            "changeset": 149846826,
            "user": "Igor Bubelov",
            "uid": 2104834,
            "tags": {
                "addr:city": "Cagliari",
                "addr:housenumber": "70",
                "addr:postcode": "09127",
                "addr:street": "Via Toscana",
                "check_date": "2024-03-26",
                "currency:XBT": "yes",
                "name": "Kalista 5 Rooms",
                "payment:lightning": "yes",
                "payment:lightning_contactless": "yes",
                "payment:onchain": "yes",
                "phone": "+39 375 593 3115",
                "rooms": "5",
                "source": "Regione Autonoma della Sardegna (www.sardegnageoportale.it)",
                "tourism": "hotel",
                "website": "https://ceowelcomingitaly.it/"
            }
        },
        {
            "type": "node",
            "id": 4229647495,
            "lat": 39.1961354,
            "lon": 9.1465381,
            "timestamp": "2025-10-11T16:33:12Z",
            "version": 6,
            "changeset": 173145898,
            "user": "confusedbuffalo",
            "uid": 242345,
            "tags": {
                "addr:city": "Cagliari",
                "addr:housenumber": "8",
                "addr:street": "Piazza San Bartolomeo",
                "check_date": "2024-10-12",
                "check_date:currency:XBT": "2024-10-12",
                "contact:email": "agenzia@insulaere.it",
                "contact:facebook": "https://www.facebook.com/people/Insulae-RE/100082529181124/",
                "currency:XBT": "yes",
                "name": "Insulae Re",
                "office": "estate_agent",
                "payment:lightning": "yes",
                "payment:onchain": "yes",
                "phone": "+39 393 900 2098",
                "source": "Regione Autonoma della Sardegna (www.sardegnageoportale.it)",
                "website": "https://www.insulaere.it/"
            }
        },
        {
            "type": "node",
            "id": 4229660095,
            "lat": 39.222593,
            "lon": 9.1252598,
            "timestamp": "2023-11-15T20:38:29Z",
            "version": 5,
            "changeset": 144068140,
            "user": "toponomastica_comune_arenzano",
            "uid": 14257573,
            "tags": {
                "addr:city": "Cagliari",
                "addr:housenumber": "87a",
                "addr:street": "Via Dante Alighieri",
                "brand": "United Colors of Benetton",
                "brand:wikidata": "Q817139",
                "brand:wikipedia": "en:Benetton Group",
                "clothes": "children",
                "name": "United Colors of Benetton",
                "shop": "clothes",
                "short_name": "Benetton",
                "source": "Regione Autonoma della Sardegna (www.sardegnageoportale.it)"
            }
        },
        {
            "type": "node",
            "id": 4229660303,
            "lat": 39.2133294,
            "lon": 9.1154312,
            "timestamp": "2024-03-26T14:48:43Z",
            "version": 5,
            "changeset": 149181593,
            "user": "Innovi\u00f9",
            "uid": 20975640,
            "tags": {
                "addr:city": "Cagliari",
                "addr:housenumber": "9",
                "addr:postcode": "09124",
                "addr:street": "Via Camillo Benso Conte di Cavour",
                "check_date": "2024-03-18",
                "currency:XBT": "yes",
                "internet_access": "wlan",
                "name": "My Exclusive Cavour",
                "payment:lightning": "yes",
                "payment:lightning_contactless": "yes",
                "payment:onchain": "yes",
                "phone": "+39 375 593 3115",
                "rooms": "8",
                "source": "Regione Autonoma della Sardegna (www.sardegnageoportale.it)",
                "tourism": "hotel",
                "website": "https://ceowelcomingitaly.it/"
            }
        },
        {
            "type": "node",
            "id": 4229666446,
            "lat": 39.2231143,
            "lon": 9.1252733,
            "timestamp": "2025-01-03T14:07:05Z",
            "version": 5,
            "changeset": 160950779,
            "user": "mpbin",
            "uid": 21850090,
            "tags": {
                "addr:city": "Cagliari",
                "addr:housenumber": "93a",
                "addr:street": "Via Dante Alighieri",
                "brand": "OVS",
                "brand:wikidata": "Q2042514",
                "brand:wikipedia": "en:OVS (company)",
                "name": "OVS",
                "operator": "OVS",
                "shop": "clothes",
                "source": "Regione Autonoma della Sardegna (www.sardegnageoportale.it)"
            }
        },
        {
            "type": "node",
            "id": 4445938919,
            "lat": 39.2173407,
            "lon": 9.1212959,
            "timestamp": "2025-09-29T20:47:15Z",
            "version": 7,
            "changeset": 172631878,
            "user": "btcitnet",
            "uid": 22525435,
            "tags": {
                "addr:city": "Cagliari",
                "addr:housenumber": "179a",
                "addr:postcode": "09127",
                "addr:street": "Via Sidney Sonnino",
                "brand": "Kasanova",
                "brand:wikidata": "Q116214505",
                "name": "Kasanova",
                "phone": "+39 070 684729",
                "shop": "houseware"
            }
        },
        {
            "type": "node",
            "id": 4471074425,
            "lat": 39.2371847,
            "lon": 9.1839844,
            "timestamp": "2025-10-11T16:33:12Z",
            "version": 9,
            "changeset": 173145898,
            "user": "confusedbuffalo",
            "uid": 242345,
            "tags": {
                "addr:city": "Quartu Sant'Elena",
                "addr:housenumber": "24",
                "addr:postcode": "09045",
                "addr:street": "Via Giovanni Verga",
                "check_date": "2024-03-25",
                "contact:facebook": "https://www.facebook.com/InnovyouTechAgency/",
                "contact:linkedin": "https://www.linkedin.com/company/innovyou-odoo/",
                "contact:twitter": "https://x.com/innovyou_",
                "currency:BCH": "yes",
                "currency:XBT": "yes",
                "email": "info@innovyou.it",
                "name": "Innovyou",
                "office": "it",
                "opening_hours": "Mo-Fr 09:00-18:00",
                "payment:lightning": "yes",
                "payment:lightning_contactless": "yes",
                "payment:onchain": "yes",
                "phone": "+39 070 896 0140",
                "website": "https://www.innovyou.it/"
            }
        },
        {
            "type": "node",
            "id": 4471088139,
            "lat": 39.2336,
            "lon": 9.1871184,
            "timestamp": "2025-07-15T08:52:17Z",
            "version": 4,
            "changeset": 168952124,
            "user": "wheelmap_visitor",
            "uid": 290680,
            "tags": {
                "addr:city": "Quartu Sant'Elena",
                "addr:housenumber": "54",
                "addr:postcode": "09045",
                "addr:street": "Via Luciano Manara",
                "check_date": "2023-12-10",
                "currency:XBT": "yes",
                "name": "StemarDenotti",
                "payment:cards": "yes",
                "payment:cash": "yes",
                "payment:lightning": "yes",
                "payment:lightning_contactless": "no",
                "payment:onchain": "yes",
                "shop": "supermarket",
                "wheelchair": "yes"
            }
        },
        {
            "type": "node",
            "id": 4471704061,
            "lat": 39.2532091,
            "lon": 9.1712536,
            "timestamp": "2023-04-22T19:29:40Z",
            "version": 4,
            "changeset": 135240817,
            "user": "b-jazz-bot",
            "uid": 9451067,
            "tags": {
                "addr:city": "Selargius",
                "addr:housenumber": "18",
                "addr:postcode": "09047",
                "addr:street": "Via Antonio Gallus",
                "amenity": "language_school",
                "currency:XBT": "yes",
                "name": "Welcome School",
                "note": "Scuola di Lingue e di Informatica. Realizzazione e gestione siti web.",
                "payment:lightning": "no",
                "payment:lightning_contactless": "no",
                "payment:onchain": "yes",
                "phone": "+39 070 7543061",
                "survey:date": "2022-09-23",
                "website": "https://www.welcomeschool.it/"
            }
        },
        {
            "type": "node",
            "id": 4910975902,
            "lat": 39.2936825,
            "lon": 9.0685015,
            "timestamp": "2025-10-18T16:34:45Z",
            "version": 4,
            "changeset": 173458706,
            "user": "btcitnet",
            "uid": 22525435,
            "tags": {
                "addr:city": "Sestu",
                "addr:postcode": "09028",
                "addr:street": "Ex Strada Statale 131",
                "brand": "Unieuro",
                "brand:wikidata": "Q4004687",
                "brand:wikipedia": "en:Unieuro",
                "name": "Unieuro",
                "shop": "electronics"
            }
        },
        {
            "type": "node",
            "id": 4910975903,
            "lat": 39.2941579,
            "lon": 9.0679253,
            "timestamp": "2025-09-29T21:21:17Z",
            "version": 5,
            "changeset": 172633091,
            "user": "btcitnet",
            "uid": 22525435,
            "tags": {
                "addr:city": "Sestu",
                "addr:postcode": "09028",
                "addr:street": "Ex Strada Statale 131",
                "brand": "PittaRosso",
                "brand:wikidata": "Q105643314",
                "name": "PittaRosso",
                "shop": "shoes"
            }
        },
        {
            "type": "node",
            "id": 5851831003,
            "lat": 39.003635,
            "lon": 8.6432422,
            "timestamp": "2025-10-02T13:06:53Z",
            "version": 3,
            "changeset": 172748420,
            "user": "btcitnet",
            "uid": 22525435,
            "tags": {
                "addr:city": "Sant'Anna Arresi",
                "addr:housenumber": "249",
                "addr:postcode": "09010",
                "addr:street": "Via Italia",
                "amenity": "fuel",
                "brand": "Tamoil",
                "brand:wikidata": "Q706793",
                "brand:wikipedia": "en:Tamoil",
                "name": "Tamoil",
                "operator": "Sosta Mare S.N.C. di Seu Giuliana & C.",
                "ref:mise": "9421"
            }
        },
        {
            "type": "node",
            "id": 5851832249,
            "lat": 39.4659646,
            "lon": 8.7455678,
            "timestamp": "2022-05-12T12:03:44Z",
            "version": 2,
            "changeset": 120885805,
            "user": "Fabiano Peddis",
            "uid": 1096017,
            "tags": {
                "addr:city": "Villacidro",
                "addr:postcode": "09039",
                "addr:street": "Via San Gavino Monreale",
                "amenity": "fuel",
                "brand": "Tamoil",
                "brand:wikidata": "Q706793",
                "name": "Tamoil",
                "operator": "T.D.M. S.R.L.",
                "ref:mise": "40066"
            }
        },
        {
            "type": "node",
            "id": 5851832283,
            "lat": 39.2618694,
            "lon": 9.2358106,
            "timestamp": "2025-10-12T07:07:30Z",
            "version": 4,
            "changeset": 173165491,
            "user": "btcitnet",
            "uid": 22525435,
            "tags": {
                "addr:city": "Quartu Sant'Elena",
                "addr:housenumber": "KM. 16+022",
                "addr:postcode": "09045",
                "addr:street": "Strada Statale 554 Cagliaritana",
                "amenity": "fuel",
                "brand": "Tamoil",
                "brand:wikidata": "Q706793",
                "brand:wikipedia": "en:Tamoil",
                "name": "Tamoil",
                "operator": "Station Service And Cafe' S.A.S. di Moi Raffaele Alberto.",
                "ref:mise": "39821"
            }
        },
        {
            "type": "node",
            "id": 5851832914,
            "lat": 39.2558341,
            "lon": 8.5987557,
            "timestamp": "2025-10-02T13:08:45Z",
            "version": 3,
            "changeset": 172748508,
            "user": "btcitnet",
            "uid": 22525435,
            "tags": {
                "addr:city": "Igr\u00e8sias/Iglesias",
                "addr:housenumber": "KM. 44,520",
                "addr:postcode": "09016",
                "addr:street": "Strada provinciale 2",
                "amenity": "fuel",
                "brand": "Tamoil",
                "brand:wikidata": "Q706793",
                "name": "Tamoil",
                "operator": "T.D.M. S.R.L.",
                "ref:mise": "39618"
            }
        },
        {
            "type": "node",
            "id": 5851832965,
            "lat": 39.2991304,
            "lon": 8.820616,
            "timestamp": "2023-01-23T10:30:38Z",
            "version": 2,
            "changeset": 131601098,
            "user": "Fabiano Peddis",
            "uid": 1096017,
            "tags": {
                "addr:city": "Siliqua",
                "addr:street": "SP90",
                "amenity": "fuel",
                "brand": "Tamoil",
                "brand:wikidata": "Q706793",
                "name": "Tamoil",
                "operator": "Mura Federico",
                "ref:mise": "39238"
            }
        },
        {
            "type": "node",
            "id": 5851837594,
            "lat": 39.279084,
            "lon": 8.6409498,
            "timestamp": "2025-10-02T13:09:54Z",
            "version": 3,
            "changeset": 172748551,
            "user": "btcitnet",
            "uid": 22525435,
            "tags": {
                "addr:city": "Villamassargia",
                "addr:postcode": "09010",
                "addr:street": "Via Carbonia",
                "amenity": "fuel",
                "brand": "Q8",
                "brand:wikidata": "Q1634762",
                "brand:wikipedia": "en:Kuwait Petroleum Corporation",
                "name": "Q8",
                "operator": "Francesco Mura",
                "ref:mise": "31257"
            }
        },
        {
            "type": "node",
            "id": 5851837761,
            "lat": 39.2798682,
            "lon": 9.181518,
            "timestamp": "2025-10-02T13:10:55Z",
            "version": 3,
            "changeset": 172748587,
            "user": "btcitnet",
            "uid": 22525435,
            "tags": {
                "addr:city": "Settimo San Pietro",
                "addr:postcode": "09040",
                "amenity": "fuel",
                "brand": "Tamoil",
                "brand:wikidata": "Q706793",
                "brand:wikipedia": "en:Tamoil",
                "fuel:diesel": "yes",
                "fuel:octane_95": "yes",
                "name": "Tamoil",
                "operator": "T.D.M. S.R.L.",
                "ref:mise": "30057",
                "self_service": "yes"
            }
        },
        {
            "type": "node",
            "id": 5851840898,
            "lat": 39.3828671,
            "lon": 9.1740527,
            "timestamp": "2025-09-30T21:27:44Z",
            "version": 3,
            "changeset": 172679998,
            "user": "btcitnet",
            "uid": 22525435,
            "tags": {
                "addr:city": "Dolianova",
                "addr:housenumber": "243",
                "addr:postcode": "09041",
                "addr:street": "Corso Repubblica",
                "amenity": "fuel",
                "brand": "Q8",
                "brand:wikidata": "Q1634762",
                "name": "Q8",
                "operator": "Mascia Natascia",
                "ref:mise": "26829"
            }
        },
        {
            "type": "node",
            "id": 5851843090,
            "lat": 39.2948723,
            "lon": 9.0888135,
            "timestamp": "2025-10-02T13:11:55Z",
            "version": 5,
            "changeset": 172748638,
            "user": "btcitnet",
            "uid": 22525435,
            "tags": {
                "addr:city": "Sestu",
                "addr:housenumber": "199",
                "addr:postcode": "09028",
                "addr:street": "Via Cagliari",
                "amenity": "fuel",
                "brand": "Q8",
                "brand:wikidata": "Q1634762",
                "brand:wikipedia": "en:Kuwait Petroleum Corporation",
                "compressed_air": "yes",
                "name": "Q8",
                "operator": "Cau Gemiliana",
                "ref:mise": "20687",
                "shop": "yes"
            }
        },
        {
            "type": "node",
            "id": 5851844657,
            "lat": 39.3369077,
            "lon": 8.9047356,
            "timestamp": "2025-10-02T13:12:49Z",
            "version": 3,
            "changeset": 172748662,
            "user": "btcitnet",
            "uid": 22525435,
            "tags": {
                "addr:city": "Decimoputzu",
                "addr:postcode": "09010",
                "addr:street": "Via San Basilio",
                "amenity": "fuel",
                "brand": "Tamoil",
                "brand:wikidata": "Q706793",
                "brand:wikipedia": "en:Tamoil",
                "name": "Tamoil",
                "operator": "Secci Giampaolo",
                "ref:mise": "14904"
            }
        },
        {
            "type": "node",
            "id": 6236578883,
            "lat": 39.221385,
            "lon": 9.121401,
            "timestamp": "2022-12-28T13:45:58Z",
            "version": 2,
            "changeset": 130602871,
            "user": "saunter",
            "uid": 10396321,
            "tags": {
                "addr:city": "Cagliari",
                "addr:housenumber": "60",
                "addr:postcode": "09127",
                "addr:street": "Via Ottone Bacaredda",
                "amenity": "atm",
                "check_date:currency:XBT": "2022-12-28",
                "currency:XBT": "yes",
                "description": "Bitcoin ATM di Chainblock, situato presso la sede dell'associazione \"100% Biodegradabile\".",
                "email": "info@chainblock.it",
                "name": "Chainblock ATM",
                "payment:lightning": "no",
                "payment:lightning_contactless": "no",
                "payment:onchain": "yes",
                "website": "https://chainblock.it"
            }
        },
        {
            "type": "node",
            "id": 6295687143,
            "lat": 39.235466,
            "lon": 9.098004,
            "timestamp": "2024-04-14T10:24:08Z",
            "version": 6,
            "changeset": 149985931,
            "user": "Chiarant",
            "uid": 18452174,
            "tags": {
                "addr:city": "Cagliari",
                "addr:housenumber": "7a",
                "addr:postcode": "09122",
                "addr:street": "Via San Michele",
                "amenity": "atm",
                "check_date": "2024-04-14",
                "currency:XBT": "yes",
                "description": "Bitcoin ATM che permette di acquistare Bitcoin, Ethereum, Litecoin, Dogecoin, Bitcoin Cash, Dash, Monero. L'ATM \u00e8 situato all'interno del negozio ASPIRO STORE",
                "email": "support@cryptolocalatm.com",
                "name": "CryptoLocalATM C/o ASPIRO STORE",
                "payment:onchain": "yes",
                "phone": "+447894438974",
                "website": "https://cryptolocalatm.com"
            }
        },
        {
            "type": "node",
            "id": 7876636375,
            "lat": 39.2324258,
            "lon": 9.0913501,
            "timestamp": "2025-01-03T09:49:13Z",
            "version": 7,
            "changeset": 160940372,
            "user": "mpbin",
            "uid": 21850090,
            "tags": {
                "addr:city": "Cagliari",
                "addr:housenumber": "60",
                "addr:postcode": "09122",
                "addr:street": "Via San Simone",
                "brand": "Decathlon",
                "brand:wikidata": "Q509349",
                "brand:wikipedia": "en:Decathlon (retailer)",
                "name": "Decathlon",
                "operator": "Decathlon",
                "shop": "sports"
            }
        },
        {
            "type": "node",
            "id": 7876694601,
            "lat": 39.2318407,
            "lon": 9.0924749,
            "timestamp": "2022-04-30T20:59:05Z",
            "version": 3,
            "changeset": 120399703,
            "user": "mtmail",
            "uid": 8339,
            "tags": {
                "addr:city": "Cagliari",
                "addr:housenumber": "60",
                "addr:postcode": "09122",
                "addr:street": "Via San Simone",
                "brand": "Brico",
                "brand:wikidata": "Q2510786",
                "brand:wikipedia": "en:Brico",
                "name": "Brico",
                "shop": "doityourself"
            }
        },
        {
            "type": "node",
            "id": 7876694602,
            "lat": 39.2318205,
            "lon": 9.0923261,
            "timestamp": "2024-12-03T20:31:03Z",
            "version": 5,
            "changeset": 159896003,
            "user": "mpbin",
            "uid": 21850090,
            "tags": {
                "addr:city": "Cagliari",
                "addr:housenumber": "60",
                "addr:postcode": "09122",
                "addr:street": "Via San Simone",
                "brand": "Trony",
                "brand:wikidata": "Q3999692",
                "brand:wikipedia": "it:Trony",
                "level": "1",
                "name": "Trony",
                "operator": "Trony",
                "shop": "electronics"
            }
        },
        {
            "type": "node",
            "id": 8688792744,
            "lat": 39.2873006,
            "lon": 9.0085698,
            "timestamp": "2021-05-01T19:43:47Z",
            "version": 1,
            "changeset": 103971870,
            "user": "oliando",
            "uid": 13174127,
            "tags": {
                "addr:city": "Assemini",
                "addr:housenumber": "17",
                "addr:postcode": "09032",
                "addr:street": "Via Sardegna",
                "brand": "United Colors of Benetton",
                "brand:wikidata": "Q817139",
                "brand:wikipedia": "en:Benetton Group",
                "name": "United Colors of Benetton",
                "phone": "+390709435157",
                "shop": "clothes",
                "short_name": "Benetton"
            }
        },
        {
            "type": "node",
            "id": 8987540393,
            "lat": 39.6530518,
            "lon": 9.130731,
            "timestamp": "2025-10-12T07:02:40Z",
            "version": 3,
            "changeset": 173165401,
            "user": "btcitnet",
            "uid": 22525435,
            "tags": {
                "addr:city": "Mandas",
                "addr:housenumber": "76",
                "addr:postcode": "09040",
                "addr:street": "Via Cagliari",
                "brand": "Spar",
                "brand:wikidata": "Q610492",
                "name": "Despar",
                "shop": "supermarket"
            }
        },
        {
            "type": "node",
            "id": 9577452291,
            "lat": 39.3363488,
            "lon": 8.9165235,
            "timestamp": "2025-09-29T20:45:25Z",
            "version": 2,
            "changeset": 172631790,
            "user": "btcitnet",
            "uid": 22525435,
            "tags": {
                "addr:city": "Decimoputzu",
                "addr:housenumber": "96",
                "addr:postcode": "09010",
                "addr:street": "Via Centrale",
                "brand": "Conad",
                "brand:wikidata": "Q639075",
                "brand:wikipedia": "it:Conad",
                "name": "Conad",
                "phone": "+39 070 9633082",
                "shop": "supermarket"
            }
        },
        {
            "type": "node",
            "id": 9597692776,
            "lat": 39.2450325,
            "lon": 9.1632995,
            "timestamp": "2024-12-31T17:09:26Z",
            "version": 3,
            "changeset": 160841792,
            "user": "mpbin",
            "uid": 21850090,
            "tags": {
                "addr:city": "Quartucciu",
                "addr:housenumber": "SNC",
                "addr:postcode": "09044",
                "addr:street": "Via delle Serre",
                "brand": "Unieuro",
                "brand:wikidata": "Q4004687",
                "brand:wikipedia": "en:Unieuro",
                "level": "0",
                "name": "Unieuro",
                "operator": "Unieuro S.p.A.",
                "shop": "electronics"
            }
        },
        {
            "type": "node",
            "id": 9597692780,
            "lat": 39.2452567,
            "lon": 9.164238,
            "timestamp": "2025-09-29T20:48:42Z",
            "version": 3,
            "changeset": 172631940,
            "user": "btcitnet",
            "uid": 22525435,
            "tags": {
                "addr:city": "Quartucciu",
                "addr:postcode": "09044",
                "addr:street": "Via delle Serre",
                "brand": "OVS",
                "brand:wikidata": "Q2042514",
                "brand:wikipedia": "en:OVS (company)",
                "level": "0",
                "name": "OVS",
                "shop": "clothes",
                "website": "https://stores.ovs.it/it/italia/sardegna/cagliari/ovs-cagliari-le-vele?utm_source=google&utm_medium=GMBSitelink&utm_campaign=GMBSitelink_Quartucciu_0238"
            }
        },
        {
            "type": "node",
            "id": 9597692783,
            "lat": 39.2452187,
            "lon": 9.1649068,
            "timestamp": "2025-09-29T21:22:33Z",
            "version": 3,
            "changeset": 172633124,
            "user": "btcitnet",
            "uid": 22525435,
            "tags": {
                "addr:city": "Quartucciu",
                "addr:postcode": "09044",
                "addr:street": "Via delle Serre",
                "brand": "Foot Locker",
                "brand:wikidata": "Q63335",
                "brand:wikipedia": "en:Foot Locker",
                "name": "Foot Locker",
                "shop": "shoes"
            }
        },
        {
            "type": "node",
            "id": 9597692785,
            "lat": 39.2455081,
            "lon": 9.1655577,
            "timestamp": "2025-10-08T18:35:00Z",
            "version": 3,
            "changeset": 173018556,
            "user": "btcitnet",
            "uid": 22525435,
            "tags": {
                "addr:city": "Quartucciu",
                "addr:postcode": "09044",
                "addr:street": "Via delle Serre",
                "brand": "La Feltrinelli",
                "brand:wikidata": "Q96311190",
                "level": "0",
                "name": "La Feltrinelli",
                "shop": "books"
            }
        },
        {
            "type": "node",
            "id": 9597692786,
            "lat": 39.2453578,
            "lon": 9.1652548,
            "timestamp": "2025-10-08T18:35:51Z",
            "version": 3,
            "changeset": 173018594,
            "user": "btcitnet",
            "uid": 22525435,
            "tags": {
                "addr:city": "Quartucciu",
                "addr:postcode": "09044",
                "addr:street": "Via delle Serre",
                "brand": "United Colors of Benetton",
                "brand:wikidata": "Q817139",
                "brand:wikipedia": "en:Benetton Group",
                "level": "0",
                "name": "United Colors of Benetton",
                "shop": "clothes",
                "short_name": "Benetton",
                "website": "https://it.benetton.com"
            }
        },
        {
            "type": "node",
            "id": 9597919037,
            "lat": 39.2159551,
            "lon": 9.1034802,
            "timestamp": "2024-12-31T17:04:09Z",
            "version": 2,
            "changeset": 160841631,
            "user": "mpbin",
            "uid": 21850090,
            "tags": {
                "addr:city": "Cagliari",
                "addr:housenumber": "15",
                "addr:postcode": "09123",
                "addr:street": "Viale La Plaia",
                "brand": "Unieuro",
                "brand:wikidata": "Q4004687",
                "brand:wikipedia": "en:Unieuro",
                "level": "1",
                "name": "Unieuro",
                "operator": "Unieuro S.p.A.",
                "shop": "electronics"
            }
        },
        {
            "type": "node",
            "id": 9599557330,
            "lat": 39.2532055,
            "lon": 9.1031462,
            "timestamp": "2024-12-31T17:07:56Z",
            "version": 2,
            "changeset": 160841746,
            "user": "mpbin",
            "uid": 21850090,
            "tags": {
                "addr:city": "Selargius",
                "addr:housenumber": "3",
                "addr:postcode": "09047",
                "addr:street": "Via Piero della Francesca",
                "brand": "Unieuro",
                "brand:wikidata": "Q4004687",
                "brand:wikipedia": "en:Unieuro",
                "name": "Unieuro",
                "operator": "Unieuro S.p.A.",
                "shop": "electronics"
            }
        },
        {
            "type": "node",
            "id": 9600076625,
            "lat": 39.3052354,
            "lon": 9.0663446,
            "timestamp": "2025-04-20T21:23:58Z",
            "version": 3,
            "changeset": 165213026,
            "user": "btcitnet",
            "uid": 22525435,
            "tags": {
                "addr:city": "Sestu",
                "addr:street": "Localit\u00e0 More Corraxe ex SS 131, Km 14, c.c. La Corte del Sole",
                "brand": "H&M",
                "brand:wikidata": "Q188326",
                "brand:wikipedia": "en:H&M",
                "level": "0",
                "name": "H&M",
                "operator": "H&M",
                "shop": "clothes"
            }
        },
        {
            "type": "node",
            "id": 9603525508,
            "lat": 39.2452877,
            "lon": 9.1644167,
            "timestamp": "2025-04-20T20:56:31Z",
            "version": 2,
            "changeset": 165212178,
            "user": "btcitnet",
            "uid": 22525435,
            "tags": {
                "addr:city": "Quartucciu",
                "addr:postcode": "09044",
                "addr:street": "Via delle Serre",
                "brand": "Calzedonia",
                "brand:wikidata": "Q1027874",
                "brand:wikipedia": "en:Calzedonia",
                "level": "0",
                "name": "Calzedonia",
                "operator": "Calzedonia",
                "shop": "clothes"
            }
        },
        {
            "type": "node",
            "id": 10183246147,
            "lat": 39.2416936,
            "lon": 8.9972279,
            "timestamp": "2023-12-29T12:17:31Z",
            "version": 3,
            "changeset": 145658979,
            "user": "Chiarant",
            "uid": 18452174,
            "tags": {
                "addr:city": "Assemini",
                "addr:postcode": "09032",
                "addr:street": "Z.i. 4, Str. Consortile Macchiareddu",
                "check_date": "2023-12-29",
                "currency:XBT": "yes",
                "description": "Produzione polistirolo espanso.",
                "email": "alexitalia@tiscali.it",
                "industrial": "packaging",
                "man_made": "works",
                "name": "Alexitalia",
                "payment:lightning": "yes",
                "payment:onchain": "yes",
                "phone": "+39 3388821215",
                "website": "https://www.alexitalia.it"
            }
        },
        {
            "type": "node",
            "id": 10239868170,
            "lat": 39.3039325,
            "lon": 9.0663264,
            "timestamp": "2025-10-20T07:29:30Z",
            "version": 2,
            "changeset": 173521183,
            "user": "btcitnet",
            "uid": 22525435,
            "tags": {
                "addr:city": "Sestu",
                "addr:postcode": "09028",
                "addr:street": "Strada comunale More Coraxe",
                "brand": "Mondadori",
                "brand:wikidata": "Q85355",
                "level": "0",
                "name": "Mondadori",
                "shop": "books"
            }
        },
        {
            "type": "node",
            "id": 10239868173,
            "lat": 39.3031879,
            "lon": 9.0659993,
            "timestamp": "2025-10-11T16:33:12Z",
            "version": 3,
            "changeset": 173145898,
            "user": "confusedbuffalo",
            "uid": 242345,
            "tags": {
                "addr:city": "Sestu",
                "addr:postcode": "09028",
                "addr:street": "Strada comunale More Coraxe",
                "brand": "Calzedonia",
                "brand:wikidata": "Q1027874",
                "level": "0",
                "name": "Calzedonia",
                "operator": "Calzedonia",
                "phone": "+39 070 22450",
                "shop": "clothes"
            }
        },
        {
            "type": "node",
            "id": 10239868175,
            "lat": 39.3050453,
            "lon": 9.066861,
            "timestamp": "2025-09-30T21:29:05Z",
            "version": 2,
            "changeset": 172680034,
            "user": "btcitnet",
            "uid": 22525435,
            "tags": {
                "addr:city": "Sestu",
                "addr:postcode": "09028",
                "addr:street": "Strada comunale More Coraxe",
                "brand": "OVS",
                "brand:wikidata": "Q2042514",
                "level": "1",
                "name": "OVS",
                "shop": "clothes"
            }
        },
        {
            "type": "node",
            "id": 10239868177,
            "lat": 39.305142,
            "lon": 9.0664405,
            "timestamp": "2025-10-08T18:36:56Z",
            "version": 2,
            "changeset": 173018627,
            "user": "btcitnet",
            "uid": 22525435,
            "tags": {
                "addr:city": "Sestu",
                "addr:postcode": "09028",
                "brand": "United Colors of Benetton",
                "brand:wikidata": "Q817139",
                "level": "1",
                "name": "United Colors of Benetton",
                "shop": "clothes",
                "short_name": "Benetton"
            }
        },
        {
            "type": "node",
            "id": 10265955495,
            "lat": 39.1427504,
            "lon": 9.5200027,
            "timestamp": "2025-09-29T07:26:25Z",
            "version": 3,
            "changeset": 172597197,
            "user": "btcitnet",
            "uid": 22525435,
            "tags": {
                "addr:city": "Villasimius",
                "addr:postcode": "09049",
                "addr:street": "Via Umberto Primo",
                "brand": "Calzedonia",
                "brand:wikidata": "Q1027874",
                "brand:wikipedia": "it:Oniverse",
                "name": "Calzedonia",
                "operator": "Calzedonia",
                "shop": "boutique"
            }
        },
        {
            "type": "node",
            "id": 10586224767,
            "lat": 39.4905968,
            "lon": 8.7617439,
            "timestamp": "2025-10-10T09:17:52Z",
            "version": 5,
            "changeset": 173084068,
            "user": "FredPencil",
            "uid": 21089936,
            "tags": {
                "addr:city": "Villacidro",
                "addr:postcode": "09039",
                "addr:street": "Strada C1",
                "brand": "Unieuro",
                "brand:wikidata": "Q4004687",
                "name": "Unieuro",
                "opening_hours": "Mo-Su 08:30-20:30",
                "operator": "Unieuro S.p.A.",
                "phone": "+39 070 931 1034",
                "shop": "electronics",
                "website": "https://www.unieuro.it/online/negozi/Unieuro-Villacidro"
            }
        },
        {
            "type": "node",
            "id": 10655976816,
            "lat": 39.5549155,
            "lon": 8.9022783,
            "timestamp": "2025-09-29T21:24:08Z",
            "version": 2,
            "changeset": 172633180,
            "user": "btcitnet",
            "uid": 22525435,
            "tags": {
                "addr:city": "Sanluri",
                "addr:housenumber": "36",
                "addr:postcode": "09025",
                "addr:street": "Viale Rinascita",
                "brand": "Upim",
                "brand:wikidata": "Q1414836",
                "name": "Upim",
                "shop": "department_store"
            }
        },
        {
            "type": "node",
            "id": 10683687772,
            "lat": 39.4920206,
            "lon": 8.9815069,
            "timestamp": "2023-02-22T00:54:12Z",
            "version": 4,
            "changeset": 132858337,
            "user": "Igor Bubelov",
            "uid": 2104834,
            "tags": {
                "addr:city": "Serrenti",
                "addr:housenumber": "44",
                "addr:postcode": "09027",
                "addr:street": "via Santa Barbara",
                "amenity": "marketplace",
                "currency:XBT": "yes",
                "name": "Sardinia Bit Mining",
                "payment:lightning": "yes",
                "payment:onchain": "yes",
                "survey:date": "2023-02-20",
                "website": "https://www.serrenti.info"
            }
        },
        {
            "type": "node",
            "id": 10683990012,
            "lat": 39.4924681,
            "lon": 8.9810833,
            "timestamp": "2023-02-24T16:53:49Z",
            "version": 2,
            "changeset": 132976827,
            "user": "Zip Sardinia",
            "uid": 2997152,
            "tags": {
                "addr:city": "Serrenti",
                "addr:housenumber": "58",
                "addr:postcode": "09027",
                "addr:street": "Via Santa Barbara",
                "amenity": "restaurant",
                "cuisine": "pizza",
                "currency:XBT": "yes",
                "name": "Pipazza Pratza Food",
                "payment:lightning": "yes",
                "payment:lightning_contactless": "no",
                "payment:onchain": "yes",
                "survey:date": "2023-02-24"
            }
        },
        {
            "type": "node",
            "id": 10817065847,
            "lat": 39.2369084,
            "lon": 9.194949,
            "timestamp": "2023-08-05T11:39:26Z",
            "version": 3,
            "changeset": 139475432,
            "user": "Igor Bubelov",
            "uid": 2104834,
            "tags": {
                "addr:city": "Quartu Sant'Elena",
                "addr:housenumber": "52",
                "addr:postcode": "09045",
                "addr:street": "Via Don Enrico Tazzoli",
                "check_date": "2023-04-16",
                "contact:facebook": "https://www.facebook.com/macelleria.antonioatzeni",
                "currency:XBT": "yes",
                "description": "Carni fresche e \"dry aged\".",
                "email": "macelleria@antonioatzeni.com",
                "name": "Macelleria Atzeni Antonio",
                "phone": "+39 3516604729",
                "shop": "butcher",
                "website": "https://macelleria.antonioatzeni.com"
            }
        },
        {
            "type": "node",
            "id": 11160429032,
            "lat": 39.2141704,
            "lon": 9.1132967,
            "timestamp": "2025-10-08T18:37:50Z",
            "version": 4,
            "changeset": 173018664,
            "user": "btcitnet",
            "uid": 22525435,
            "tags": {
                "addr:city": "Cagliari",
                "addr:housenumber": "69-73",
                "addr:postcode": "09124",
                "addr:street": "Via Sardegna",
                "brand": "Upim",
                "brand:wikidata": "Q1414836",
                "check_date": "2023-09-10",
                "name": "Upim",
                "payment:bancomat": "yes",
                "payment:mastercard": "yes",
                "payment:visa": "yes",
                "payment:visa_debit": "yes",
                "shop": "department_store"
            }
        },
        {
            "type": "node",
            "id": 11175496105,
            "lat": 39.2126829,
            "lon": 9.1148387,
            "timestamp": "2025-10-08T18:38:32Z",
            "version": 5,
            "changeset": 173018687,
            "user": "btcitnet",
            "uid": 22525435,
            "tags": {
                "addr:city": "Cagliari",
                "addr:housenumber": "11",
                "addr:postcode": "09125",
                "addr:street": "Via Roma",
                "brand": "La Feltrinelli",
                "brand:wikidata": "Q96311190",
                "check_date": "2023-09-12",
                "name": "La Feltrinelli",
                "payment:american_express": "yes",
                "payment:credit_cards": "yes",
                "payment:debit_cards": "yes",
                "payment:mastercard": "yes",
                "payment:visa": "yes",
                "shop": "books"
            }
        },
        {
            "type": "node",
            "id": 11180811940,
            "lat": 39.2166082,
            "lon": 9.1140505,
            "timestamp": "2023-09-13T21:33:25Z",
            "version": 4,
            "changeset": 141230912,
            "user": "Fradeve11",
            "uid": 37791,
            "tags": {
                "addr:city": "Cagliari",
                "addr:housenumber": "74",
                "addr:street": "Via Giuseppe Manno",
                "brand": "United Colors of Benetton",
                "brand:wikidata": "Q817139",
                "check_date": "2023-09-12",
                "clothes": "underwear",
                "name": "United Colors of Benetton",
                "shop": "clothes",
                "short_name": "Benetton"
            }
        },
        {
            "type": "node",
            "id": 11180811941,
            "lat": 39.2164862,
            "lon": 9.1142308,
            "timestamp": "2025-04-21T08:06:40Z",
            "version": 4,
            "changeset": 165224976,
            "user": "btcitnet",
            "uid": 22525435,
            "tags": {
                "addr:city": "Cagliari",
                "addr:housenumber": "64",
                "addr:street": "Via Giuseppe Manno",
                "brand": "Intimissimi",
                "brand:wikidata": "Q305404",
                "check_date": "2023-09-12",
                "clothes": "underwear",
                "name": "Intimissimi",
                "operator": "Intimissimi",
                "shop": "clothes"
            }
        },
        {
            "type": "node",
            "id": 11406465688,
            "lat": 39.2353925,
            "lon": 9.1863576,
            "timestamp": "2023-12-10T01:09:11Z",
            "version": 1,
            "changeset": 144952150,
            "user": "Rockedf",
            "uid": 7522075,
            "tags": {
                "addr:city": "Quartu Sant'Elena",
                "addr:housenumber": "33",
                "addr:postcode": "09045",
                "addr:street": "Via Luciano Manara",
                "check_date": "2023-12-09",
                "currency:XBT": "yes",
                "email": "ncubeddu@gmail.com",
                "guest_house": "guest_house",
                "name": "Suite4Relax",
                "opening_hours": "24/7",
                "payment:lightning": "yes",
                "payment:lightning_contactless": "yes",
                "payment:onchain": "yes",
                "phone": "+39 32 9192 8402",
                "tourism": "guest_house",
                "website": "https://suite4relax.com/"
            }
        },
        {
            "type": "node",
            "id": 11925747476,
            "lat": 39.2450464,
            "lon": 9.1284493,
            "timestamp": "2025-11-06T16:37:55Z",
            "version": 4,
            "changeset": 174297339,
            "user": "descubrebitcoin",
            "uid": 17565129,
            "tags": {
                "addr:city": "Cagliari",
                "addr:housenumber": "17",
                "addr:postcode": "09134",
                "addr:street": "Via Riva Villasanta",
                "amenity": "atm",
                "cash_in": "yes",
                "cash_out": "yes",
                "check_date": "2025-11-06",
                "contact:email": "support@shitcoins.club",
                "contact:facebook": "https://www.facebook.com/shitcoins.club",
                "contact:instagram": "https://www.instagram.com/shitcoinsclub",
                "contact:phone": "+39 34 8048 7308",
                "contact:telegram": "https://t.me/shitcoinsclub",
                "contact:twitter": "https://twitter.com/BitomatCom",
                "currency:DASH": "yes",
                "currency:ETH": "yes",
                "currency:EUR": "yes",
                "currency:LTC": "yes",
                "currency:USDC": "yes",
                "currency:USDT": "yes",
                "currency:XBT": "yes",
                "image": "https://shitcoins.club/resources/img/atms/IT/10.jpg",
                "indoor": "yes",
                "level": "0",
                "name": "Bitcoin ATM - Shitcoins.club",
                "opening_hours": "24/7",
                "operator": "Shitcoins.club",
                "payment:cash": "yes",
                "payment:lightning": "no",
                "payment:lightning_contactless": "no",
                "payment:onchain": "yes",
                "url": "https://coinatmradar.com/bitcoin_atm/64663/bitcoin-atm-shitcoins-club-cagliari-shitcoinsclub/",
                "website": "https://shitcoins.club/localizzazione-atm/bancomat-bitcoin-Cagliari"
            }
        },
        {
            "type": "node",
            "id": 11971358829,
            "lat": 39.2413442,
            "lon": 9.202329,
            "timestamp": "2025-10-11T16:33:12Z",
            "version": 5,
            "changeset": 173145898,
            "user": "confusedbuffalo",
            "uid": 242345,
            "tags": {
                "addr:city": "Quartu Sant'Elena",
                "addr:housenumber": "38",
                "addr:postcode": "09045",
                "addr:street": "Via Portogallo",
                "amenity": "bar",
                "check_date:currency:XBT": "2024-06-10",
                "currency:XBT": "yes",
                "name": "Handy Capp Due",
                "payment:lightning": "yes",
                "phone": "+39 070 869 6011"
            }
        },
        {
            "type": "node",
            "id": 12062070115,
            "lat": 39.3031203,
            "lon": 9.0854556,
            "timestamp": "2025-10-25T08:23:48Z",
            "version": 5,
            "changeset": 173745362,
            "user": "btcitnet",
            "uid": 22525435,
            "tags": {
                "addr:city": "Sestu",
                "addr:housenumber": "29",
                "addr:postcode": "09028",
                "addr:street": "Via Giuseppe di Vittorio",
                "amenity": "pub",
                "check_date:currency:XBT": "2024-07-08",
                "contact:facebook": "https://www.facebook.com/verticalparksardinia/",
                "contact:phone": "+39 070 204 1269",
                "currency:XBT": "yes",
                "description": "Vertical Park \u00e8 un parco avventura indoor con percorsi per grandi e piccini. Bar, bistecchiera, pinseria, paninoteca e palco per eventi live. Maxischermi.",
                "leisure": "playground",
                "name": "Vertical Park",
                "outdoor_seating": "yes",
                "payment:lightning": "yes",
                "tourism": "theme_park"
            }
        },
        {
            "type": "node",
            "id": 12063533271,
            "lat": 38.9950201,
            "lon": 8.6108906,
            "timestamp": "2025-05-16T16:41:39Z",
            "version": 4,
            "changeset": 166360034,
            "user": "Rollingcoin",
            "uid": 22836642,
            "tags": {
                "addr:city": "Sant'Anna Arresi",
                "addr:housenumber": "23",
                "addr:place": "Is Potettus",
                "addr:postcode": "09010",
                "addr:unit": "7",
                "air_conditioning": "yes",
                "check_date": "2024-07-19",
                "check_date:currency:XBT": "2025-01-04",
                "currency:XBT": "yes",
                "guest_house": "bed_and_breakfast",
                "internet_access": "yes",
                "internet_access:fee": "customers",
                "name": "Villa Arianna - Porto Pino",
                "payment:lightning": "yes",
                "payment:lightning_contactless": "yes",
                "payment:onchain": "yes",
                "phone": "+39 3926287465",
                "rooms": "3",
                "tourism": "guest_house",
                "website": "https://www.booking.com/hotel/it/villa-arianna-porto-pino-sant-anna-arresi.it.html",
                "website:1": "https://airbtc.online/properties/villa-arianna-porto-pino/"
            }
        },
        {
            "type": "node",
            "id": 12229710226,
            "lat": 39.5575917,
            "lon": 8.9002051,
            "timestamp": "2025-05-22T07:16:49Z",
            "version": 2,
            "changeset": 166597811,
            "user": "kr\u00e4ckel",
            "uid": 1092114,
            "tags": {
                "addr:city": "Sanluri",
                "addr:housenumber": "23",
                "addr:postcode": "09025",
                "addr:state": "88",
                "addr:street": "Via Sassari",
                "baby_feeding": "no",
                "branch": "di Sanluri",
                "brand": "Spar",
                "brand:wikidata": "Q610492",
                "contact:phone": "+39 070 754 9490",
                "kids_area": "no",
                "level": "0",
                "name": "Despar",
                "opening_hours": "Mo-Sa 08:00-21:00; Su 08:30-13:30; PH closed",
                "operator": "GIDIS srl",
                "organic": "yes",
                "ref:vatin": "IT00677920951",
                "shop": "supermarket",
                "toilets": "yes",
                "toilets:access": "customers",
                "toilets:wheelchair": "yes",
                "wheelchair": "yes"
            }
        },
        {
            "type": "node",
            "id": 12321369225,
            "lat": 39.2158601,
            "lon": 9.1115878,
            "timestamp": "2025-08-16T12:19:01Z",
            "version": 2,
            "changeset": 170520779,
            "user": "dan980",
            "uid": 1240942,
            "tags": {
                "addr:city": "Cagliari",
                "addr:housenumber": "26",
                "addr:postcode": "09124",
                "addr:street": "Largo Carlo Felice di Savoia",
                "currency:XBT": "yes",
                "email": "booking@sardiniadomusgroup.it",
                "guest_house": "bed_and_breakfast",
                "name": "Sardinia Domus",
                "phone": "+39 070 659 783",
                "tourism": "hotel",
                "website": "https://www.sardiniadomus.it/"
            }
        },
        {
            "type": "node",
            "id": 12321371439,
            "lat": 39.2161265,
            "lon": 9.1111194,
            "timestamp": "2024-11-18T09:15:20Z",
            "version": 2,
            "changeset": 159273695,
            "user": "mpbin",
            "uid": 21850090,
            "tags": {
                "addr:city": "Cagliari",
                "addr:housenumber": "23",
                "addr:postcode": "09124",
                "addr:street": "Via Giovanni Maria Angioy",
                "company": "construction",
                "contact:linkedin": "https://www.linkedin.com/company/acacia-edilizia/",
                "currency:XBT": "yes",
                "email": "amministrazione@acaciaedilizia.it",
                "name": "Acacia Edilizia",
                "phone": "+39 339 735 4187",
                "website": "https://acaciaedilizia.it/"
            }
        },
        {
            "type": "node",
            "id": 12321395317,
            "lat": 39.216129,
            "lon": 9.1110624,
            "timestamp": "2024-11-07T21:12:59Z",
            "version": 1,
            "changeset": 158872255,
            "user": "mpbin",
            "uid": 21850090,
            "tags": {
                "addr:city": "Cagliari",
                "addr:housenumber": "23",
                "addr:postcode": "09124",
                "addr:street": "Via Giovanni Maria Angioy",
                "currency:XBT": "yes",
                "email": "amministrazione@navitora.it",
                "name": "Navitora",
                "office": "company",
                "phone": "+39 070 467 0114",
                "phone:mobile": "+39 339 735 4187",
                "website": "https://navitora.it/"
            }
        },
        {
            "type": "node",
            "id": 12384044467,
            "lat": 39.3429211,
            "lon": 9.0205691,
            "timestamp": "2025-10-11T16:33:12Z",
            "version": 3,
            "changeset": 173145898,
            "user": "confusedbuffalo",
            "uid": 242345,
            "tags": {
                "addr:city": "San Sperate",
                "addr:postcode": "09026",
                "addr:street": "SP4",
                "currency:XBT": "yes",
                "name": "Officina Meccanica a Posto sul Posto",
                "opening_hours": "Mo-Fr 08:30-13:00,15:00-19:00",
                "payment:lightning": "yes",
                "payment:lightning_contactless": "yes",
                "payment:onchain": "yes",
                "phone": "+39 380 585 2141",
                "service:vehicle:car_repair": "yes",
                "service:vehicle:oil_change": "yes",
                "shop": "car_repair",
                "website": "https://www.officinameccanica-apostosulposto.it/",
                "wheelchair": "yes"
            }
        },
        {
            "type": "node",
            "id": 12463515387,
            "lat": 39.223572,
            "lon": 9.1221608,
            "timestamp": "2025-03-02T06:51:42Z",
            "version": 2,
            "changeset": 163110617,
            "user": "bluemywn",
            "uid": 17079474,
            "tags": {
                "addr:city": "Cagliari",
                "addr:housenumber": "85",
                "addr:postcode": "09128",
                "addr:street": "Via Francesco Cocco Ortu",
                "brand": "Trony",
                "brand:wikidata": "Q3999692",
                "name": "Trony",
                "opening_hours": "Mo-Sa 09:00-20:30; Su 10:00-13:00,16:00-20:00",
                "operator": "Trony",
                "phone": "+39 070 489088",
                "shop": "electronics"
            }
        },
        {
            "type": "node",
            "id": 12640702159,
            "lat": 39.2174514,
            "lon": 9.1264135,
            "timestamp": "2025-03-13T10:42:57Z",
            "version": 3,
            "changeset": 163564230,
            "user": "btcitnet",
            "uid": 22525435,
            "tags": {
                "addr:city": "Cagliari",
                "addr:housenumber": "16A",
                "addr:postcode": "09129",
                "addr:street": "Via Giovanni Battista Tuveri",
                "contact:facebook": "https://www.facebook.com/portadal1918/",
                "currency:XBT": "yes",
                "email": "info@porta1918.it",
                "name": "Porta 1918",
                "phone": "+39 349 1553931",
                "shop": "bakery",
                "website": "https://www.porta1918.it/"
            }
        },
        {
            "type": "node",
            "id": 12778157412,
            "lat": 39.232081,
            "lon": 9.0909196,
            "timestamp": "2025-09-29T07:27:05Z",
            "version": 2,
            "changeset": 172597225,
            "user": "btcitnet",
            "uid": 22525435,
            "tags": {
                "addr:city": "Cagliari",
                "addr:housenumber": "60",
                "addr:postcode": "09122",
                "addr:street": "Via San Simone",
                "brand": "Calzedonia",
                "brand:wikidata": "Q1027874",
                "brand:wikipedia": "it:Oniverse",
                "clothes": "underwear;swimwear",
                "name": "Calzedonia Ccle I Fenicotteri",
                "opening_hours": "Mo-Sa 09:00-21:00; Su 09:30-21:00",
                "operator": "Calzedonia",
                "phone": "+39 070 275816",
                "shop": "clothes",
                "website": "https://www.calzedonia.com/it/negozi/sardegna/cagliari/cagliari_via_san_simone_60/CW11.html"
            }
        },
        {
            "type": "node",
            "id": 13050046258,
            "lat": 39.2166848,
            "lon": 9.1139377,
            "timestamp": "2025-10-20T07:31:17Z",
            "version": 2,
            "changeset": 173521244,
            "user": "btcitnet",
            "uid": 22525435,
            "tags": {
                "addr:city": "Cagliari",
                "addr:housenumber": "88",
                "addr:postcode": "09124",
                "addr:street": "Via Giuseppe Manno",
                "brand": "Mondadori",
                "brand:wikidata": "Q85355",
                "name": "Mondadori",
                "shop": "books"
            }
        },
        {
            "type": "node",
            "id": 13242951618,
            "lat": 39.3625184,
            "lon": 9.007328,
            "timestamp": "2025-10-20T07:32:55Z",
            "version": 2,
            "changeset": 173521310,
            "user": "btcitnet",
            "uid": 22525435,
            "tags": {
                "addr:city": "San Sperate",
                "addr:housenumber": "2",
                "addr:postcode": "09026",
                "addr:street": "Via Sant'Andrea",
                "brand": "Conad",
                "brand:wikidata": "Q639075",
                "shop": "supermarket"
            }
        },
        {
            "type": "way",
            "id": 227571364,
            "timestamp": "2020-10-16T10:15:51Z",
            "version": 3,
            "changeset": 92575844,
            "user": "Fabiano Peddis",
            "uid": 1096017,
            "nodes": [
                2362322186,
                2362322191,
                2362322189,
                2362322188,
                2362322196,
                2362322193,
                2362322190,
                2362322195,
                2362322186
            ],
            "tags": {
                "addr:city": "San Sperate",
                "addr:housenumber": "km 15+250",
                "addr:postcode": "09026",
                "addr:street": "SS131",
                "brand": "Trony",
                "brand:wikidata": "Q3999692",
                "brand:wikipedia": "it:Trony",
                "building": "commercial",
                "name": "Trony",
                "shop": "electronics"
            }
        },
        {
            "type": "way",
            "id": 229324080,
            "timestamp": "2025-10-08T18:39:16Z",
            "version": 6,
            "changeset": 173018712,
            "user": "btcitnet",
            "uid": 22525435,
            "nodes": [
                2379370925,
                2379370943,
                2379370933,
                2379370931,
                2379370929,
                2379370925
            ],
            "tags": {
                "addr:city": "Flumini di Quartu Sant'Elena",
                "addr:postcode": "09045",
                "addr:street": "Viale Leonardo da Vinci",
                "amenity": "fuel",
                "brand": "Tamoil",
                "brand:wikidata": "Q706793",
                "name": "Tamoil",
                "operator": "T.D.M. S.R.L.",
                "ref:mise": "30622",
                "source:date": "2018-04-16"
            }
        },
        {
            "type": "way",
            "id": 277192357,
            "timestamp": "2025-02-22T12:19:16Z",
            "version": 5,
            "changeset": 162813937,
            "user": "bluemywn",
            "uid": 17079474,
            "nodes": [
                2817207829,
                2817209474,
                2817209768,
                2817208314,
                2817208015,
                2817207838,
                2817207829
            ],
            "tags": {
                "addr:city": "Cagliari",
                "addr:housenumber": "173",
                "addr:postcode": "09131",
                "addr:street": "Viale Guglielmo Marconi",
                "brand": "IKEA",
                "brand:wikidata": "Q54078",
                "brand:wikipedia": "en:IKEA",
                "building": "industrial",
                "name": "IKEA",
                "opening_hours": "Mo-Su 10:00-20:00",
                "operator": "Ikea Italia Retail S.r.l.",
                "shop": "furniture"
            }
        },
        {
            "type": "way",
            "id": 281459337,
            "timestamp": "2025-10-06T11:43:46Z",
            "version": 9,
            "changeset": 172909554,
            "user": "Comino",
            "uid": 6794624,
            "nodes": [
                2854114059,
                2854114000,
                2854113971,
                2854113943,
                2854113974,
                2854113939,
                2854113969,
                2854113989,
                2854114116,
                2854114096,
                2854114107,
                2854114329,
                2854114059
            ],
            "tags": {
                "addr:city": "assemini",
                "addr:housenumber": "8",
                "addr:postcode": "09032",
                "addr:street": "Via Iglesias",
                "building": "commercial",
                "check_date:currency:XBT": "2023-10-08",
                "currency:XBT": "yes",
                "mobile": "+39 342 1982874",
                "name": "Mirkoshop.com",
                "operator": "Mirko",
                "payment:visa": "yes",
                "shop": "variety_store",
                "website": "http://www.mirkoshop.com"
            }
        },
        {
            "type": "way",
            "id": 282604276,
            "timestamp": "2025-10-03T10:35:21Z",
            "version": 5,
            "changeset": 172784209,
            "user": "btcitnet",
            "uid": 22525435,
            "nodes": [
                2865452969,
                2865452961,
                2865453042,
                2865453049,
                2865452969
            ],
            "tags": {
                "addr:city": "San Gavino Monreale",
                "addr:postcode": "09037",
                "addr:street": "Via Trento",
                "amenity": "fuel",
                "brand": "Tamoil",
                "brand:wikidata": "Q706793",
                "brand:wikipedia": "en:Tamoil",
                "building": "roof",
                "layer": "1",
                "name": "Tamoil"
            }
        },
        {
            "type": "way",
            "id": 295590855,
            "timestamp": "2025-10-08T18:40:08Z",
            "version": 5,
            "changeset": 173018738,
            "user": "btcitnet",
            "uid": 22525435,
            "nodes": [
                2993290859,
                2993290846,
                1996982562,
                2993290869,
                2993290859
            ],
            "tags": {
                "addr:city": "San Sperate",
                "addr:postcode": "09026",
                "addr:street": "Via Cagliari",
                "amenity": "fuel",
                "brand": "Tamoil",
                "brand:wikidata": "Q706793",
                "brand:wikipedia": "en:Tamoil",
                "building": "roof",
                "layer": "1",
                "name": "Tamoil",
                "operator": "T.D.M. S.R.L.",
                "ref:mise": "30628",
                "source:date": "2018-04-16"
            }
        },
        {
            "type": "way",
            "id": 295768137,
            "timestamp": "2025-10-08T18:40:54Z",
            "version": 4,
            "changeset": 173018768,
            "user": "btcitnet",
            "uid": 22525435,
            "nodes": [
                2995295205,
                3755453686,
                6758835529,
                6758835536,
                6758835535,
                6758835534,
                2995295202,
                2995295203,
                2995295205
            ],
            "tags": {
                "addr:city": "Villasimius",
                "addr:postcode": "09049",
                "addr:street": "Via Raffaello",
                "brand": "Conad City",
                "brand:wikidata": "Q57543102",
                "brand:wikipedia": "it:Conad",
                "building": "supermarket",
                "name": "Conad City",
                "opening_hours": "Mo-Sa 08:00-21:00; Su 08:30-14:00,17:30-21:00",
                "shop": "supermarket",
                "wheelchair": "yes"
            }
        },
        {
            "type": "way",
            "id": 296378250,
            "timestamp": "2025-10-08T18:42:07Z",
            "version": 4,
            "changeset": 173018804,
            "user": "btcitnet",
            "uid": 22525435,
            "nodes": [
                502984208,
                3001725779,
                3001725484,
                3625862617,
                3001725915,
                502984208
            ],
            "tags": {
                "addr:city": "Pula",
                "addr:postcode": "09010",
                "brand": "Conad",
                "brand:wikidata": "Q639075",
                "brand:wikipedia": "it:Conad",
                "building": "yes",
                "name": "Conad",
                "shop": "supermarket"
            }
        },
        {
            "type": "way",
            "id": 355430532,
            "timestamp": "2025-10-08T18:42:51Z",
            "version": 4,
            "changeset": 173018834,
            "user": "btcitnet",
            "uid": 22525435,
            "nodes": [
                3610431473,
                3610431474,
                3610431475,
                3610431476,
                3610431473
            ],
            "tags": {
                "addr:city": "Maracalagonis",
                "addr:street": "Strada Statale 554 Cagliaritana",
                "amenity": "fuel",
                "brand": "Tamoil",
                "brand:wikidata": "Q706793",
                "brand:wikipedia": "en:Tamoil",
                "building": "roof",
                "name": "Tamoil",
                "operator": "Il Delano S.R.L.",
                "ref:mise": "39214",
                "source:date": "2018-04-16"
            }
        },
        {
            "type": "way",
            "id": 375876149,
            "timestamp": "2025-10-08T18:43:54Z",
            "version": 4,
            "changeset": 173018874,
            "user": "btcitnet",
            "uid": 22525435,
            "nodes": [
                3792162411,
                3792162415,
                3792162418,
                3792162419,
                3792162417,
                3792162416,
                3792162414,
                3792162411
            ],
            "tags": {
                "addr:city": "Solanas",
                "addr:postcode": "09048",
                "addr:street": "Strada Provinciale 17 di Villasimius",
                "amenity": "fuel",
                "brand": "Tamoil",
                "brand:wikidata": "Q706793",
                "brand:wikipedia": "en:Tamoil",
                "name": "Tamoil",
                "operator": "Cardia Pietro Paolo",
                "ref:mise": "28902",
                "source:date": "2018-04-16"
            }
        },
        {
            "type": "way",
            "id": 394887105,
            "timestamp": "2025-12-29T18:14:24Z",
            "version": 6,
            "changeset": 176591117,
            "user": "pagurus",
            "uid": 14069904,
            "nodes": [
                3977791495,
                3977791488,
                3977791487,
                3977791493,
                3977791495
            ],
            "tags": {
                "addr:city": "Cagliari",
                "addr:postcode": "09131",
                "addr:street": "Via dei Giudicati",
                "amenity": "fuel",
                "brand": "Q8",
                "brand:wikidata": "Q1634762",
                "brand:wikipedia": "en:Kuwait Petroleum Corporation",
                "building": "yes",
                "compressed_air": "no",
                "layer": "1",
                "name": "Q8",
                "operator": "Q8",
                "ref:mise": "28271",
                "source:date": "2018-04-16"
            }
        },
        {
            "type": "way",
            "id": 544817029,
            "timestamp": "2025-10-05T19:00:37Z",
            "version": 3,
            "changeset": 172881872,
            "user": "Fabiano Peddis",
            "uid": 1096017,
            "nodes": [
                5266135491,
                5266135490,
                5266135489,
                5266135488,
                5266135491
            ],
            "tags": {
                "addr:city": "Ballao",
                "addr:postcode": "09040",
                "addr:street": "Via Flumendosa",
                "amenity": "fuel",
                "brand": "Tamoil",
                "brand:wikidata": "Q706793",
                "building": "roof",
                "layer": "1",
                "name": "Tamoil",
                "ref:mise": "22658",
                "source:date": "2018-04-16"
            }
        },
        {
            "type": "way",
            "id": 556047127,
            "timestamp": "2025-04-20T08:50:47Z",
            "version": 8,
            "changeset": 165182800,
            "user": "btcitnet",
            "uid": 22525435,
            "nodes": [
                5364017448,
                5364017449,
                5364017450,
                5364017451,
                5364017448
            ],
            "tags": {
                "addr:city": "Cagliari",
                "addr:postcode": "09134",
                "addr:street": "Via Diego Cadello",
                "amenity": "fuel",
                "brand": "Q8",
                "brand:wikidata": "Q1634762",
                "brand:wikipedia": "en:Kuwait Petroleum Corporation",
                "building": "yes",
                "name": "Q8",
                "operator": "Q8",
                "ref:mise": "6691",
                "self_service": "yes",
                "source:date": "2018-04-16"
            }
        },
        {
            "type": "way",
            "id": 561272847,
            "timestamp": "2025-10-18T16:35:46Z",
            "version": 4,
            "changeset": 173458745,
            "user": "btcitnet",
            "uid": 22525435,
            "nodes": [
                5412363685,
                5412363684,
                5412363683,
                5412363685
            ],
            "tags": {
                "addr:city": "Selargius",
                "addr:postcode": "09047",
                "addr:street": "Via Trieste",
                "amenity": "fuel",
                "brand": "Q8",
                "brand:wikidata": "Q1634762",
                "brand:wikipedia": "en:Kuwait Petroleum Corporation",
                "name": "Q8 Delta For Fuel di Mocci Francesco",
                "operator": "Delta For Fuel di Mocci Francesco",
                "ref:mise": "29390",
                "source:date": "2018-04-16"
            }
        },
        {
            "type": "way",
            "id": 561466830,
            "timestamp": "2023-01-27T10:46:44Z",
            "version": 4,
            "changeset": 131767118,
            "user": "DnaX",
            "uid": 69259,
            "nodes": [
                5413924152,
                5413924151,
                5413924150,
                5413924149,
                5413924152
            ],
            "tags": {
                "addr:city": "Villacidro",
                "addr:postcode": "09039",
                "addr:street": "Via San Gavino Monreale",
                "amenity": "fuel",
                "brand": "Q8",
                "brand:wikidata": "Q1634762",
                "name": "Q8",
                "operator": "Lampis Vincenza",
                "ref:mise": "33548",
                "source:date": "2018-04-16"
            }
        },
        {
            "type": "way",
            "id": 571767050,
            "timestamp": "2025-10-08T18:45:10Z",
            "version": 4,
            "changeset": 173018926,
            "user": "btcitnet",
            "uid": 22525435,
            "nodes": [
                5494373616,
                5494373613,
                5494373611,
                5494373612,
                5494373614,
                5494373615,
                5494373616
            ],
            "tags": {
                "addr:city": "Assemini",
                "addr:postcode": "09032",
                "addr:street": "Via Carmine",
                "amenity": "fuel",
                "brand": "Q8",
                "brand:wikidata": "Q1634762",
                "building": "roof",
                "layer": "1",
                "name": "Q8",
                "operator": "Servizi & Gestioni Italia S.R.L.",
                "ref:mise": "40636",
                "source:date": "2018-04-16"
            }
        },
        {
            "type": "way",
            "id": 694782767,
            "timestamp": "2025-10-11T16:33:12Z",
            "version": 9,
            "changeset": 173145898,
            "user": "confusedbuffalo",
            "uid": 242345,
            "nodes": [
                6525157143,
                6525157144,
                6525157145,
                6525157146,
                6525157147,
                6525157143
            ],
            "tags": {
                "addr:city": "Sestu",
                "addr:postcode": "09028",
                "addr:street": "Localit\u00e0 Scala Sa Perda",
                "brand": "Mondo Convenienza",
                "brand:wikidata": "Q55830962",
                "building": "retail",
                "check_date:currency:XBT": "2023-07-31",
                "currency:XBT": "yes",
                "name": "Mondo Convenienza",
                "payment:lightning": "yes",
                "payment:lightning_contactless": "yes",
                "payment:onchain": "yes",
                "phone": "+39 06 91515",
                "shop": "furniture",
                "website": "http://www.mondoconv.it/"
            }
        },
        {
            "type": "way",
            "id": 1039590906,
            "timestamp": "2025-10-03T10:37:19Z",
            "version": 2,
            "changeset": 172784290,
            "user": "btcitnet",
            "uid": 22525435,
            "nodes": [
                9572872844,
                9572872845,
                9572872846,
                9572872847,
                9572872844
            ],
            "tags": {
                "addr:city": "Sestu",
                "addr:postcode": "09028",
                "addr:street": "Via Iglesias",
                "brand": "Conad",
                "brand:wikidata": "Q639075",
                "brand:wikipedia": "it:Conad",
                "building": "yes",
                "name": "Conad",
                "shop": "supermarket"
            }
        },
        {
            "type": "way",
            "id": 1043755653,
            "timestamp": "2025-12-02T16:28:17Z",
            "version": 3,
            "changeset": 175410300,
            "user": "aboc",
            "uid": 21696131,
            "nodes": [
                3816218883,
                13348123824,
                2817149810,
                12728221985,
                2817149856,
                9605651749,
                9605651750,
                12728221986,
                3816218883
            ],
            "tags": {
                "addr:city": "Cagliari",
                "addr:housenumber": "143",
                "addr:street": "Via Roma",
                "air_conditioning": "yes",
                "brand": "La Rinascente",
                "brand:wikidata": "Q1050061",
                "brand:wikipedia": "it:Rinascente",
                "building": "yes",
                "building:levels": "7",
                "internet_access": "wlan",
                "name": "La Rinascente",
                "shop": "department_store",
                "website": "https://www.rinascente.it/it/store-cagliari",
                "wheelchair": "yes"
            }
        },
        {
            "type": "relation",
            "id": 13050767,
            "timestamp": "2025-10-08T18:46:05Z",
            "version": 2,
            "changeset": 173018962,
            "user": "btcitnet",
            "uid": 22525435,
            "members": [
                {
                    "type": "way",
                    "ref": 311315639,
                    "role": "outer"
                },
                {
                    "type": "way",
                    "ref": 970044509,
                    "role": "outer"
                }
            ],
            "tags": {
                "addr:city": "Masainas",
                "addr:postcode": "09010",
                "addr:street": "Via Roma",
                "amenity": "fuel",
                "brand": "Tamoil",
                "brand:wikidata": "Q706793",
                "brand:wikipedia": "en:Tamoil",
                "name": "Tamoil",
                "operator": "Ornella Carburanti di Mascia Albertina e G. S.N.C.",
                "ref:mise": "15405",
                "source:date": "2018-04-16",
                "type": "multipolygon"
            }
        }
    ],
    "telegram": []
}