{
    "id": "ss-puglia",
    "name": "Satoshi Spritz Puglia",
    "lng": 41.12559562,
    "lat": 16.86737016,
    "localita": "Puglia",
    "idlocalita": "puglia",
    "telegram_weburl": "https://web.telegram.org/a/#-1001876214322",
    "telegram_app": "https://t.me/SatoshiSpritzPuglia",
    "telegram_members": 26.0,
    "network": "satoshispritz",
    "poi": [
        {
            "type": "node",
            "id": 1360130234,
            "lat": 41.1927528,
            "lon": 16.481541,
            "timestamp": "2025-10-06T19:45:57Z",
            "version": 4,
            "changeset": 172931599,
            "user": "btcitnet",
            "uid": 22525435,
            "tags": {
                "addr:city": "Bisceglie",
                "addr:postcode": "76011",
                "addr:street": "Autostrada Adriatica",
                "amenity": "fuel",
                "brand": "Tamoil",
                "brand:wikidata": "Q706793",
                "name": "Dolmen di Bisceglie ovst",
                "operator": "Sarni S.R.L.",
                "ref:mise": "38500"
            }
        },
        {
            "type": "node",
            "id": 1369021847,
            "lat": 41.1432522,
            "lon": 16.4033735,
            "timestamp": "2025-09-28T20:04:32Z",
            "version": 3,
            "changeset": 172582980,
            "user": "btcitnet",
            "uid": 22525435,
            "tags": {
                "addr:city": "Corato",
                "addr:housenumber": "131",
                "addr:postcode": "70033",
                "addr:street": "Via Castel del Monte",
                "brand": "Trony",
                "brand:wikidata": "Q3999692",
                "brand:wikipedia": "it:Trony",
                "name": "Trony",
                "operator": "Trony",
                "shop": "electronics"
            }
        },
        {
            "type": "node",
            "id": 1664404816,
            "lat": 41.0992143,
            "lon": 16.8303008,
            "timestamp": "2025-09-27T18:42:15Z",
            "version": 7,
            "changeset": 172540109,
            "user": "btcitnet",
            "uid": 22525435,
            "tags": {
                "addr:city": "Bari",
                "addr:street": "Strada Santa Caterina",
                "brand": "OVS",
                "brand:wikidata": "Q2042514",
                "brand:wikipedia": "it:OVS",
                "clothes": "women;men;children;fashion;denim;underwear",
                "name": "OVS",
                "operator": "OVS",
                "second_hand": "no",
                "shop": "clothes",
                "website": "https://www.ovs.it/"
            }
        },
        {
            "type": "node",
            "id": 1733834634,
            "lat": 41.1062,
            "lon": 16.9164799,
            "timestamp": "2022-09-30T15:13:52Z",
            "version": 3,
            "changeset": 126827652,
            "user": "Flight777",
            "uid": 9925732,
            "tags": {
                "amenity": "fuel",
                "brand": "Q8",
                "brand:wikidata": "Q1634762",
                "name": "Q8",
                "operator": "Marolla Group S.A.S. di Marolla Giuseppe",
                "ref:mise": "32113"
            }
        },
        {
            "type": "node",
            "id": 2144740007,
            "lat": 41.1154391,
            "lon": 16.819014,
            "timestamp": "2025-09-28T18:08:54Z",
            "version": 7,
            "changeset": 172579111,
            "user": "btcitnet",
            "uid": 22525435,
            "tags": {
                "addr:city": "Bari",
                "addr:postcode": "70132",
                "addr:street": "Viale Francesco de Blasio",
                "brand": "OVS",
                "brand:wikidata": "Q2042514",
                "brand:wikipedia": "it:OVS",
                "name": "OVS",
                "operator": "OVS",
                "shop": "clothes"
            }
        },
        {
            "type": "node",
            "id": 2335104809,
            "lat": 41.1232368,
            "lon": 16.869419,
            "timestamp": "2024-11-16T22:04:19Z",
            "version": 9,
            "changeset": 159224083,
            "user": "Caramell",
            "uid": 21836575,
            "tags": {
                "addr:city": "Bari",
                "addr:housename": "Palazzo Mincuzzi",
                "addr:housenumber": "65",
                "addr:postcode": "70121",
                "addr:street": "Via Nicol\u00f2 Putignani",
                "brand": "United Colors of Benetton",
                "brand:wikidata": "Q817139",
                "check_date": "2024-11-16",
                "clothes": "women;men;children",
                "name": "United Colors of Benetton",
                "opening_hours": "Mo-Sa 09:30-20:30; Su 10:00-20:30",
                "operator": "Primavera Retail s.r.l.",
                "payment:cash": "yes",
                "payment:credit_cards": "yes",
                "payment:debit_cards": "yes",
                "phone": "+39 080 2194611",
                "shop": "clothes",
                "short_name": "Benetton",
                "source": "survey",
                "stroller": "yes",
                "website": "https://it.benetton.com/",
                "wheelchair": "yes"
            }
        },
        {
            "type": "node",
            "id": 2740095500,
            "lat": 41.1180877,
            "lon": 16.5501038,
            "timestamp": "2025-07-13T19:24:17Z",
            "version": 4,
            "changeset": 168887900,
            "user": "Clown Pennywise",
            "uid": 23064242,
            "tags": {
                "addr:city": "Terlizzi",
                "addr:postcode": "70038",
                "addr:street": "Strada Provinciale Terlizzi - Mariotto",
                "amenity": "fuel",
                "brand": "Tamoil",
                "brand:wikidata": "Q706793",
                "fuel:diesel": "yes",
                "fuel:lpg": "yes",
                "name": "Ulivi di San Giuliano",
                "operator": "Multienergia e Servizi Societ\u00e0 a Responsabilit\u00e0 Limitata",
                "ref:mise": "13963"
            }
        },
        {
            "type": "node",
            "id": 2792033770,
            "lat": 41.1329206,
            "lon": 16.5450759,
            "timestamp": "2025-09-28T06:20:03Z",
            "version": 8,
            "changeset": 172552489,
            "user": "btcitnet",
            "uid": 22525435,
            "tags": {
                "addr:city": "Terlizzi",
                "addr:postcode": "70038",
                "addr:street": "Viale dei Garofani",
                "brand": "Unieuro",
                "brand:wikidata": "Q4004687",
                "brand:wikipedia": "en:Unieuro",
                "disused:shop": "electronics",
                "name": "Unieuro",
                "operator": "Unieuro S.p.A.",
                "wheelchair": "yes"
            }
        },
        {
            "type": "node",
            "id": 3789064057,
            "lat": 40.89439,
            "lon": 16.7667609,
            "timestamp": "2023-07-10T11:36:04Z",
            "version": 5,
            "changeset": 138333575,
            "user": "saunter",
            "uid": 10396321,
            "tags": {
                "addr:city": "Cassano delle Murge",
                "addr:postcode": "70020",
                "addr:street": "Via Bitetto",
                "check_date:currency:XBT": "2023-07-10",
                "currency:XBT": "yes",
                "description": "L'azienda nasce nel 2007 a Cassano delle Murge, gi\u00e0 nota come \"Citt\u00e0 dell'Olio\" e sita nel cuore del Parco Nazionale dell'Alta Murgia, provincia di Bari.",
                "email": "giuseppe.grisorio@gmail.com",
                "name": "Grisolio - Azienda Agricola Foresta",
                "phone": "+39 3487121054",
                "shop": "farm"
            }
        },
        {
            "type": "node",
            "id": 3891430295,
            "lat": 41.0027982,
            "lon": 16.9022999,
            "timestamp": "2022-11-29T16:09:29Z",
            "version": 5,
            "changeset": 129527766,
            "user": "Francesco Bruno",
            "uid": 13396306,
            "tags": {
                "amenity": "fuel",
                "brand": "Q8",
                "brand:wikidata": "Q1634762",
                "name": "Dill's",
                "operator": "Ip Services S.R.L.",
                "ref:mise": "35562",
                "self_service": "yes"
            }
        },
        {
            "type": "node",
            "id": 3895607217,
            "lat": 41.1146256,
            "lon": 16.8731038,
            "timestamp": "2025-10-11T15:16:22Z",
            "version": 4,
            "changeset": 173142518,
            "user": "btcitnet",
            "uid": 22525435,
            "tags": {
                "addr:city": "Bari",
                "addr:housenumber": "55,57",
                "addr:postcode": "70010",
                "addr:street": "Viale Unit\u00e0 d'Italia",
                "brand": "Conad City",
                "brand:wikidata": "Q57543102",
                "name": "Conad City",
                "operator": "CONAD La Perla S.R.L.",
                "shop": "supermarket"
            }
        },
        {
            "type": "node",
            "id": 4407114789,
            "lat": 41.1225422,
            "lon": 16.8712829,
            "timestamp": "2025-04-29T08:34:54Z",
            "version": 9,
            "changeset": 165580431,
            "user": "Caramell",
            "uid": 21836575,
            "tags": {
                "addr:city": "Bari",
                "addr:housenumber": "119",
                "addr:postcode": "70121",
                "addr:street": "Via Melo da Bari",
                "brand": "La Feltrinelli",
                "brand:wikidata": "Q96311190",
                "contact:phone": "+30 02 91947777",
                "name": "La Feltrinelli",
                "opening_hours": "Mo-Sa 09:00-21:00; Su,PH 10:00-21:00",
                "shop": "books"
            }
        },
        {
            "type": "node",
            "id": 4441431168,
            "lat": 40.8951596,
            "lon": 16.8384673,
            "timestamp": "2025-10-25T15:42:17Z",
            "version": 4,
            "changeset": 173761743,
            "user": "confusedbuffalo",
            "uid": 242345,
            "tags": {
                "addr:city": "Acquaviva delle Fonti",
                "addr:postcode": "70021",
                "addr:street": "Via Arcivescovo Giacomo Palombella",
                "air_conditioning": "yes",
                "brand": "Spar",
                "brand:wikidata": "Q610492",
                "name": "Despar",
                "opening_hours": "Mo-Sa 08:00-13:30,16:45-20:45; Su 08:30-13:00",
                "payment:cash": "yes",
                "payment:credit_cards": "yes",
                "phone": "+39 080 305 0462",
                "shop": "supermarket",
                "stroller": "yes",
                "wheelchair": "yes"
            }
        },
        {
            "type": "node",
            "id": 4441442780,
            "lat": 40.894705,
            "lon": 16.8433354,
            "timestamp": "2025-10-26T15:03:26Z",
            "version": 3,
            "changeset": 173798803,
            "user": "btcitnet",
            "uid": 22525435,
            "tags": {
                "addr:city": "Acquaviva delle Fonti",
                "addr:housenumber": "55",
                "addr:postcode": "70021",
                "addr:street": "Via Domenico Antonio Mele",
                "brand": "Spar",
                "brand:wikidata": "Q610492",
                "name": "Despar",
                "phone": "+39 080 758813",
                "shop": "supermarket"
            }
        },
        {
            "type": "node",
            "id": 4792167763,
            "lat": 41.2345781,
            "lon": 16.5059282,
            "timestamp": "2025-10-11T15:09:10Z",
            "version": 9,
            "changeset": 173142118,
            "user": "btcitnet",
            "uid": 22525435,
            "tags": {
                "addr:city": "Nola",
                "addr:postcode": "80035",
                "addr:street": "Via Vittorio Veneto",
                "amenity": "fuel",
                "brand": "Tamoil",
                "brand:wikidata": "Q706793",
                "compressed_air": "yes",
                "name": "Tamoil",
                "opening_hours": "Mo-Sa 04:00-20:00; Su 04:00-10:00",
                "operator": "P. & P. Brothers S.A.S. di Rana Antonio e Mastrodonato Gennaro & C.",
                "ref:mise": "19700",
                "self_service": "yes",
                "wheelchair": "yes"
            }
        },
        {
            "type": "node",
            "id": 4998901322,
            "lat": 41.1180478,
            "lon": 16.8710118,
            "timestamp": "2024-05-31T10:37:51Z",
            "version": 9,
            "changeset": 152074151,
            "user": "Alexis04132",
            "uid": 20509407,
            "tags": {
                "addr:city": "Bari",
                "addr:housenumber": "49",
                "addr:place": "Piazza Aldo Moro",
                "addr:postcode": "70122",
                "brand": "Spar",
                "brand:wikidata": "Q610492",
                "diet:halal": "no",
                "diet:kosher": "no",
                "name": "Despar",
                "name:it": "Despar",
                "opening_hours": "Mo-Su 08:00-13:00, 15:00-21:00",
                "shop": "supermarket",
                "wheelchair": "yes"
            }
        },
        {
            "type": "node",
            "id": 5026717890,
            "lat": 41.2154958,
            "lon": 16.5474213,
            "timestamp": "2025-10-05T16:12:54Z",
            "version": 3,
            "changeset": 172875342,
            "user": "btcitnet",
            "uid": 22525435,
            "tags": {
                "addr:city": "Molfetta",
                "addr:postcode": "70056",
                "brand": "Guess",
                "brand:wikidata": "Q2470307",
                "name": "Guess",
                "shop": "clothes"
            }
        },
        {
            "type": "node",
            "id": 5026721776,
            "lat": 41.2152525,
            "lon": 16.5478486,
            "timestamp": "2024-01-01T15:52:50Z",
            "version": 2,
            "changeset": 145766681,
            "user": "Italian Technology",
            "uid": 10622815,
            "tags": {
                "brand": "United Colors of Benetton",
                "brand:wikidata": "Q817139",
                "name": "United Colors of Benetton",
                "shop": "clothes",
                "short_name": "Benetton"
            }
        },
        {
            "type": "node",
            "id": 5026887065,
            "lat": 41.2177986,
            "lon": 16.5453455,
            "timestamp": "2024-01-01T15:52:50Z",
            "version": 2,
            "changeset": 145766681,
            "user": "Italian Technology",
            "uid": 10622815,
            "tags": {
                "brand": "Calzedonia",
                "brand:wikidata": "Q1027874",
                "name": "Calzedonia Outlet",
                "shop": "clothes"
            }
        },
        {
            "type": "node",
            "id": 5282499957,
            "lat": 41.2702185,
            "lon": 16.4222127,
            "timestamp": "2025-10-26T15:20:01Z",
            "version": 3,
            "changeset": 173799576,
            "user": "btcitnet",
            "uid": 22525435,
            "tags": {
                "addr:city": "Trani",
                "addr:postcode": "76125",
                "addr:street": "Via Istria",
                "brand": "Spar",
                "brand:wikidata": "Q610492",
                "name": "Eurospar",
                "shop": "supermarket"
            }
        },
        {
            "type": "node",
            "id": 5383383308,
            "lat": 41.1251843,
            "lon": 16.8695225,
            "timestamp": "2025-08-26T17:50:21Z",
            "version": 8,
            "changeset": 171043559,
            "user": "Alexis04132",
            "uid": 20509407,
            "tags": {
                "addr:city": "Bari",
                "addr:housenumber": "24",
                "addr:postcode": "70122",
                "addr:street": "Via Sparano da Bari",
                "brand": "H&M",
                "brand:wikidata": "Q188326",
                "name": "H&M",
                "opening_hours": "Mo-Fr 10:00-20:30; Sa-Su 10:00,21:00",
                "shop": "clothes",
                "website": "https://www.hm.com",
                "wheelchair": "yes"
            }
        },
        {
            "type": "node",
            "id": 5666387462,
            "lat": 41.1213138,
            "lon": 16.8723309,
            "timestamp": "2024-06-01T12:56:22Z",
            "version": 4,
            "changeset": 152120125,
            "user": "Alexis04132",
            "uid": 20509407,
            "tags": {
                "addr:city": "Bari",
                "addr:housenumber": "153",
                "addr:postcode": "70121",
                "addr:street": "Corso Cavour",
                "brand": "Bottega Verde",
                "brand:wikidata": "Q894870",
                "name": "Bottega Verde",
                "phone": "+39 0805248245",
                "shop": "cosmetics",
                "website": "https://www.bottegaverde.com/it-it/storelocator/bari/bari_ba_cso_cavour_153"
            }
        },
        {
            "type": "node",
            "id": 5666387470,
            "lat": 41.1217892,
            "lon": 16.8722763,
            "timestamp": "2024-06-01T11:26:22Z",
            "version": 4,
            "changeset": 152116686,
            "user": "Alexis04132",
            "uid": 20509407,
            "tags": {
                "addr:city": "Bari",
                "addr:housenumber": "137",
                "addr:postcode": "70121",
                "addr:street": "Corso Cavour",
                "brand": "Calzedonia",
                "brand:wikidata": "Q1027874",
                "name": "Calzedonia",
                "phone": "+39 0805241044",
                "shop": "clothes",
                "website": "https://www.calzedonia.com/it/negozi/puglia/bari/bari_corso_conte_camillo_benso_di_cavour_137/CAF3.html"
            }
        },
        {
            "type": "node",
            "id": 5666387485,
            "lat": 41.1229383,
            "lon": 16.8721456,
            "timestamp": "2024-06-01T11:26:22Z",
            "version": 4,
            "changeset": 152116686,
            "user": "Alexis04132",
            "uid": 20509407,
            "tags": {
                "addr:city": "Bari",
                "addr:housenumber": "101",
                "addr:postcode": "70121",
                "addr:street": "Corso Cavour",
                "brand": "Foot Locker",
                "brand:wikidata": "Q63335",
                "name": "Foot Locker",
                "phone": "+39 0809198981",
                "shop": "shoes",
                "website": "https://stores.footlocker.it/it/it-75/bari/corso-cavour-99-101-57_31_06229.html"
            }
        },
        {
            "type": "node",
            "id": 5666387488,
            "lat": 41.1231935,
            "lon": 16.8721186,
            "timestamp": "2024-06-01T07:33:17Z",
            "version": 3,
            "changeset": 152108478,
            "user": "Alexis04132",
            "uid": 20509407,
            "tags": {
                "addr:city": "Bari",
                "addr:housenumber": "93",
                "addr:postcode": "70121",
                "addr:street": "Corso Cavour",
                "brand": "Tezenis",
                "brand:wikidata": "Q28056374",
                "clothes": "women;underwear;swimwear;men;children",
                "name": "Tezenis",
                "phone": "+39 0805289504",
                "shop": "clothes",
                "website": "https://www.tezenis.com/"
            }
        },
        {
            "type": "node",
            "id": 5851837746,
            "lat": 40.8544552,
            "lon": 17.1146233,
            "timestamp": "2025-10-18T22:00:07Z",
            "version": 3,
            "changeset": 173469072,
            "user": "btcitnet",
            "uid": 22525435,
            "tags": {
                "addr:city": "Putignano",
                "addr:postcode": "70017",
                "addr:street": "Via Turi",
                "amenity": "fuel",
                "brand": "Q8",
                "brand:wikidata": "Q1634762",
                "name": "Q8",
                "operator": "Servizi & Gestioni Italia S.R.L.",
                "ref:mise": "30119"
            }
        },
        {
            "type": "node",
            "id": 5851839902,
            "lat": 40.8157637,
            "lon": 16.5535802,
            "timestamp": "2025-10-22T18:47:40Z",
            "version": 3,
            "changeset": 173642973,
            "user": "btcitnet",
            "uid": 22525435,
            "tags": {
                "addr:city": "Altamura",
                "addr:housenumber": "KM.1",
                "addr:postcode": "70022",
                "addr:street": "Via Matera",
                "amenity": "fuel",
                "brand": "Q8",
                "brand:wikidata": "Q1634762",
                "brand:wikipedia": "en:Kuwait Petroleum Corporation",
                "name": "Q8",
                "operator": "Zienna Domenico",
                "ref:mise": "27402"
            }
        },
        {
            "type": "node",
            "id": 5851842332,
            "lat": 40.7992713,
            "lon": 17.1174804,
            "timestamp": "2025-10-22T18:41:52Z",
            "version": 3,
            "changeset": 173642790,
            "user": "btcitnet",
            "uid": 22525435,
            "tags": {
                "addr:city": "Noci",
                "addr:postcode": "70015",
                "addr:street": "Via Tommaso Siciliani",
                "amenity": "fuel",
                "brand": "Q8",
                "brand:wikidata": "Q1634762",
                "name": "Q8",
                "operator": "Servizi & Gestioni Italia S.R.L.",
                "ref:mise": "23187"
            }
        },
        {
            "type": "node",
            "id": 6434715620,
            "lat": 41.1311142,
            "lon": 16.5525112,
            "timestamp": "2025-10-16T09:27:32Z",
            "version": 10,
            "changeset": 173355875,
            "user": "Clown Pennywise",
            "uid": 23064242,
            "tags": {
                "addr:city": "Terlizzi",
                "addr:country": "IT",
                "addr:postcode": "70038",
                "addr:street": "Viale Federico Secondo",
                "air_conditioning": "yes",
                "branch": "282",
                "brand": "PittaRosso",
                "brand:wikidata": "Q105643314",
                "check_date": "2025-07-26",
                "name": "PittaRosso",
                "operator": "PittaRosso s.p.a.",
                "payment:mastercard": "yes",
                "payment:visa": "yes",
                "phone": "+39 0809141091",
                "second_hand": "no",
                "shoes": "women;children;men;sport",
                "shop": "shoes",
                "website": "https://www.pittarosso.com",
                "wheelchair": "yes"
            }
        },
        {
            "type": "node",
            "id": 7061282385,
            "lat": 40.8476856,
            "lon": 17.1196663,
            "timestamp": "2025-10-26T15:42:31Z",
            "version": 3,
            "changeset": 173800582,
            "user": "btcitnet",
            "uid": 22525435,
            "tags": {
                "addr:city": "Putignano",
                "addr:postcode": "70017",
                "addr:street": "Via Giuseppe Albano",
                "brand": "Spar",
                "brand:wikidata": "Q610492",
                "brand:wikipedia": "en:Spar (retailer)",
                "name": "Despar",
                "shop": "supermarket"
            }
        },
        {
            "type": "node",
            "id": 7820263786,
            "lat": 41.1197656,
            "lon": 16.8700492,
            "timestamp": "2025-01-14T10:38:00Z",
            "version": 9,
            "changeset": 161339781,
            "user": "DnaX",
            "uid": 69259,
            "tags": {
                "addr:city": "Bari",
                "addr:housenumber": "158",
                "addr:postcode": "70121",
                "addr:street": "Via Sparano da Bari",
                "air_conditioning": "yes",
                "brand": "GrandVision",
                "brand:wikidata": "Q105644278",
                "check_date": "2024-10-21",
                "check_date:opening_hours": "2024-10-21",
                "name": "GrandVision",
                "opening_hours": "Mo-Sa 09:30-13:30,16:00-20:00",
                "operator": "Optissimo",
                "payment:cash": "yes",
                "payment:coins": "yes",
                "payment:credit_cards": "yes",
                "second_hand": "no",
                "shop": "optician",
                "source": "survey",
                "stroller": "no",
                "wheelchair": "limited"
            }
        },
        {
            "type": "node",
            "id": 7820263787,
            "lat": 41.1232285,
            "lon": 16.8697124,
            "timestamp": "2024-01-08T20:54:01Z",
            "version": 4,
            "changeset": 146043339,
            "user": "Alexis04132",
            "uid": 20509407,
            "tags": {
                "addr:city": "Bari",
                "addr:housenumber": "94",
                "addr:postcode": "70121",
                "addr:street": "Via Sparano da Bari",
                "brand": "Intimissimi",
                "brand:wikidata": "Q305404",
                "clothes": "underwear",
                "name": "Intimissimi",
                "shop": "clothes",
                "wheelchair": "limited"
            }
        },
        {
            "type": "node",
            "id": 8024859023,
            "lat": 41.1216143,
            "lon": 16.8751523,
            "timestamp": "2024-04-14T09:32:23Z",
            "version": 5,
            "changeset": 149983819,
            "user": "Chiarant",
            "uid": 18452174,
            "tags": {
                "addr:city": "Bari",
                "addr:housenumber": "77",
                "addr:postcode": "70121",
                "addr:street": "Via Cardassi",
                "amenity": "atm",
                "check_date": "2024-04-14",
                "currency:XBT": "yes",
                "description": "Bitcoin ATM che permette di acquistare Bitcoin, Ethereum, Litecoin, Dogecoin, Bitcoin Cash, Dash, Monero. L'ATM \u00e8 situato all'interno del negozio Bear Bush.",
                "email": "support@cryptolocalatm.com",
                "name": "CryptoLocalATM C/o Bear Bush",
                "payment:onchain": "yes",
                "phone": "+447894438974",
                "website": "https://cryptolocalatm.com"
            }
        },
        {
            "type": "node",
            "id": 8589408837,
            "lat": 40.7980213,
            "lon": 16.7566187,
            "timestamp": "2021-04-03T12:22:35Z",
            "version": 1,
            "changeset": 102233893,
            "user": "RosaColacicco",
            "uid": 2783807,
            "tags": {
                "brand": "Spar",
                "brand:wikidata": "Q610492",
                "brand:wikipedia": "en:Spar (retailer)",
                "name": "Despar",
                "shop": "supermarket"
            }
        },
        {
            "type": "node",
            "id": 9111450785,
            "lat": 41.2372071,
            "lon": 16.4988027,
            "timestamp": "2023-08-21T13:57:52Z",
            "version": 3,
            "changeset": 140184130,
            "user": "George Sears",
            "uid": 19558353,
            "tags": {
                "addr:city": "Bisceglie",
                "addr:country": "IT",
                "addr:housenumber": "9",
                "addr:postcode": "76011",
                "addr:province": "Barletta-Andria-Trani",
                "addr:street": "Via Ariosto",
                "brand": "Spar",
                "brand:wikidata": "Q610492",
                "name": "Despar",
                "shop": "supermarket"
            }
        },
        {
            "type": "node",
            "id": 9711220009,
            "lat": 41.2041275,
            "lon": 16.5543347,
            "timestamp": "2025-01-06T14:12:31Z",
            "version": 9,
            "changeset": 161059758,
            "user": "mpbin",
            "uid": 21850090,
            "tags": {
                "brand": "MediaWorld",
                "brand:wikidata": "Q2381223",
                "check_date": "2023-11-23",
                "name": "MediaWorld",
                "operator": "Mediamarket S.p.A.",
                "shop": "electronics"
            }
        },
        {
            "type": "node",
            "id": 9767657576,
            "lat": 40.9682953,
            "lon": 16.9252947,
            "timestamp": "2023-03-06T18:55:52Z",
            "version": 2,
            "changeset": 133375885,
            "user": "DnaX",
            "uid": 69259,
            "tags": {
                "brand": "Guess",
                "brand:wikidata": "Q2470307",
                "name": "Guess",
                "phone": "+39 080 697 7183",
                "shop": "clothes"
            }
        },
        {
            "type": "node",
            "id": 9767657578,
            "lat": 40.969715,
            "lon": 16.9243997,
            "timestamp": "2025-02-18T15:13:08Z",
            "version": 5,
            "changeset": 162665255,
            "user": "SpaceshipAlex",
            "uid": 7043543,
            "tags": {
                "brand": "MediaWorld",
                "brand:wikidata": "Q2381223",
                "name": "MediaWorld",
                "opening_hours": "Mo-Su 09:00-21:00",
                "operator": "MediaMarket S.p.A.",
                "phone": "+39 080 457 7211",
                "shop": "electronics"
            }
        },
        {
            "type": "node",
            "id": 9767657580,
            "lat": 40.9681309,
            "lon": 16.9241756,
            "timestamp": "2023-03-06T18:55:52Z",
            "version": 2,
            "changeset": 133375885,
            "user": "DnaX",
            "uid": 69259,
            "tags": {
                "brand": "H&M",
                "brand:wikidata": "Q188326",
                "name": "H&M",
                "shop": "clothes"
            }
        },
        {
            "type": "node",
            "id": 9767657581,
            "lat": 40.9669067,
            "lon": 16.9243681,
            "timestamp": "2025-10-17T18:43:15Z",
            "version": 4,
            "changeset": 173424106,
            "user": "btcitnet",
            "uid": 22525435,
            "tags": {
                "addr:city": "Casamassima",
                "addr:housenumber": "2",
                "addr:postcode": "70010",
                "addr:street": "Via Noicattaro",
                "brand": "OVS",
                "brand:wikidata": "Q2042514",
                "name": "OVS",
                "shop": "clothes"
            }
        },
        {
            "type": "node",
            "id": 9767657582,
            "lat": 40.9674506,
            "lon": 16.9246455,
            "timestamp": "2025-10-16T09:39:03Z",
            "version": 3,
            "changeset": 173356413,
            "user": "btcitnet",
            "uid": 22525435,
            "tags": {
                "addr:city": "Casamassima",
                "addr:postcode": "70010",
                "addr:street": "Via Noicattaro",
                "brand": "Calzedonia",
                "brand:wikidata": "Q1027874",
                "name": "Calzedonia",
                "phone": "+39 080 697 0259",
                "shop": "clothes"
            }
        },
        {
            "type": "node",
            "id": 9767657588,
            "lat": 40.968428,
            "lon": 16.9245522,
            "timestamp": "2023-03-06T18:55:52Z",
            "version": 2,
            "changeset": 133375885,
            "user": "DnaX",
            "uid": 69259,
            "tags": {
                "brand": "Intimissimi",
                "brand:wikidata": "Q305404",
                "clothes": "underwear",
                "name": "Intimissimi",
                "phone": "+39 080 697 0500",
                "shop": "clothes"
            }
        },
        {
            "type": "node",
            "id": 9885729062,
            "lat": 41.2464439,
            "lon": 16.2967403,
            "timestamp": "2025-10-11T15:08:26Z",
            "version": 7,
            "changeset": 173142078,
            "user": "btcitnet",
            "uid": 22525435,
            "tags": {
                "addr:city": "Andria",
                "addr:postcode": "76123",
                "brand": "H&M",
                "brand:wikidata": "Q188326",
                "email": "info@hm.com",
                "name": "H&M",
                "opening_hours": "Mo-Sa 09:00-21:00; Su 10:00-21:00",
                "phone": "+39 800 599 155",
                "shop": "clothes",
                "survey:date": "2023-11-21",
                "website": "https://www2.hm.com/it_it/",
                "wheelchair": "yes"
            }
        },
        {
            "type": "node",
            "id": 9885729065,
            "lat": 41.2464665,
            "lon": 16.2964339,
            "timestamp": "2025-11-05T21:00:48Z",
            "version": 7,
            "changeset": 174259797,
            "user": "btcitnet",
            "uid": 22525435,
            "tags": {
                "addr:city": "Andria",
                "addr:postcode": "76123",
                "brand": "Salmoiraghi & Vigan\u00f2",
                "brand:wikidata": "Q21272314",
                "email": "info@salmoiraghievigano.it",
                "name": "Salmoiraghi & Vigan\u00f2",
                "opening_hours": "Mo-Sa 09:00-21:00; Su 10:00-21:00",
                "phone": "+39 0883 592918",
                "shop": "optician",
                "survey:date": "2023-11-21",
                "website": "https://www.salmoiraghievigano.it/",
                "wheelchair": "yes"
            }
        },
        {
            "type": "node",
            "id": 9885729072,
            "lat": 41.247236,
            "lon": 16.2977442,
            "timestamp": "2024-10-11T14:27:35Z",
            "version": 6,
            "changeset": 157759595,
            "user": "DomKor",
            "uid": 17843669,
            "tags": {
                "brand": "OVS",
                "brand:wikidata": "Q2042514",
                "fixme": "Va inserita la loro posizione precisa all'interno del centro commericale",
                "name": "OVS",
                "opening_hours": "Mo-Sa 09:00-21:00; Su 10:00-21:00",
                "phone": "+39 0883 592921;+39 0883 592923",
                "shop": "clothes",
                "survey:date": "2023-11-21",
                "website": "https://www.ovs.it/",
                "wheelchair": "yes"
            }
        },
        {
            "type": "node",
            "id": 9885729077,
            "lat": 41.247327,
            "lon": 16.297731,
            "timestamp": "2024-10-21T17:02:35Z",
            "version": 8,
            "changeset": 158179664,
            "user": "DomKor",
            "uid": 17843669,
            "tags": {
                "brand": "Upim",
                "brand:wikidata": "Q1414836",
                "fixme": "Va inserita la loro posizione precisa all'interno del centro commericale",
                "name": "Upim",
                "opening_hours": "Mo-Sa 09:00-21:00; Su 10:00-21:00",
                "shop": "department_store",
                "survey:date": "2023-11-21",
                "website": "https://www.upim.com/",
                "wheelchair": "yes"
            }
        },
        {
            "type": "node",
            "id": 9963236683,
            "lat": 41.1304164,
            "lon": 16.5474292,
            "timestamp": "2024-09-06T13:42:30Z",
            "version": 2,
            "changeset": 156275956,
            "user": "Fradeve11",
            "uid": 37791,
            "tags": {
                "addr:city": "Terlizzi",
                "addr:postcode": "70038",
                "addr:street": "Viale Roma",
                "brand": "United Colors of Benetton",
                "brand:wikidata": "Q817139",
                "check_date": "2024-09-05",
                "name": "United Colors of Benetton",
                "payment:cash": "yes",
                "payment:mastercard": "yes",
                "payment:visa": "yes",
                "payment:visa_debit": "yes",
                "shop": "clothes",
                "short_name": "Benetton"
            }
        },
        {
            "type": "node",
            "id": 9963582755,
            "lat": 41.1304126,
            "lon": 16.547735,
            "timestamp": "2025-08-03T20:49:06Z",
            "version": 8,
            "changeset": 169925113,
            "user": "mtmail",
            "uid": 8339,
            "tags": {
                "addr:city": "Terlizzi",
                "addr:country": "IT",
                "addr:housenumber": "25",
                "addr:postcode": "70038",
                "addr:street": "Viale Roma",
                "brand": "OVS Kids",
                "brand:wikidata": "Q2042514",
                "check_date": "2023-12-26",
                "clothes": "children",
                "name": "OVS Kids",
                "shop": "clothes"
            }
        },
        {
            "type": "node",
            "id": 10289280876,
            "lat": 41.0965185,
            "lon": 16.8325594,
            "timestamp": "2025-01-01T21:04:24Z",
            "version": 4,
            "changeset": 160885384,
            "user": "mpbin",
            "uid": 21850090,
            "tags": {
                "addr:city": "Bari",
                "addr:housenumber": "19",
                "addr:postcode": "70124",
                "addr:street": "Strada Santa Caterina",
                "brand": "Unieuro",
                "brand:wikidata": "Q4004687",
                "name": "Unieuro",
                "operator": "Unieuro S.p.A.",
                "shop": "electronics",
                "wheelchair": "yes"
            }
        },
        {
            "type": "node",
            "id": 10289280882,
            "lat": 41.1249076,
            "lon": 16.871701,
            "timestamp": "2025-08-23T13:31:02Z",
            "version": 3,
            "changeset": 170881123,
            "user": "Alexis04132",
            "uid": 20509407,
            "tags": {
                "addr:city": "Bari",
                "addr:housenumber": "7",
                "addr:postcode": "70121",
                "addr:street": "Via Abate Giacinto Gimma",
                "brand": "Chicco",
                "brand:wikidata": "Q27897515",
                "clothes": "children",
                "name": "Chicco",
                "shop": "baby_goods"
            }
        },
        {
            "type": "node",
            "id": 10671500245,
            "lat": 40.8950261,
            "lon": 16.8442439,
            "timestamp": "2025-10-26T18:20:02Z",
            "version": 4,
            "changeset": 173807372,
            "user": "confusedbuffalo",
            "uid": 242345,
            "tags": {
                "addr:city": "Acquaviva delle Fonti",
                "addr:housenumber": "12",
                "addr:postcode": "70021",
                "addr:street": "Via Don Cesare Franco",
                "brand": "Unieuro",
                "brand:wikidata": "Q4004687",
                "name": "Unieuro",
                "opening_hours": "Mo-Fr 09:00-13:00,16:30-20:30; Sa 09:00-13:00",
                "operator": "Unieuro S.p.A.",
                "phone": "+39 080 761352",
                "shop": "electronics"
            }
        },
        {
            "type": "node",
            "id": 10706888604,
            "lat": 40.8959974,
            "lon": 16.843459,
            "timestamp": "2025-10-17T18:16:42Z",
            "version": 4,
            "changeset": 173423261,
            "user": "btcitnet",
            "uid": 22525435,
            "tags": {
                "addr:city": "Acquaviva delle Fonti",
                "addr:housenumber": "5/6/7",
                "addr:postcode": "70021",
                "addr:street": "Piazza Vittorio Emanuele",
                "brand": "OVS",
                "brand:wikidata": "Q2042514",
                "name": "OVS",
                "shop": "clothes"
            }
        },
        {
            "type": "node",
            "id": 10784217883,
            "lat": 41.1196628,
            "lon": 16.8648827,
            "timestamp": "2023-08-02T12:55:31Z",
            "version": 3,
            "changeset": 139346686,
            "user": "yhic4uw",
            "uid": 2104834,
            "tags": {
                "addr:city": "Bari",
                "addr:housenumber": "55",
                "addr:postcode": "70122",
                "addr:street": "Via Scipione Crisanzio",
                "amenity": "atm",
                "check_date": "2023-04-04",
                "currency:XBT": "yes",
                "description": "Exchange cambio di criptovalute in sede.",
                "email": "secuprysrl@gmail.com",
                "name": "Criptova",
                "phone": "+39 3420522843"
            }
        },
        {
            "type": "node",
            "id": 10938001317,
            "lat": 41.1236301,
            "lon": 16.8702908,
            "timestamp": "2024-05-03T16:44:54Z",
            "version": 6,
            "changeset": 150847000,
            "user": "Alexis04132",
            "uid": 20509407,
            "tags": {
                "addr:city": "Bari",
                "addr:housenumber": "79",
                "addr:postcode": "70122",
                "addr:street": "Via Argiro",
                "check_date": "2023-12-29",
                "currency:XBT": "yes",
                "description": "The future shine for the one who believes in his dream.",
                "name": "Gigi Scarpa Coiffeur",
                "opening_hours": "Tu-Sa 09:00-18:30",
                "payment:lightning": "yes",
                "payment:lightning_contactless": "no",
                "payment:onchain": "yes",
                "shop": "hairdresser"
            }
        },
        {
            "type": "node",
            "id": 10959864597,
            "lat": 41.1233234,
            "lon": 16.8641392,
            "timestamp": "2024-07-16T16:21:51Z",
            "version": 3,
            "changeset": 154023484,
            "user": "Alexis04132",
            "uid": 20509407,
            "tags": {
                "addr:city": "Bari",
                "addr:housenumber": "75",
                "addr:postcode": "70122",
                "addr:street": "Via Quintino Sella",
                "amenity": "cafe",
                "check_date": "2023-06-11",
                "currency:XBT": "yes",
                "name": "Caff\u00e8 Big Ben",
                "payment:lightning": "yes",
                "payment:lightning_contactless": "yes",
                "payment:onchain": "yes",
                "phone": "+39 0805227668"
            }
        },
        {
            "type": "node",
            "id": 10979740851,
            "lat": 41.1224761,
            "lon": 16.4844274,
            "timestamp": "2023-06-15T23:09:35Z",
            "version": 1,
            "changeset": 137392105,
            "user": "Dominy_Talosyen",
            "uid": 15531590,
            "tags": {
                "addr:city": "Ruvo di Puglia",
                "addr:housenumber": "5",
                "addr:postcode": "70037",
                "addr:street": "Via Palmiro Togliatti",
                "branch": "Vecchio Mulino",
                "brand": "Carrefour",
                "brand:wikidata": "Q217599",
                "name": "Carrefour",
                "operator": "Vecchio Mulino",
                "shop": "supermarket"
            }
        },
        {
            "type": "node",
            "id": 10979740853,
            "lat": 41.1223375,
            "lon": 16.484401,
            "timestamp": "2023-06-15T23:09:35Z",
            "version": 1,
            "changeset": 137392105,
            "user": "Dominy_Talosyen",
            "uid": 15531590,
            "tags": {
                "addr:city": "Ruvo di Puglia",
                "addr:housenumber": "5",
                "addr:postcode": "70037",
                "addr:street": "Via Palmiro Togliatti",
                "branch": "Vecchio Mulino",
                "brand": "Carrefour",
                "brand:wikidata": "Q217599",
                "name": "Carrefour",
                "operator": "Vecchio Mulino",
                "shop": "supermarket"
            }
        },
        {
            "type": "node",
            "id": 11001343015,
            "lat": 41.086944,
            "lon": 16.7876958,
            "timestamp": "2025-10-26T18:20:02Z",
            "version": 4,
            "changeset": 173807372,
            "user": "confusedbuffalo",
            "uid": 242345,
            "tags": {
                "addr:city": "Modugno",
                "addr:housenumber": "70",
                "addr:postcode": "70026",
                "addr:street": "Via Roma",
                "brand": "Spar",
                "brand:wikidata": "Q610492",
                "name": "Despar",
                "opening_hours": "Mo-Fr 08:00-14:00,16:30-20:45; Sa 08:00-20:45; Su 08:30-13:00",
                "phone": "+39 080 532 3938",
                "shop": "supermarket",
                "website": "https://despar.com/pdv/maiora-s-r-l-via-roma-n-70-modugno-158"
            }
        },
        {
            "type": "node",
            "id": 11115839585,
            "lat": 41.2013352,
            "lon": 16.6035305,
            "timestamp": "2023-08-15T08:33:37Z",
            "version": 1,
            "changeset": 139902413,
            "user": "jakp3",
            "uid": 1178459,
            "tags": {
                "brand": "Spar",
                "brand:wikidata": "Q610492",
                "brand:wikipedia": "en:Spar (retailer)",
                "name": "Despar",
                "shop": "supermarket",
                "survey:date": "2023-08-15",
                "wheelchair": "yes"
            }
        },
        {
            "type": "node",
            "id": 11173433298,
            "lat": 41.011008,
            "lon": 16.7077978,
            "timestamp": "2023-09-29T10:39:37Z",
            "version": 2,
            "changeset": 141905558,
            "user": "armand72",
            "uid": 20188572,
            "tags": {
                "addr:city": "Grumo Appula",
                "addr:housenumber": "21",
                "addr:postcode": "70025",
                "addr:street": "Via Michelangelo Antonelli",
                "air_conditioning": "no",
                "currency:XBT": "yes",
                "internet_access": "yes",
                "internet_access:fee": "no",
                "name": "Gallery Casa Mexicana",
                "payment:debit_cards": "yes",
                "payment:lightning": "yes",
                "payment:lightning_contactless": "no",
                "payment:onchain": "yes",
                "reservation": "required",
                "rooms": "2",
                "survey:date": "2023-09-07",
                "tourism": "guest_house",
                "website": "https://www.bnbgallerycasamexicana.com/"
            }
        },
        {
            "type": "node",
            "id": 11187718881,
            "lat": 41.0985024,
            "lon": 16.8283859,
            "timestamp": "2023-11-22T20:38:52Z",
            "version": 5,
            "changeset": 144342473,
            "user": "\u0110uro Ji\u0159\u00ed",
            "uid": 14617702,
            "tags": {
                "addr:city": "Bari",
                "addr:street": "Strada Santa Caterina",
                "brand": "La Feltrinelli",
                "brand:wikidata": "Q96311190",
                "level": "0",
                "name": "La Feltrinelli",
                "opening_hours": "Mo-Sa 09:00-21:00; Su 10:00-21:00",
                "shop": "books",
                "wheelchair": "yes"
            }
        },
        {
            "type": "node",
            "id": 11369400599,
            "lat": 41.0980605,
            "lon": 16.8280621,
            "timestamp": "2025-10-23T08:32:53Z",
            "version": 4,
            "changeset": 173661625,
            "user": "btcitnet",
            "uid": 22525435,
            "tags": {
                "addr:city": "Bari",
                "addr:housenumber": "19",
                "addr:postcode": "70124",
                "addr:street": "McDrive",
                "brand": "Kasanova",
                "brand:wikidata": "Q116214505",
                "name": "Kasanova",
                "opening_hours": "Mo-Sa 09:00-21:00; Su 10:00-21:00",
                "shop": "houseware",
                "wheelchair": "yes"
            }
        },
        {
            "type": "node",
            "id": 11369400600,
            "lat": 41.0982409,
            "lon": 16.8290631,
            "timestamp": "2023-11-22T20:28:54Z",
            "version": 4,
            "changeset": 144341788,
            "user": "\u0110uro Ji\u0159\u00ed",
            "uid": 14617702,
            "tags": {
                "brand": "Calzedonia",
                "brand:wikidata": "Q1027874",
                "name": "Calzedonia",
                "opening_hours": "Mo-Sa 09:00-21:00; Su 10:00-21:00",
                "shop": "clothes",
                "wheelchair": "yes"
            }
        },
        {
            "type": "node",
            "id": 11369406173,
            "lat": 41.0976936,
            "lon": 16.8283992,
            "timestamp": "2025-10-08T20:15:20Z",
            "version": 5,
            "changeset": 173021968,
            "user": "btcitnet",
            "uid": 22525435,
            "tags": {
                "addr:city": "Bari",
                "addr:housenumber": "19",
                "addr:postcode": "70123",
                "addr:street": "Strada Santa Caterina",
                "brand": "Intimissimi",
                "brand:wikidata": "Q305404",
                "clothes": "underwear",
                "name": "Intimissimi",
                "opening_hours": "Mo-Sa 09:00-21:00; Su 10:00-21:00",
                "shop": "clothes",
                "wheelchair": "yes"
            }
        },
        {
            "type": "node",
            "id": 11369414740,
            "lat": 41.0975334,
            "lon": 16.8282948,
            "timestamp": "2025-10-23T18:49:41Z",
            "version": 5,
            "changeset": 173688354,
            "user": "btcitnet",
            "uid": 22525435,
            "tags": {
                "addr:city": "Bari",
                "addr:housenumber": "19",
                "addr:postcode": "70124",
                "addr:street": "Strada Santa Caterina",
                "brand": "Bottega Verde",
                "brand:wikidata": "Q894870",
                "name": "Bottega Verde",
                "opening_hours": "Mo-Sa 09:00-21:00; Su 10:00-21:00",
                "phone": "+39 3351952351",
                "shop": "cosmetics",
                "wheelchair": "yes"
            }
        },
        {
            "type": "node",
            "id": 11369418400,
            "lat": 41.0974021,
            "lon": 16.8284495,
            "timestamp": "2025-01-10T09:43:40Z",
            "version": 6,
            "changeset": 161197916,
            "user": "DnaX",
            "uid": 69259,
            "tags": {
                "brand": "Salmoiraghi & Vigan\u00f2",
                "brand:wikidata": "Q21272314",
                "level": "0",
                "name": "Salmoiraghi & Vigan\u00f2",
                "opening_hours": "Mo-Sa 09:00-21:00; Su 10:00-21:00",
                "shop": "optician",
                "wheelchair": "yes"
            }
        },
        {
            "type": "node",
            "id": 11369423669,
            "lat": 41.0982602,
            "lon": 16.8285044,
            "timestamp": "2023-11-22T20:26:50Z",
            "version": 4,
            "changeset": 144341788,
            "user": "\u0110uro Ji\u0159\u00ed",
            "uid": 14617702,
            "tags": {
                "brand": "Tezenis",
                "brand:wikidata": "Q28056374",
                "name": "Tezenis",
                "opening_hours": "Mo-Sa 09:00-21:00; Su 10:00-21:00",
                "shop": "clothes",
                "wheelchair": "yes"
            }
        },
        {
            "type": "node",
            "id": 11374867804,
            "lat": 40.9615911,
            "lon": 17.2788218,
            "timestamp": "2025-09-27T18:23:11Z",
            "version": 4,
            "changeset": 172539237,
            "user": "btcitnet",
            "uid": 22525435,
            "tags": {
                "addr:city": "Monopoli",
                "addr:country": "IT",
                "addr:housenumber": "43",
                "addr:postcode": "70043",
                "addr:street": "Viale Aldo Moro",
                "brand": "OVS",
                "brand:wikidata": "Q2042514",
                "brand:wikipedia": "en:OVS (company)",
                "name": "OVS",
                "opening_hours": "Tu-Sa 09:30-13:00, 17:00-20:30; Mo 09:30-20:00; Su 09:30-13:00, 16:30-20:30",
                "operator": "OVS",
                "phone": "+39 080 937 6512",
                "shop": "clothes",
                "website": "https://stores.ovs.it/it/italia/puglia/bari/ovs-monopoli?utm_source=google&utm_medium=GMBSitelink&utm_campaign=GMBSitelink_Monopoli_2180"
            }
        },
        {
            "type": "node",
            "id": 11428941282,
            "lat": 40.8793902,
            "lon": 17.1676585,
            "timestamp": "2023-12-18T13:29:01Z",
            "version": 1,
            "changeset": 145251576,
            "user": "Ilario De Michele",
            "uid": 20164968,
            "tags": {
                "brand": "Mondadori",
                "brand:wikidata": "Q85355",
                "name": "Mondadori",
                "shop": "books"
            }
        },
        {
            "type": "node",
            "id": 11455302986,
            "lat": 41.1122902,
            "lon": 16.6921325,
            "timestamp": "2025-01-15T23:10:10Z",
            "version": 2,
            "changeset": 161398795,
            "user": "DnaX",
            "uid": 69259,
            "tags": {
                "brand": "OVS Kids",
                "brand:wikidata": "Q2042514",
                "check_date": "2023-12-26",
                "clothes": "children",
                "name": "OVS Kids",
                "shop": "clothes"
            }
        },
        {
            "type": "node",
            "id": 11459550011,
            "lat": 41.1225669,
            "lon": 16.8715625,
            "timestamp": "2025-01-03T14:28:42Z",
            "version": 4,
            "changeset": 160951740,
            "user": "mpbin",
            "uid": 21850090,
            "tags": {
                "addr:city": "Bari",
                "addr:housenumber": "116",
                "addr:postcode": "70121",
                "addr:street": "Via Melo da Bari",
                "branch": "Kids",
                "brand": "OVS",
                "brand:wikidata": "Q2042514",
                "check_date": "2023-12-27",
                "name": "OVS",
                "operator": "OVS",
                "phone": "+39 0805289272",
                "shop": "clothes",
                "website": "https://www.ovs.it/it/it/stores/italia/puglia/bari/ovs-bari-via-melo-kids"
            }
        },
        {
            "type": "node",
            "id": 11476255826,
            "lat": 40.967869,
            "lon": 16.92413,
            "timestamp": "2024-07-31T13:09:42Z",
            "version": 2,
            "changeset": 154649143,
            "user": "damianeue",
            "uid": 10124288,
            "tags": {
                "brand": "Primark",
                "brand:wikidata": "Q137023",
                "name": "Primark",
                "shop": "clothes"
            }
        },
        {
            "type": "node",
            "id": 11476409112,
            "lat": 41.2168997,
            "lon": 16.5463256,
            "timestamp": "2024-01-01T15:52:50Z",
            "version": 1,
            "changeset": 145766681,
            "user": "Italian Technology",
            "uid": 10622815,
            "tags": {
                "brand": "Guess",
                "brand:wikidata": "Q2470307",
                "name": "Guess",
                "shop": "clothes"
            }
        },
        {
            "type": "node",
            "id": 11476409138,
            "lat": 41.2064623,
            "lon": 16.5531959,
            "timestamp": "2024-01-01T15:52:50Z",
            "version": 1,
            "changeset": 145766681,
            "user": "Italian Technology",
            "uid": 10622815,
            "tags": {
                "brand": "OVS",
                "brand:wikidata": "Q2042514",
                "name": "OVS",
                "shop": "clothes"
            }
        },
        {
            "type": "node",
            "id": 11476409144,
            "lat": 41.204866,
            "lon": 16.5526628,
            "timestamp": "2025-10-06T13:21:32Z",
            "version": 2,
            "changeset": 172914200,
            "user": "btcitnet",
            "uid": 22525435,
            "tags": {
                "addr:city": "Molfetta",
                "addr:housenumber": "1",
                "addr:postcode": "70056",
                "addr:street": "Via Adriano Olivetti",
                "brand": "Bottega Verde",
                "brand:wikidata": "Q894870",
                "name": "Bottega Verde",
                "shop": "cosmetics"
            }
        },
        {
            "type": "node",
            "id": 11476409150,
            "lat": 41.2043536,
            "lon": 16.5536272,
            "timestamp": "2025-10-11T15:11:52Z",
            "version": 2,
            "changeset": 173142275,
            "user": "btcitnet",
            "uid": 22525435,
            "tags": {
                "addr:city": "Molfetta",
                "addr:postcode": "70056",
                "addr:street": "Via Adriano Olivetti",
                "brand": "Intimissimi",
                "brand:wikidata": "Q305404",
                "clothes": "underwear",
                "name": "Intimissimi",
                "shop": "clothes"
            }
        },
        {
            "type": "node",
            "id": 11476409151,
            "lat": 41.2040454,
            "lon": 16.5538884,
            "timestamp": "2025-10-11T15:12:24Z",
            "version": 2,
            "changeset": 173142312,
            "user": "btcitnet",
            "uid": 22525435,
            "tags": {
                "addr:city": "Molfetta",
                "addr:postcode": "70056",
                "addr:street": "Via Adriano Olivetti",
                "brand": "Foot Locker",
                "brand:wikidata": "Q63335",
                "name": "Foot Locker",
                "shop": "shoes"
            }
        },
        {
            "type": "node",
            "id": 11476409155,
            "lat": 41.2049867,
            "lon": 16.5531134,
            "timestamp": "2025-10-11T15:11:20Z",
            "version": 2,
            "changeset": 173142230,
            "user": "btcitnet",
            "uid": 22525435,
            "tags": {
                "addr:city": "Molfetta",
                "addr:housenumber": "14",
                "addr:postcode": "70056",
                "addr:street": "Via Adriano Olivetti",
                "brand": "Kasanova",
                "brand:wikidata": "Q116214505",
                "name": "Kasanova",
                "shop": "houseware"
            }
        },
        {
            "type": "node",
            "id": 11476409156,
            "lat": 41.2050586,
            "lon": 16.5529837,
            "timestamp": "2025-10-11T15:10:47Z",
            "version": 2,
            "changeset": 173142194,
            "user": "btcitnet",
            "uid": 22525435,
            "tags": {
                "addr:city": "Molfetta",
                "addr:postcode": "70056",
                "addr:street": "Via Adriano Olivetti",
                "brand": "Tezenis",
                "brand:wikidata": "Q28056374",
                "clothes": "underwear;swimwear",
                "name": "Tezenis",
                "shop": "clothes"
            }
        },
        {
            "type": "node",
            "id": 11491575224,
            "lat": 41.1254844,
            "lon": 16.8694931,
            "timestamp": "2025-07-15T09:32:17Z",
            "version": 4,
            "changeset": 168954342,
            "user": "wheelmap_visitor",
            "uid": 290680,
            "tags": {
                "addr:city": "Bari",
                "addr:housenumber": "18",
                "addr:postcode": "70122",
                "addr:street": "Via Sparano da Bari",
                "brand": "Guess",
                "brand:wikidata": "Q2470307",
                "name": "Guess",
                "phone": "+39 0805225716",
                "shop": "clothes",
                "website": "https://www.guess.eu/",
                "wheelchair": "limited"
            }
        },
        {
            "type": "node",
            "id": 11500932876,
            "lat": 41.1231481,
            "lon": 16.86972,
            "timestamp": "2024-08-26T14:55:59Z",
            "version": 2,
            "changeset": 155787136,
            "user": "SpaceshipAlex",
            "uid": 7043543,
            "tags": {
                "addr:city": "Bari",
                "addr:housenumber": "96a",
                "addr:postcode": "70121",
                "addr:street": "Via Sparano da Bari",
                "brand": "Calzedonia",
                "brand:wikidata": "Q1027874",
                "name": "Calzedonia",
                "phone": "+39 0805237275",
                "shop": "clothes",
                "website": "https://www.calzedonia.com/it/negozi/puglia/bari/bari_via_sparano_da_bari_96_98/CD87.html"
            }
        },
        {
            "type": "node",
            "id": 11513852999,
            "lat": 41.1193833,
            "lon": 16.8700862,
            "timestamp": "2024-12-23T20:53:53Z",
            "version": 3,
            "changeset": 160553406,
            "user": "Caramell",
            "uid": 21836575,
            "tags": {
                "addr:city": "Bari",
                "addr:housenumber": "172",
                "addr:postcode": "70121",
                "addr:street": "Via Sparano da Bari",
                "brand": "Kasanova",
                "brand:wikidata": "Q116214505",
                "check_date": "2024-12-23",
                "name": "Kasanova",
                "shop": "houseware"
            }
        },
        {
            "type": "node",
            "id": 11576051568,
            "lat": 41.0157124,
            "lon": 16.709376,
            "timestamp": "2025-10-11T15:21:43Z",
            "version": 2,
            "changeset": 173142804,
            "user": "btcitnet",
            "uid": 22525435,
            "tags": {
                "addr:city": "Grumo Appula",
                "addr:housenumber": "25",
                "addr:postcode": "70025",
                "addr:street": "Via Giuseppe Di Vittorio",
                "brand": "Spar",
                "brand:wikidata": "Q610492",
                "name": "Despar",
                "shop": "supermarket"
            }
        },
        {
            "type": "node",
            "id": 11751235309,
            "lat": 41.121726,
            "lon": 16.8739726,
            "timestamp": "2025-07-15T08:54:11Z",
            "version": 5,
            "changeset": 168952205,
            "user": "wheelmap_visitor",
            "uid": 290680,
            "tags": {
                "addr:city": "Bari",
                "addr:housenumber": "24",
                "addr:postcode": "70121",
                "addr:street": "Via Cardassi",
                "check_date": "2025-05-03",
                "currency:XBT": "yes",
                "name": "Art and MORE",
                "opening_hours": "Mo-Su 09:00-21:00",
                "payment:contactless": "yes",
                "payment:credit_cards": "yes",
                "payment:debit_cards": "yes",
                "payment:lightning": "yes",
                "payment:onchain": "yes",
                "shop": "art",
                "survey:date": "2024-03-21",
                "website": "https://www.art-and-more.it/",
                "wheelchair": "limited"
            }
        },
        {
            "type": "node",
            "id": 11833907099,
            "lat": 41.1197063,
            "lon": 16.868439,
            "timestamp": "2024-06-19T10:34:54Z",
            "version": 3,
            "changeset": 152889303,
            "user": "Alexis04132",
            "uid": 20509407,
            "tags": {
                "addr:city": "Bari",
                "addr:housenumber": "16",
                "addr:postcode": "70122",
                "addr:street": "Via Scipione Crisanzio",
                "branch": "Point",
                "brand": "Mondadori",
                "brand:wikidata": "Q85355",
                "email": "libreria@monbook.it",
                "name": "Mondadori",
                "phone": "+39 0805212142",
                "shop": "books",
                "website": "https://www.mondadoristore.it/negozi/punti-vendita/Mondadori-Point-Bari/37822/"
            }
        },
        {
            "type": "node",
            "id": 11884852469,
            "lat": 41.2079825,
            "lon": 16.5520138,
            "timestamp": "2025-01-03T09:52:38Z",
            "version": 2,
            "changeset": 160940508,
            "user": "mpbin",
            "uid": 21850090,
            "tags": {
                "addr:city": "Molfetta",
                "addr:country": "IT",
                "addr:housenumber": "7, 9",
                "addr:postcode": "70056",
                "addr:street": "Via Adriano Olivetti",
                "branch": "Molfetta",
                "brand": "Decathlon",
                "brand:wikidata": "Q509349",
                "check_date": "2023-11-23",
                "name": "Decathlon",
                "operator": "Decathlon",
                "phone": "+39 080 3382424",
                "shop": "sports"
            }
        },
        {
            "type": "node",
            "id": 11905415695,
            "lat": 41.2262319,
            "lon": 16.3090872,
            "timestamp": "2024-05-26T18:45:06Z",
            "version": 2,
            "changeset": 151865467,
            "user": "DomKor",
            "uid": 17843669,
            "tags": {
                "addr:city": "Andria",
                "addr:housenumber": "44/46",
                "addr:postcode": "76123",
                "addr:street": "Via Bisceglie",
                "brand": "Expert",
                "brand:wikidata": "Q680990",
                "name": "Expert",
                "opening_hours": "Mo-Su 09:00-13:00, 17:00-21:00",
                "phone": "+390883566656",
                "shop": "electronics",
                "website": "https://www.expert.it/it/it/exp/"
            }
        },
        {
            "type": "node",
            "id": 11954291324,
            "lat": 41.1241036,
            "lon": 16.861569,
            "timestamp": "2024-07-16T15:53:04Z",
            "version": 2,
            "changeset": 154022307,
            "user": "Alexis04132",
            "uid": 20509407,
            "tags": {
                "addr:city": "Bari",
                "addr:housenumber": "254A",
                "addr:postcode": "70122",
                "addr:street": "Via Abate Giacinto Gimma",
                "amenity": "atm",
                "cash_in": "yes",
                "cash_out": "yes",
                "cash_withdrawal": "yes",
                "check_date": "2024-06-03",
                "contact:email": "support@shitcoins.club",
                "contact:facebook": "https://www.facebook.com/shitcoins.club",
                "contact:instagram": "https://www.instagram.com/shitcoinsclub",
                "contact:telegram": "https://t.me/shitcoinsclub",
                "contact:twitter": "https://twitter.com/BitomatCom",
                "currency:CHF": "yes",
                "currency:DASH": "yes",
                "currency:ETH": "yes",
                "currency:EUR": "yes",
                "currency:GBP": "yes",
                "currency:HUF": "yes",
                "currency:LTC": "yes",
                "currency:RON": "yes",
                "currency:USD": "yes",
                "currency:USDC": "yes",
                "currency:USDT": "yes",
                "currency:XBT": "yes",
                "indoor": "yes",
                "name": "Bitcoin ATM - Shitcoins.club",
                "opening_hours": "24/7",
                "operator": "Shitcoins.club",
                "payment:cash": "yes",
                "payment:lightning": "no",
                "payment:lightning_contactless": "no",
                "payment:onchain": "yes",
                "phone": "+39 34 8048 7308",
                "website": "https://shitcoins.club/localizzazione-atm/bitcoin-bancomat-bari-via-abate-giacinto-gimma-"
            }
        },
        {
            "type": "node",
            "id": 11975350708,
            "lat": 41.1117392,
            "lon": 16.6907566,
            "timestamp": "2024-06-12T13:08:26Z",
            "version": 1,
            "changeset": 152586799,
            "user": "Chiarant",
            "uid": 18452174,
            "tags": {
                "addr:city": "Bitonto",
                "addr:housenumber": "24",
                "addr:postcode": "70032",
                "addr:street": "Via Pasquale Cioffrese",
                "check_date:currency:XBT": "2024-06-12",
                "currency:XBT": "yes",
                "email": "taleaportici@gmail.com",
                "name": "Talea Portici",
                "shop": "jewelry"
            }
        },
        {
            "type": "node",
            "id": 12039069337,
            "lat": 40.8343954,
            "lon": 16.561184,
            "timestamp": "2025-10-16T20:05:45Z",
            "version": 3,
            "changeset": 173383002,
            "user": "btcitnet",
            "uid": 22525435,
            "tags": {
                "addr:city": "Altamura",
                "addr:postcode": "70022",
                "addr:street": "Via Vincenzo Russo",
                "brand": "OVS",
                "brand:wikidata": "Q2042514",
                "name": "OVS",
                "shop": "clothes"
            }
        },
        {
            "type": "node",
            "id": 12056000129,
            "lat": 41.1247069,
            "lon": 16.8683674,
            "timestamp": "2025-01-03T14:29:47Z",
            "version": 3,
            "changeset": 160951780,
            "user": "mpbin",
            "uid": 21850090,
            "tags": {
                "addr:city": "Bari",
                "addr:housenumber": "87",
                "addr:postcode": "70122",
                "addr:street": "Via Abate Giacinto Gimma",
                "brand": "OVS",
                "brand:wikidata": "Q2042514",
                "name": "OVS",
                "operator": "OVS",
                "phone": "+39 0808503774",
                "shop": "clothes",
                "website": "https://www.ovs.it/it/it/stores/italia/puglia/bari/ovs-bari-via-gimma"
            }
        },
        {
            "type": "node",
            "id": 12194249062,
            "lat": 40.792029,
            "lon": 16.7500234,
            "timestamp": "2024-09-23T10:29:41Z",
            "version": 2,
            "changeset": 156988486,
            "user": "rhhs",
            "uid": 3754310,
            "tags": {
                "brand": "Spar",
                "brand:wikidata": "Q610492",
                "name": "Despar",
                "opening_hours": "Mo-Sa 08:30-20:30; Su 09:00-13:00",
                "shop": "supermarket"
            }
        },
        {
            "type": "node",
            "id": 12291864260,
            "lat": 41.116162,
            "lon": 16.6995815,
            "timestamp": "2025-08-27T09:34:40Z",
            "version": 2,
            "changeset": 171069911,
            "user": "Fradeve11",
            "uid": 37791,
            "tags": {
                "addr:city": "Bitonto",
                "addr:street": "Via Papa Giovanni Ventitreesimo",
                "brand": "Expert",
                "brand:wikidata": "Q680990",
                "name": "Expert",
                "shop": "electronics"
            }
        },
        {
            "type": "node",
            "id": 12386277008,
            "lat": 41.2746045,
            "lon": 16.4202991,
            "timestamp": "2025-10-06T13:33:39Z",
            "version": 2,
            "changeset": 172914826,
            "user": "btcitnet",
            "uid": 22525435,
            "tags": {
                "addr:city": "Trani",
                "addr:housenumber": "45",
                "addr:postcode": "76125",
                "addr:street": "Piazza della Repubblica",
                "brand": "Bottega Verde",
                "brand:wikidata": "Q894870",
                "name": "Bottega Verde",
                "shop": "cosmetics"
            }
        },
        {
            "type": "node",
            "id": 12386277012,
            "lat": 41.2737142,
            "lon": 16.4220633,
            "timestamp": "2025-10-11T15:04:52Z",
            "version": 2,
            "changeset": 173141879,
            "user": "btcitnet",
            "uid": 22525435,
            "tags": {
                "addr:city": "Trani",
                "addr:housenumber": "295",
                "addr:postcode": "76125",
                "addr:street": "Corso Vittorio Emanuele II",
                "brand": "Intimissimi",
                "brand:wikidata": "Q305404",
                "clothes": "underwear",
                "name": "Intimissimi",
                "shop": "clothes"
            }
        },
        {
            "type": "node",
            "id": 12386277014,
            "lat": 41.273305,
            "lon": 16.4223085,
            "timestamp": "2025-10-11T15:05:23Z",
            "version": 2,
            "changeset": 173141911,
            "user": "btcitnet",
            "uid": 22525435,
            "tags": {
                "addr:city": "Trani",
                "addr:housenumber": "288",
                "addr:postcode": "76125",
                "addr:street": "Corso Vittorio Emanuele II",
                "brand": "Tezenis",
                "brand:wikidata": "Q28056374",
                "clothes": "women;underwear;swimwear;men;children",
                "name": "Tezenis",
                "shop": "clothes"
            }
        },
        {
            "type": "node",
            "id": 12393849251,
            "lat": 41.1081883,
            "lon": 16.8762336,
            "timestamp": "2025-10-06T14:21:26Z",
            "version": 12,
            "changeset": 172917271,
            "user": "Comino",
            "uid": 6794624,
            "tags": {
                "addr:city": "Bari",
                "addr:housenumber": "14sub 6",
                "addr:postcode": "70125",
                "addr:street": "Via Angelo Bertolini",
                "check_date:currency:XBT": "2024-12-05",
                "currency:XBT": "yes",
                "name": "Studio Olisticum",
                "opening_hours": "solo su appuntamento olisticum.com",
                "operator": "Homabio",
                "payment:contanti": "yes",
                "phone": "+39 389 623 9098",
                "shop": "massage",
                "website": "olisticum.com"
            }
        },
        {
            "type": "node",
            "id": 12393849252,
            "lat": 41.1081906,
            "lon": 16.8762117,
            "timestamp": "2025-10-06T14:06:10Z",
            "version": 9,
            "changeset": 172916478,
            "user": "Comino",
            "uid": 6794624,
            "tags": {
                "addr:city": "Bari",
                "addr:housenumber": "14sub 5",
                "addr:postcode": "70125",
                "addr:street": "Via Angelo Bertolini",
                "currency:XBT": "yes",
                "name": "Galleria 1957",
                "opening_hours": "galleria1957.it",
                "tourism": "gallery",
                "website": "galleria1957.it"
            }
        },
        {
            "type": "node",
            "id": 12393905390,
            "lat": 41.0064476,
            "lon": 17.1587436,
            "timestamp": "2025-10-06T14:06:25Z",
            "version": 5,
            "changeset": 172916521,
            "user": "Comino",
            "uid": 6794624,
            "tags": {
                "addr:city": "Polignano a Mare",
                "addr:housenumber": "342",
                "addr:street": "Viale Ponte Interrotto",
                "currency:XBT": "yes",
                "name": "Studio Olisticum outdoor",
                "opening_hours": "solo su appuntamento",
                "operator": "Homabio",
                "phone": "+39 389 623 9098",
                "shop": "massage"
            }
        },
        {
            "type": "node",
            "id": 12422583970,
            "lat": 41.1160091,
            "lon": 16.6999235,
            "timestamp": "2025-01-01T21:48:34Z",
            "version": 2,
            "changeset": 160886563,
            "user": "mpbin",
            "uid": 21850090,
            "tags": {
                "addr:city": "Bitonto",
                "addr:housenumber": "70",
                "addr:postcode": "70032",
                "addr:street": "Via Papa Giovanni Ventitreesimo",
                "brand": "Unieuro",
                "brand:wikidata": "Q4004687",
                "name": "Unieuro",
                "operator": "Unieuro S.p.A.",
                "shop": "electronics"
            }
        },
        {
            "type": "node",
            "id": 12436667403,
            "lat": 41.1108565,
            "lon": 16.6942136,
            "timestamp": "2024-12-20T13:28:08Z",
            "version": 1,
            "changeset": 160433667,
            "user": "Caramell",
            "uid": 21836575,
            "tags": {
                "addr:street": "Corso Vittorio Emanuele II",
                "branch": "underwear",
                "brand": "OVS",
                "brand:wikidata": "Q2042514",
                "clothes": "underwear",
                "name": "OVS",
                "shop": "clothes"
            }
        },
        {
            "type": "node",
            "id": 12549038065,
            "lat": 41.2749429,
            "lon": 16.4228101,
            "timestamp": "2025-02-01T13:41:34Z",
            "version": 1,
            "changeset": 162011250,
            "user": "Caramell",
            "uid": 21836575,
            "tags": {
                "brand": "Mondadori",
                "brand:wikidata": "Q85355",
                "check_date": "2025-02-01",
                "name": "Mondadori",
                "shop": "books"
            }
        },
        {
            "type": "node",
            "id": 12598638108,
            "lat": 40.969684,
            "lon": 16.9246738,
            "timestamp": "2025-10-25T15:19:46Z",
            "version": 2,
            "changeset": 173760725,
            "user": "btcitnet",
            "uid": 22525435,
            "tags": {
                "addr:city": "Casamassima",
                "addr:postcode": "70010",
                "addr:street": "Via Noicattaro",
                "brand": "Foot Locker",
                "brand:wikidata": "Q63335",
                "name": "Foot Locker",
                "opening_hours": "Mo-Su 09:00-21:00",
                "phone": "+39 080 697 7140",
                "shop": "shoes"
            }
        },
        {
            "type": "node",
            "id": 12626005442,
            "lat": 40.953635,
            "lon": 17.2994586,
            "timestamp": "2025-02-28T16:19:00Z",
            "version": 1,
            "changeset": 163059646,
            "user": "Travel With Gianni",
            "uid": 22572775,
            "tags": {
                "addr:city": "Monopoli",
                "addr:housenumber": "31",
                "addr:postcode": "70043",
                "addr:street": "Via Vincenzo Gioberti",
                "currency:XBT": "yes",
                "name": "Travel With Gianni",
                "office": "travel_agent",
                "opening_hours": "Mo-Sa 09:00-13:00",
                "payment:onchain": "yes",
                "survey:date": "2025-02-28"
            }
        },
        {
            "type": "way",
            "id": 42382067,
            "timestamp": "2025-09-08T19:34:50Z",
            "version": 3,
            "changeset": 171653420,
            "user": "Alexis04132",
            "uid": 20509407,
            "nodes": [
                529073406,
                13128884034,
                529073407,
                529073410,
                13128884035,
                529073411,
                529073406
            ],
            "tags": {
                "amenity": "fuel",
                "brand": "Tamoil",
                "brand:wikidata": "Q706793",
                "landuse": "retail",
                "name": "Tamoil",
                "operator": "T.D.M. S.R.L.",
                "ref:mise": "30818"
            }
        },
        {
            "type": "way",
            "id": 123213222,
            "timestamp": "2023-02-10T19:45:13Z",
            "version": 3,
            "changeset": 132378146,
            "user": "Manuela2006",
            "uid": 18337089,
            "nodes": [
                1374765929,
                1374765928,
                1374765937,
                1374765939,
                1374765929
            ],
            "tags": {
                "addr:city": "Gioia del Colle",
                "addr:postcode": "70023",
                "addr:street": "via Federico II di Svevia",
                "brand": "Expert",
                "brand:wikidata": "Q680990",
                "building": "yes",
                "name": "Expert",
                "shop": "electronics"
            }
        },
        {
            "type": "way",
            "id": 177456106,
            "timestamp": "2024-11-03T20:37:58Z",
            "version": 6,
            "changeset": 158716419,
            "user": "Caramell",
            "uid": 21836575,
            "nodes": [
                1879063269,
                1879063264,
                1879063259,
                1879063260,
                1879063262,
                1879063266,
                1879063269
            ],
            "tags": {
                "amenity": "fuel",
                "brand": "Tamoil",
                "brand:wikidata": "Q706793",
                "contact:phone": "+39 080 2254555",
                "name": "Tamoil",
                "operator": "Borrelli Caterina",
                "wheelchair": "limited"
            }
        },
        {
            "type": "way",
            "id": 197495405,
            "timestamp": "2023-03-06T18:55:52Z",
            "version": 3,
            "changeset": 133375885,
            "user": "DnaX",
            "uid": 69259,
            "nodes": [
                2077297726,
                2077297761,
                2077297762,
                2077297745,
                2077297737,
                2077297729,
                2077297726
            ],
            "tags": {
                "amenity": "fuel",
                "brand": "Q8",
                "brand:wikidata": "Q1634762",
                "name": "Q8",
                "operator": "Pink Bar S.R.L.",
                "ref:mise": "22196",
                "source:date": "2018-04-16"
            }
        },
        {
            "type": "way",
            "id": 336886620,
            "timestamp": "2024-01-13T15:19:43Z",
            "version": 2,
            "changeset": 146217925,
            "user": "Alexis04132",
            "uid": 20509407,
            "nodes": [
                3439679367,
                3439679360,
                3439679353,
                3439679358,
                3439679355,
                3439679369,
                3439679365,
                3439679362,
                3439679361,
                3439679359,
                3439679354,
                3439679370,
                3439679366,
                3439679357,
                3439679364,
                3439679356,
                3439679367
            ],
            "tags": {
                "branch": "Piazza Europa",
                "brand": "Spar",
                "brand:wikidata": "Q610492",
                "name": "Despar",
                "shop": "supermarket"
            }
        },
        {
            "type": "way",
            "id": 409924872,
            "timestamp": "2023-11-13T23:10:09Z",
            "version": 2,
            "changeset": 143989737,
            "user": "Alexis04132",
            "uid": 20509407,
            "nodes": [
                4118109857,
                4118109811,
                4118109834,
                4118109873,
                4118109857
            ],
            "tags": {
                "amenity": "fuel",
                "brand": "Tamoil",
                "brand:wikidata": "Q706793",
                "building": "roof",
                "name": "tamoil"
            }
        },
        {
            "type": "way",
            "id": 410439502,
            "timestamp": "2024-01-01T14:24:48Z",
            "version": 5,
            "changeset": 145763829,
            "user": "Ale_Zena_IT",
            "uid": 22290,
            "nodes": [
                4122734199,
                4122734140,
                11476255822,
                4122734206,
                4122734304,
                4122734257,
                4122734252,
                4122734245,
                4122734199
            ],
            "tags": {
                "addr:city": "Casamassima",
                "addr:country": "IT",
                "addr:housenumber": "2",
                "addr:postcode": "70010",
                "addr:street": "Via Noicattaro",
                "brand": "Decathlon",
                "brand:wikidata": "Q509349",
                "building": "commercial",
                "name": "Decathlon",
                "phone": "+39 080 6977506",
                "shop": "sports",
                "website": "https://www.decathlon.it/",
                "wheelchair": "yes"
            }
        },
        {
            "type": "way",
            "id": 410903080,
            "timestamp": "2021-08-18T15:50:45Z",
            "version": 2,
            "changeset": 109883802,
            "user": "damianeue",
            "uid": 10124288,
            "nodes": [
                4126517710,
                4126517763,
                4126517803,
                4126517806,
                4126517817,
                4126517818,
                4126517756,
                4126517794,
                4126517716,
                4126517659,
                4126517710
            ],
            "tags": {
                "addr:street": "Strada Statale 99 di Matera",
                "amenity": "fuel",
                "brand": "Q8",
                "brand:wikidata": "Q1634762",
                "brand:wikipedia": "en:Kuwait Petroleum Corporation",
                "building": "roof",
                "name": "Q8",
                "operator": "Q8"
            }
        },
        {
            "type": "way",
            "id": 411841380,
            "timestamp": "2023-10-28T18:15:36Z",
            "version": 2,
            "changeset": 143276250,
            "user": "Alexis04132",
            "uid": 20509407,
            "nodes": [
                4134357558,
                4134357557,
                4134357609,
                4134357610,
                4134357558
            ],
            "tags": {
                "amenity": "fuel",
                "brand": "Tamoil",
                "brand:wikidata": "Q706793",
                "building": "shed",
                "name": "Tamoil"
            }
        },
        {
            "type": "way",
            "id": 416496312,
            "timestamp": "2023-02-21T21:36:45Z",
            "version": 2,
            "changeset": 132854667,
            "user": "DnaX",
            "uid": 69259,
            "nodes": [
                4172362674,
                4172362549,
                4172362585,
                4172362716,
                4172362704,
                4172362693,
                4172362674
            ],
            "tags": {
                "addr:housenumber": "1",
                "addr:postcode": "70123",
                "addr:street": "Via De Blasio",
                "brand": "Decathlon",
                "brand:wikidata": "Q509349",
                "building": "retail",
                "name": "Decathlon",
                "opening_hours": "Mo-Su 9:30-21:00",
                "phone": "+39 080 5375710",
                "shop": "sports"
            }
        },
        {
            "type": "way",
            "id": 416570237,
            "timestamp": "2023-11-19T22:11:35Z",
            "version": 2,
            "changeset": 144224696,
            "user": "Alexis04132",
            "uid": 20509407,
            "nodes": [
                4173163541,
                4173163530,
                4173163521,
                4173163584,
                4173163583,
                4173164139,
                4173164156,
                4173163541
            ],
            "tags": {
                "addr:city": "Bari",
                "addr:housenumber": "40",
                "addr:postcode": "70123",
                "addr:street": "Via Brigata Regina",
                "brand": "Unieuro",
                "brand:wikidata": "Q4004687",
                "building": "industrial",
                "name": "Unieuro",
                "shop": "electronics"
            }
        },
        {
            "type": "way",
            "id": 417293579,
            "timestamp": "2024-09-27T13:51:29Z",
            "version": 5,
            "changeset": 157172532,
            "user": "Alexis04132",
            "uid": 20509407,
            "nodes": [
                4178595129,
                4178595125,
                4178595124,
                11352560111,
                11352560110,
                4178595130,
                4178595129
            ],
            "tags": {
                "brand": "Q8",
                "brand:wikidata": "Q1634762",
                "building": "roof",
                "layer": "1"
            }
        },
        {
            "type": "way",
            "id": 559420055,
            "timestamp": "2023-07-31T14:41:06Z",
            "version": 8,
            "changeset": 139257764,
            "user": "BTC Map",
            "uid": 18545877,
            "nodes": [
                5395557796,
                5433733303,
                5395557787,
                5433733308,
                5433733307,
                5433733293,
                5395557796
            ],
            "tags": {
                "brand": "Mondo Convenienza",
                "brand:wikidata": "Q55830962",
                "building": "retail",
                "check_date:currency:XBT": "2023-07-31",
                "currency:XBT": "yes",
                "name": "Mondo Convenienza",
                "shop": "furniture",
                "website": "https://www.mondoconv.it/"
            }
        },
        {
            "type": "way",
            "id": 561217368,
            "timestamp": "2023-12-31T16:52:07Z",
            "version": 3,
            "changeset": 145740764,
            "user": "Italian Technology",
            "uid": 10622815,
            "nodes": [
                5411926215,
                5411926201,
                5411926200,
                5411926218,
                4695535443,
                4695535445,
                4695535452,
                4695489148,
                4695535464,
                5411926215
            ],
            "tags": {
                "amenity": "fuel",
                "brand": "Q8",
                "brand:wikidata": "Q1634762",
                "name": "Q8",
                "operator": "Servizi & Gestioni Italia Srl",
                "ref:mise": "6743",
                "self_service": "yes",
                "source:date": "2018-04-16"
            }
        },
        {
            "type": "way",
            "id": 804341474,
            "timestamp": "2023-11-25T07:38:59Z",
            "version": 2,
            "changeset": 144431678,
            "user": "\u0110uro Ji\u0159\u00ed",
            "uid": 14617702,
            "nodes": [
                7523430624,
                7523430625,
                7523430626,
                7523430627,
                7523430628,
                7523430629,
                7523430630,
                7523430631,
                7523430632,
                7523430644,
                7523430624
            ],
            "tags": {
                "brand": "Brico",
                "brand:wikidata": "Q2510786",
                "brand:wikipedia": "en:Brico",
                "building": "commercial",
                "name": "Brico Casa",
                "shop": "doityourself",
                "website": "https://www.brico-casa.it/",
                "wheelchair": "yes"
            }
        },
        {
            "type": "way",
            "id": 1148342819,
            "timestamp": "2024-09-11T22:18:47Z",
            "version": 3,
            "changeset": 156504974,
            "user": "Alexis04132",
            "uid": 20509407,
            "nodes": [
                4177350358,
                12170847259,
                4177351459,
                4177352033,
                4177352072,
                12168970356,
                12168970355,
                321012076,
                4177350358
            ],
            "tags": {
                "addr:city": "Bari",
                "addr:housename": "Ikea Bari",
                "addr:housenumber": "3/5",
                "addr:street": "Via Caduti del Lavoro",
                "brand": "IKEA",
                "brand:wikidata": "Q54078",
                "building": "yes",
                "name": "IKEA",
                "operator": "Ikea Italia Retail s.r.l. Bari",
                "ref:vatin": "IT02992760963",
                "shop": "furniture",
                "website": "http://www.ikea.it"
            }
        },
        {
            "type": "way",
            "id": 1174583188,
            "timestamp": "2024-01-01T15:14:58Z",
            "version": 2,
            "changeset": 145765347,
            "user": "Italian Technology",
            "uid": 10622815,
            "nodes": [
                10914352580,
                10914352581,
                10914352582,
                10914352583,
                10914352584,
                10914352585,
                10914352586,
                10914352587,
                10914352588,
                10914352580
            ],
            "tags": {
                "brand": "Carrefour",
                "brand:wikidata": "Q217599",
                "building": "yes",
                "name": "Carrefour",
                "shop": "supermarket"
            }
        },
        {
            "type": "way",
            "id": 1223566824,
            "timestamp": "2023-12-06T10:50:01Z",
            "version": 6,
            "changeset": 144823785,
            "user": "Alexis04132",
            "uid": 20509407,
            "nodes": [
                11349444370,
                11349448969,
                11351138369,
                11349455370,
                11349455371,
                4125653908,
                11348354073,
                11348354269,
                11349444370
            ],
            "tags": {
                "access": "yes",
                "brand": "Tezenis",
                "brand:wikidata": "Q28056374",
                "clothes": "underwear;swimwear",
                "indoor": "room",
                "level": "0",
                "name": "Tezenis",
                "room": "shop",
                "shop": "clothes"
            }
        },
        {
            "type": "way",
            "id": 1223599122,
            "timestamp": "2023-11-15T07:28:08Z",
            "version": 4,
            "changeset": 144038509,
            "user": "Alexis04132",
            "uid": 20509407,
            "nodes": [
                11349654769,
                11349654770,
                11349654771,
                11349671769,
                11349654869,
                11349654769
            ],
            "tags": {
                "access": "yes",
                "brand": "Intimissimi",
                "brand:wikidata": "Q305404",
                "clothes": "underwear",
                "indoor": "room",
                "level": "0",
                "name": "Intimissimi",
                "room": "shop",
                "shop": "clothes"
            }
        },
        {
            "type": "way",
            "id": 1223601832,
            "timestamp": "2023-12-05T21:21:09Z",
            "version": 6,
            "changeset": 144807331,
            "user": "Alexis04132",
            "uid": 20509407,
            "nodes": [
                11349654869,
                11349671569,
                11349671669,
                11349782048,
                11349671769,
                11349654869
            ],
            "tags": {
                "access": "yes",
                "brand": "Calzedonia",
                "brand:wikidata": "Q1027874",
                "indoor": "room",
                "level": "0",
                "name": "Calzedonia",
                "room": "shop",
                "shop": "clothes"
            }
        },
        {
            "type": "way",
            "id": 1223607615,
            "timestamp": "2023-11-15T07:28:10Z",
            "version": 5,
            "changeset": 144038509,
            "user": "Alexis04132",
            "uid": 20509407,
            "nodes": [
                11349717870,
                11349716572,
                4125653769,
                11349717772,
                11349671573,
                11349671572,
                11349717769,
                11349717870
            ],
            "tags": {
                "access": "yes",
                "brand": "OVS",
                "brand:wikidata": "Q2042514",
                "indoor": "room",
                "level": "0",
                "name": "OVS",
                "room": "shop",
                "shoes:repair": "no",
                "shop": "clothes"
            }
        },
        {
            "type": "way",
            "id": 1223789838,
            "timestamp": "2023-12-07T18:15:58Z",
            "version": 7,
            "changeset": 144876266,
            "user": "FvGordon",
            "uid": 161619,
            "nodes": [
                4125653946,
                11351150269,
                11349462572,
                11397734673,
                11397734672,
                11351150270,
                11351146170,
                11397647414,
                11351146171,
                11349495270,
                4125654128,
                4125654124,
                4125653986,
                4125653946
            ],
            "tags": {
                "access": "yes",
                "brand": "H&M",
                "brand:wikidata": "Q188326",
                "indoor": "room",
                "level": "1",
                "name": "H&M",
                "room": "shop",
                "shop": "clothes"
            }
        },
        {
            "type": "way",
            "id": 1229032693,
            "timestamp": "2023-12-06T11:33:27Z",
            "version": 3,
            "changeset": 144825156,
            "user": "Alexis04132",
            "uid": 20509407,
            "nodes": [
                11397697069,
                11397698075,
                11397730781,
                11397697677,
                4125653669,
                4125653532,
                4125653522,
                11397698076,
                11397697169,
                11397730878,
                11397697069
            ],
            "tags": {
                "addr:city": "Triggiano",
                "addr:postcode": "70019",
                "addr:street": "Contrada Giannavello",
                "brand": "Carrefour",
                "brand:wikidata": "Q217599",
                "indoor": "room",
                "level": "1",
                "name": "Carrefour",
                "phone": "+39 080 2221448",
                "room": "shop",
                "shop": "supermarket",
                "website": "https://www.carrefoursuditalia.com/puntivendita/122"
            }
        },
        {
            "type": "way",
            "id": 1321284204,
            "timestamp": "2024-11-12T20:44:26Z",
            "version": 4,
            "changeset": 159067585,
            "user": "Caramell",
            "uid": 21836575,
            "nodes": [
                12226946248,
                12226946249,
                12226946246,
                4173174778,
                12226946248
            ],
            "tags": {
                "amenity": "fuel",
                "brand": "Tamoil",
                "brand:wikidata": "Q706793",
                "check_date": "2024-11-10",
                "compressed_air": "yes",
                "landuse": "retail",
                "name": "Tamoil",
                "opening_hours": "24/7",
                "ref:mise": "36050",
                "self_service": "yes",
                "wheelchair": "yes"
            }
        }
    ],
    "telegram": []
}