{
    "id": "ss-parma-e-piacenza",
    "name": "Satoshi Spritz Parma e Piacenza",
    "lng": 45.052621,
    "lat": 9.692984,
    "localita": "Parma e Piacenza",
    "idlocalita": "parma",
    "telegram_weburl": "https://web.telegram.org/a/#-1001926008431",
    "telegram_app": "https://t.me/SatoshiSpritzParmaePiacenza",
    "telegram_members": 142.0,
    "network": "satoshispritz",
    "poi": [
        {
            "type": "node",
            "id": 227004781,
            "lat": 45.32053,
            "lon": 9.376445,
            "timestamp": "2025-10-01T08:04:17Z",
            "version": 9,
            "changeset": 172693239,
            "user": "btcitnet",
            "uid": 22525435,
            "tags": {
                "addr:city": "Melegnano",
                "addr:postcode": "20070",
                "addr:street": "Autostrada del Sole ADS San Zenone Ovest",
                "amenity": "fuel",
                "brand": "Q8",
                "brand:wikidata": "Q1634762",
                "brand:wikipedia": "en:Kuwait Petroleum Corporation",
                "fuel:GTL_diesel": "yes",
                "fuel:cng": "yes",
                "fuel:diesel": "yes",
                "fuel:lpg": "yes",
                "fuel:octane_100": "yes",
                "fuel:octane_95": "yes",
                "name": "Q8",
                "opening_hours": "24/7",
                "operator": "Gias S.R.L.",
                "ref:mise": "43690",
                "source": "MISE - Ministero Sviluppo Economico"
            }
        },
        {
            "type": "node",
            "id": 227551404,
            "lat": 45.071111,
            "lon": 9.1024725,
            "timestamp": "2025-09-30T14:00:40Z",
            "version": 7,
            "changeset": 172662353,
            "user": "btcitnet",
            "uid": 22525435,
            "tags": {
                "addr:city": "Castelletto di Branduzzo",
                "addr:postcode": "27040",
                "addr:street": "Strada Provinciale Bressana - Salice Terme",
                "amenity": "fuel",
                "brand": "Tamoil",
                "brand:wikidata": "Q706793",
                "name": "Tamoil",
                "operator": "Tessarin Andrea",
                "ref:mise": "12209"
            }
        },
        {
            "type": "node",
            "id": 227553268,
            "lat": 45.016499,
            "lon": 9.131184,
            "timestamp": "2025-09-30T14:01:32Z",
            "version": 11,
            "changeset": 172662388,
            "user": "btcitnet",
            "uid": 22525435,
            "tags": {
                "addr:city": "Casteggio",
                "addr:housenumber": "50",
                "addr:postcode": "27045",
                "addr:street": "Via Emilia",
                "amenity": "fuel",
                "brand": "Q8",
                "brand:wikidata": "Q1634762",
                "check_date": "2024-11-03",
                "compressed_air": "yes",
                "name": "Q8",
                "opening_hours": "24/7",
                "operator": "Farina Pierluigi",
                "ref:mise": "8205",
                "self_service": "yes",
                "wheelchair": "yes"
            }
        },
        {
            "type": "node",
            "id": 227599239,
            "lat": 44.8249296,
            "lon": 9.1844836,
            "timestamp": "2025-09-30T14:08:25Z",
            "version": 7,
            "changeset": 172662658,
            "user": "btcitnet",
            "uid": 22525435,
            "tags": {
                "addr:city": "Varzi",
                "addr:housenumber": "22",
                "addr:postcode": "27057",
                "addr:street": "Via Alcide De Gasperi",
                "amenity": "fuel",
                "brand": "Tamoil",
                "brand:wikidata": "Q706793",
                "name": "Tamoil",
                "operator": "T.D.M. S.R.L.",
                "ref:mise": "39362"
            }
        },
        {
            "type": "node",
            "id": 227632658,
            "lat": 45.1818232,
            "lon": 9.1776292,
            "timestamp": "2025-09-30T19:09:50Z",
            "version": 9,
            "changeset": 172675474,
            "user": "btcitnet",
            "uid": 22525435,
            "tags": {
                "addr:city": "Pavia",
                "addr:housenumber": "14/C",
                "addr:postcode": "27100",
                "addr:street": "Viale Montegrappa",
                "amenity": "fuel",
                "brand": "Tamoil",
                "brand:wikidata": "Q706793",
                "compressed_air": "no",
                "name": "Tamoil",
                "operator": "Graziano Daniela",
                "ref:mise": "12627",
                "self_service": "yes"
            }
        },
        {
            "type": "node",
            "id": 227689340,
            "lat": 45.416987,
            "lon": 9.406105,
            "timestamp": "2025-10-01T20:13:37Z",
            "version": 7,
            "changeset": 172723402,
            "user": "btcitnet",
            "uid": 22525435,
            "tags": {
                "addr:city": "Paullo",
                "addr:housenumber": "35",
                "addr:postcode": "20067",
                "addr:street": "Via Pasubio",
                "amenity": "fuel",
                "brand": "Q8",
                "brand:wikidata": "Q1634762",
                "brand:wikipedia": "en:Kuwait Petroleum Corporation",
                "name": "Q8",
                "operator": "Servizi & Gestioni Italia S.R.L.",
                "ref:mise": "11667"
            }
        },
        {
            "type": "node",
            "id": 227788957,
            "lat": 45.0491761,
            "lon": 9.2326945,
            "timestamp": "2025-10-05T15:01:49Z",
            "version": 14,
            "changeset": 172872074,
            "user": "btcitnet",
            "uid": 22525435,
            "tags": {
                "addr:city": "Cigognola",
                "addr:housenumber": "KM.150+585",
                "addr:postcode": "27040",
                "addr:street": "Strada Statale 10 Padana Inferiore",
                "amenity": "fuel",
                "brand": "Tamoil",
                "brand:wikidata": "Q706793",
                "check_date": "2024-11-03",
                "compressed_air": "yes",
                "fuel:diesel": "yes",
                "fuel:octane_95": "yes",
                "name": "Tamoil",
                "opening_hours": "24/7",
                "operator": "Carburanti Olii Lubrificanti Bronese S.R.L.",
                "ref:mise": "13083",
                "self_service": "yes",
                "wheelchair": "yes"
            }
        },
        {
            "type": "node",
            "id": 227789487,
            "lat": 45.087468,
            "lon": 9.257634,
            "timestamp": "2025-10-05T15:02:52Z",
            "version": 6,
            "changeset": 172872148,
            "user": "btcitnet",
            "uid": 22525435,
            "tags": {
                "addr:city": "Broni",
                "addr:housenumber": "4",
                "addr:postcode": "27043",
                "addr:street": "Provinciale Delle Teste",
                "amenity": "fuel",
                "brand": "Q8",
                "brand:wikidata": "Q1634762",
                "brand:wikipedia": "en:Kuwait Petroleum Corporation",
                "fuel:cng": "yes",
                "name": "Q8",
                "operator": "Rga S.R.L.",
                "ref:mise": "38946"
            }
        },
        {
            "type": "node",
            "id": 227790183,
            "lat": 45.1774743,
            "lon": 9.2026772,
            "timestamp": "2025-10-05T15:04:27Z",
            "version": 8,
            "changeset": 172872243,
            "user": "btcitnet",
            "uid": 22525435,
            "tags": {
                "addr:city": "Pavia",
                "addr:postcode": "27100",
                "addr:street": "Viale Cremona",
                "amenity": "fuel",
                "brand": "Q8",
                "brand:wikidata": "Q1634762",
                "name": "Q8",
                "operator": "Ambrogio Moro S.P.A.",
                "ref:mise": "24634"
            }
        },
        {
            "type": "node",
            "id": 227794568,
            "lat": 45.192535,
            "lon": 9.1812664,
            "timestamp": "2025-09-30T20:33:08Z",
            "version": 7,
            "changeset": 172678443,
            "user": "btcitnet",
            "uid": 22525435,
            "tags": {
                "addr:city": "Pavia",
                "addr:housenumber": "29",
                "addr:postcode": "27100",
                "addr:street": "Via Solferino",
                "amenity": "fuel",
                "brand": "Q8",
                "brand:wikidata": "Q1634762",
                "name": "Q8",
                "operator": "Servizi & Gestioni Italia Srl",
                "ref:mise": "6457"
            }
        },
        {
            "type": "node",
            "id": 227962355,
            "lat": 44.918747,
            "lon": 9.607372,
            "timestamp": "2025-10-03T16:30:01Z",
            "version": 6,
            "changeset": 172800683,
            "user": "btcitnet",
            "uid": 22525435,
            "tags": {
                "addr:city": "Rivergaro",
                "addr:housenumber": "83",
                "addr:postcode": "29029",
                "addr:street": "Strada Statale di Val Trebbia",
                "amenity": "fuel",
                "brand": "Q8",
                "brand:wikidata": "Q1634762",
                "name": "Q8",
                "operator": "Gobbi Sandra",
                "ref:mise": "25170"
            }
        },
        {
            "type": "node",
            "id": 227965422,
            "lat": 45.055276,
            "lon": 9.499236,
            "timestamp": "2025-10-03T16:32:33Z",
            "version": 6,
            "changeset": 172800792,
            "user": "btcitnet",
            "uid": 22525435,
            "tags": {
                "addr:city": "Sarmato",
                "addr:housenumber": "KM. 173+462",
                "addr:postcode": "29010",
                "addr:street": "Ex Strada Statale 10",
                "amenity": "fuel",
                "brand": "Tamoil",
                "brand:wikidata": "Q706793",
                "name": "Tamoil",
                "operator": "G.E. di Tassi Giovanni & Bisi Emanuela S.N.C.",
                "ref:mise": "34920"
            }
        },
        {
            "type": "node",
            "id": 227986439,
            "lat": 45.289682,
            "lon": 9.289252,
            "timestamp": "2025-10-05T15:05:34Z",
            "version": 7,
            "changeset": 172872292,
            "user": "btcitnet",
            "uid": 22525435,
            "tags": {
                "addr:city": "Torrevecchia Pia",
                "addr:postcode": "27010",
                "amenity": "fuel",
                "brand": "Tamoil",
                "brand:wikidata": "Q706793",
                "brand:wikipedia": "en:Tamoil",
                "fuel:diesel": "yes",
                "fuel:octane_100": "yes",
                "fuel:octane_95": "yes",
                "name": "Tamoil",
                "operator": "Merlini Sandro",
                "ref:mise": "16671",
                "source": "MISE - Ministero Sviluppo Economico"
            }
        },
        {
            "type": "node",
            "id": 228051827,
            "lat": 45.069482,
            "lon": 9.304532,
            "timestamp": "2025-04-19T21:46:39Z",
            "version": 5,
            "changeset": 165172075,
            "user": "btcitnet",
            "uid": 22525435,
            "tags": {
                "addr:city": "Stradella",
                "addr:street": "Via Repubblica",
                "amenity": "fuel",
                "brand": "Q8",
                "brand:wikidata": "Q1634762",
                "brand:wikipedia": "en:Kuwait Petroleum Corporation",
                "name": "Q8",
                "operator": "Q8"
            }
        },
        {
            "type": "node",
            "id": 228062067,
            "lat": 45.322424,
            "lon": 9.37579,
            "timestamp": "2025-10-01T16:45:51Z",
            "version": 10,
            "changeset": 172715633,
            "user": "btcitnet",
            "uid": 22525435,
            "tags": {
                "addr:city": "San Zenone al Lambro",
                "addr:postcode": "20070",
                "addr:street": "Autostrada del Sole",
                "amenity": "fuel",
                "brand": "Q8",
                "brand:wikidata": "Q1634762",
                "brand:wikipedia": "en:Kuwait Petroleum Corporation",
                "fuel:GTL_diesel": "yes",
                "fuel:cng": "yes",
                "fuel:diesel": "yes",
                "fuel:lpg": "yes",
                "fuel:octane_98": "yes",
                "name": "Q8",
                "opening_hours": "24/7",
                "operator": "Lefty Petrol S.R.L.",
                "ref:mise": "42636",
                "source": "MISE - Ministero Sviluppo Economico"
            }
        },
        {
            "type": "node",
            "id": 228097464,
            "lat": 45.1511183,
            "lon": 10.2870974,
            "timestamp": "2025-10-01T10:41:19Z",
            "version": 7,
            "changeset": 172700009,
            "user": "btcitnet",
            "uid": 22525435,
            "tags": {
                "addr:city": "Torre De' Picenardi",
                "addr:postcode": "26038",
                "addr:street": "Strada Provinciale 29",
                "amenity": "fuel",
                "brand": "Tamoil",
                "brand:wikidata": "Q706793",
                "brand:wikipedia": "en:Tamoil",
                "name": "Tamoil",
                "operator": "Area Truck Self di Gianna Antonia Guarneri & C. Societ\u00e0 in Accomandita Semplice",
                "ref:mise": "7393"
            }
        },
        {
            "type": "node",
            "id": 228114325,
            "lat": 45.0674782,
            "lon": 9.329182,
            "timestamp": "2025-10-16T18:58:12Z",
            "version": 11,
            "changeset": 173380795,
            "user": "btcitnet",
            "uid": 22525435,
            "tags": {
                "addr:city": "Stradella",
                "addr:postcode": "27049",
                "amenity": "fuel",
                "brand": "Tamoil",
                "brand:wikidata": "Q706793",
                "brand:wikipedia": "en:Tamoil",
                "compressed_air": "yes",
                "name": "Tamoil",
                "opening_hours": "24/7",
                "operator": "T.D.M. S.R.L.",
                "ref:mise": "28396",
                "self_service": "yes",
                "wheelchair": "yes"
            }
        },
        {
            "type": "node",
            "id": 228114326,
            "lat": 45.272516,
            "lon": 9.253433,
            "timestamp": "2025-09-29T11:01:53Z",
            "version": 4,
            "changeset": 172606837,
            "user": "btcitnet",
            "uid": 22525435,
            "tags": {
                "amenity": "fuel",
                "brand": "Tamoil",
                "brand:wikidata": "Q706793",
                "brand:wikipedia": "en:Tamoil",
                "name": "Tamoil",
                "operator": "Tamoil"
            }
        },
        {
            "type": "node",
            "id": 228177471,
            "lat": 45.352334,
            "lon": 9.294482,
            "timestamp": "2025-10-29T14:48:13Z",
            "version": 8,
            "changeset": 173933851,
            "user": "btcitnet",
            "uid": 22525435,
            "tags": {
                "addr:city": "Carpiano",
                "addr:postcode": "20074",
                "addr:street": "Strada provinciale 40 Binasco-Melegnano",
                "amenity": "fuel",
                "brand": "Q8",
                "brand:wikidata": "Q1634762",
                "brand:wikipedia": "en:Kuwait Petroleum Corporation",
                "fuel:diesel": "yes",
                "fuel:octane_95": "yes",
                "name": "Q8",
                "opening_hours": "chiuso",
                "operator": "Servizi & Gestioni Italia S.R.L.",
                "ref:mise": "28231",
                "source": "MISE - Ministero Sviluppo Economico"
            }
        },
        {
            "type": "node",
            "id": 228182589,
            "lat": 45.38693,
            "lon": 9.54058,
            "timestamp": "2025-04-19T21:52:11Z",
            "version": 6,
            "changeset": 165172206,
            "user": "btcitnet",
            "uid": 22525435,
            "tags": {
                "addr:city": "Dovera",
                "addr:street": "Strada Provinciale 415 Paullese",
                "brand": "Q8",
                "brand:wikidata": "Q1634762",
                "brand:wikipedia": "en:Kuwait Petroleum Corporation",
                "demolished:amenity": "fuel",
                "name": "Q8",
                "operator": "Q8"
            }
        },
        {
            "type": "node",
            "id": 228231629,
            "lat": 45.359277,
            "lon": 9.646313,
            "timestamp": "2025-10-03T10:38:40Z",
            "version": 6,
            "changeset": 172784346,
            "user": "btcitnet",
            "uid": 22525435,
            "tags": {
                "addr:city": "Crema",
                "addr:housenumber": "73",
                "addr:postcode": "26013",
                "addr:street": "Via Milano",
                "amenity": "fuel",
                "brand": "Tamoil",
                "brand:wikidata": "Q706793",
                "name": "Tamoil",
                "operator": "T.D.M. S.R.L.",
                "ref:mise": "34261"
            }
        },
        {
            "type": "node",
            "id": 228250787,
            "lat": 45.148976,
            "lon": 10.048928,
            "timestamp": "2025-10-03T10:39:38Z",
            "version": 6,
            "changeset": 172784389,
            "user": "btcitnet",
            "uid": 22525435,
            "tags": {
                "addr:city": "Cremona",
                "addr:housenumber": "63",
                "addr:postcode": "26100",
                "addr:street": "Via Persico",
                "amenity": "fuel",
                "brand": "Tamoil",
                "brand:wikidata": "Q706793",
                "brand:wikipedia": "en:Tamoil",
                "name": "Tamoil",
                "operator": "Singh Gurmail",
                "ref:mise": "36222"
            }
        },
        {
            "type": "node",
            "id": 229119930,
            "lat": 45.4811921,
            "lon": 9.7918505,
            "timestamp": "2025-10-03T16:34:41Z",
            "version": 8,
            "changeset": 172800871,
            "user": "btcitnet",
            "uid": 22525435,
            "tags": {
                "addr:city": "Antegnate",
                "addr:housenumber": "2",
                "addr:postcode": "24051",
                "addr:street": "Via Cremona",
                "amenity": "fuel",
                "brand": "Q8",
                "brand:wikidata": "Q1634762",
                "brand:wikipedia": "en:Kuwait Petroleum Corporation",
                "name": "Q8",
                "operator": "Servizi & Gestioni Italia Srl",
                "ref:mise": "6451"
            }
        },
        {
            "type": "node",
            "id": 282338811,
            "lat": 45.1899988,
            "lon": 9.149003,
            "timestamp": "2025-05-23T16:14:03Z",
            "version": 8,
            "changeset": 166664102,
            "user": "olgia",
            "uid": 216179,
            "tags": {
                "addr:city": "Pavia",
                "addr:housenumber": "6",
                "addr:street": "Via Fabio Filzi",
                "branch": "PAVIA",
                "brand": "Esselunga",
                "brand:wikidata": "Q1059636",
                "name": "Esselunga",
                "opening_hours": "Mo-Sa 07:30-21:00; Su 09:00-20:00",
                "phone": "+39 0382 26210",
                "shop": "supermarket",
                "website": "https://www.esselunga.it/it-it/negozi/negozio.esselunga-di-pavia.via.html"
            }
        },
        {
            "type": "node",
            "id": 608075657,
            "lat": 45.3566373,
            "lon": 9.6763552,
            "timestamp": "2025-10-03T16:36:54Z",
            "version": 4,
            "changeset": 172800960,
            "user": "btcitnet",
            "uid": 22525435,
            "tags": {
                "addr:city": "Crema",
                "addr:postcode": "26013",
                "addr:street": "Via Libero Comune",
                "amenity": "fuel",
                "brand": "Q8",
                "brand:wikidata": "Q1634762",
                "name": "Q8",
                "operator": "Servizi & Gestioni Italia S.R.L.",
                "ref:mise": "10109"
            }
        },
        {
            "type": "node",
            "id": 613400888,
            "lat": 45.0429967,
            "lon": 9.7390816,
            "timestamp": "2025-10-03T16:37:57Z",
            "version": 8,
            "changeset": 172801020,
            "user": "btcitnet",
            "uid": 22525435,
            "tags": {
                "addr:city": "Piacenza",
                "addr:postcode": "29100",
                "addr:street": "Strada Provinciale 10 Caorsana",
                "amenity": "fuel",
                "brand": "Tamoil",
                "brand:wikidata": "Q706793",
                "name": "Tamoil",
                "operator": "T.D.M. S.R.L.",
                "ref:mise": "39406"
            }
        },
        {
            "type": "node",
            "id": 637790657,
            "lat": 45.3592971,
            "lon": 9.6780972,
            "timestamp": "2025-10-03T16:38:49Z",
            "version": 5,
            "changeset": 172801075,
            "user": "btcitnet",
            "uid": 22525435,
            "tags": {
                "addr:city": "Crema",
                "addr:housenumber": "48",
                "addr:postcode": "26013",
                "addr:street": "Via Alcide De Gasperi",
                "amenity": "fuel",
                "brand": "Tamoil",
                "brand:wikidata": "Q706793",
                "name": "Tamoil",
                "operator": "Gorno Ferdinando",
                "ref:mise": "15578"
            }
        },
        {
            "type": "node",
            "id": 727759507,
            "lat": 45.3632052,
            "lon": 9.6955889,
            "timestamp": "2025-10-04T17:29:46Z",
            "version": 5,
            "changeset": 172840315,
            "user": "btcitnet",
            "uid": 22525435,
            "tags": {
                "addr:city": "Crema",
                "addr:postcode": "26013",
                "amenity": "fuel",
                "brand": "Tamoil",
                "brand:wikidata": "Q706793",
                "fuel:diesel": "yes",
                "name": "Tamoil",
                "operator": "Stazione di Servizio Formenti Roberto e C. S.N.C.",
                "ref:mise": "37751"
            }
        },
        {
            "type": "node",
            "id": 800819956,
            "lat": 44.6322029,
            "lon": 9.7309073,
            "timestamp": "2025-10-16T18:43:59Z",
            "version": 5,
            "changeset": 173380232,
            "user": "btcitnet",
            "uid": 22525435,
            "tags": {
                "addr:city": "Bardi",
                "addr:postcode": "43032",
                "amenity": "fuel",
                "brand": "Tamoil",
                "brand:wikidata": "Q706793",
                "name": "Tamoil",
                "operator": "Moruzzi Giuseppe",
                "ref:mise": "35824"
            }
        },
        {
            "type": "node",
            "id": 806501098,
            "lat": 45.3588668,
            "lon": 9.6738161,
            "timestamp": "2025-10-04T17:31:03Z",
            "version": 4,
            "changeset": 172840343,
            "user": "btcitnet",
            "uid": 22525435,
            "tags": {
                "addr:city": "Crema",
                "addr:housenumber": "76",
                "addr:postcode": "26013",
                "addr:street": "Via Alcide De Gasperi",
                "alt_name": "Brico io Crema",
                "brand": "Brico",
                "brand:wikidata": "Q2510786",
                "brand:wikipedia": "en:Brico",
                "name": "Brico",
                "shop": "doityourself"
            }
        },
        {
            "type": "node",
            "id": 967187092,
            "lat": 45.4027571,
            "lon": 9.4695105,
            "timestamp": "2025-10-06T19:34:30Z",
            "version": 5,
            "changeset": 172931236,
            "user": "btcitnet",
            "uid": 22525435,
            "tags": {
                "addr:city": "Spino d'Adda",
                "addr:postcode": "26016",
                "addr:street": "Strada Provinciale 415 Paullese",
                "amenity": "fuel",
                "brand": "Tamoil",
                "brand:wikidata": "Q706793",
                "name": "Tamoil",
                "operator": "T.D.M. S.R.L.",
                "ref:mise": "37125"
            }
        },
        {
            "type": "node",
            "id": 967989427,
            "lat": 45.3764175,
            "lon": 9.7376242,
            "timestamp": "2025-10-04T17:31:54Z",
            "version": 3,
            "changeset": 172840373,
            "user": "btcitnet",
            "uid": 22525435,
            "tags": {
                "addr:city": "Offanengo",
                "addr:housenumber": "6",
                "addr:postcode": "26010",
                "addr:street": "Via Circonvallazione Sud",
                "brand": "Conad",
                "brand:wikidata": "Q639075",
                "brand:wikipedia": "it:Conad",
                "name": "Conad",
                "shop": "supermarket"
            }
        },
        {
            "type": "node",
            "id": 974121376,
            "lat": 45.1675921,
            "lon": 10.2818528,
            "timestamp": "2025-10-04T17:32:48Z",
            "version": 8,
            "changeset": 172840404,
            "user": "btcitnet",
            "uid": 22525435,
            "tags": {
                "addr:city": "Pessina Cremonese",
                "addr:postcode": "26030",
                "amenity": "fuel",
                "brand": "Tamoil",
                "brand:wikidata": "Q706793",
                "brand:wikipedia": "en:Tamoil",
                "compressed_air": "yes",
                "name": "Tamoil",
                "opening_hours": "24/7",
                "operator": "Area Truck Self di Gianna Antonia Guarneri & C. Societ\u00e0 in Accomandita Semplice",
                "ref:mise": "7405",
                "self_service": "yes",
                "wheelchair": "yes"
            }
        },
        {
            "type": "node",
            "id": 1113884906,
            "lat": 45.3619449,
            "lon": 9.6848624,
            "timestamp": "2020-11-29T18:30:50Z",
            "version": 3,
            "changeset": 94995483,
            "user": "dega180",
            "uid": 454306,
            "tags": {
                "brand": "United Colors of Benetton",
                "brand:wikidata": "Q817139",
                "brand:wikipedia": "en:Benetton Group",
                "name": "United Colors of Benetton",
                "shop": "clothes",
                "short_name": "Benetton"
            }
        },
        {
            "type": "node",
            "id": 1390242526,
            "lat": 45.3633663,
            "lon": 9.6905115,
            "timestamp": "2020-11-29T18:30:50Z",
            "version": 4,
            "changeset": 94995483,
            "user": "dega180",
            "uid": 454306,
            "tags": {
                "addr:city": "Crema",
                "addr:country": "IT",
                "addr:housenumber": "83",
                "addr:postcode": "26013",
                "addr:street": "Via Giuseppe Mazzini",
                "brand": "Calzedonia",
                "brand:wikidata": "Q1027874",
                "brand:wikipedia": "en:Calzedonia",
                "clothes": "underwear",
                "name": "Calzedonia",
                "phone": "+39 0373 80304",
                "shop": "clothes"
            }
        },
        {
            "type": "node",
            "id": 1422475886,
            "lat": 45.3633226,
            "lon": 9.6898158,
            "timestamp": "2025-09-30T08:46:34Z",
            "version": 3,
            "changeset": 172649501,
            "user": "btcitnet",
            "uid": 22525435,
            "tags": {
                "addr:city": "Crema",
                "addr:housenumber": "55",
                "addr:postcode": "26013",
                "addr:street": "Via Giuseppe Mazzini",
                "brand": "Intimissimi",
                "brand:wikidata": "Q305404",
                "brand:wikipedia": "en:Intimissimi",
                "clothes": "underwear",
                "name": "Intimissimi",
                "shop": "clothes"
            }
        },
        {
            "type": "node",
            "id": 1422475889,
            "lat": 45.3632463,
            "lon": 9.68978,
            "timestamp": "2025-10-18T17:02:21Z",
            "version": 5,
            "changeset": 173459901,
            "user": "btcitnet",
            "uid": 22525435,
            "tags": {
                "addr:city": "Crema",
                "addr:postcode": "26013",
                "brand": "Mondadori",
                "brand:wikidata": "Q85355",
                "brand:wikipedia": "en:Arnoldo Mondadori Editore",
                "contact:housenumber": "48",
                "contact:street": "Via Giuseppe Mazzini",
                "name": "Mondadori",
                "payment:cash": "yes",
                "payment:maestro": "yes",
                "payment:mastercard": "yes",
                "payment:visa": "yes",
                "phone": "+39 0373 80379",
                "shop": "books"
            }
        },
        {
            "type": "node",
            "id": 1422475891,
            "lat": 45.3632931,
            "lon": 9.6890767,
            "timestamp": "2025-09-30T11:15:33Z",
            "version": 6,
            "changeset": 172655579,
            "user": "btcitnet",
            "uid": 22525435,
            "tags": {
                "addr:city": "Crema",
                "addr:housenumber": "25/27",
                "addr:postcode": "26013",
                "addr:street": "Via Giuseppe Mazzini",
                "brand": "Tezenis",
                "brand:wikidata": "Q28056374",
                "brand:wikipedia": "ru:Tezenis",
                "clothes": "underwear",
                "name": "Tezenis",
                "shop": "clothes"
            }
        },
        {
            "type": "node",
            "id": 1450599264,
            "lat": 45.3631993,
            "lon": 9.6884665,
            "timestamp": "2020-11-29T18:30:50Z",
            "version": 5,
            "changeset": 94995483,
            "user": "dega180",
            "uid": 454306,
            "tags": {
                "addr:city": "Crema",
                "addr:country": "IT",
                "addr:housenumber": "7",
                "addr:postcode": "26013",
                "addr:street": "Via Giuseppe Mazzini",
                "brand": "United Colors of Benetton",
                "brand:wikidata": "Q817139",
                "brand:wikipedia": "en:Benetton Group",
                "name": "United Colors of Benetton",
                "phone": "+39 0373 84275",
                "shop": "clothes",
                "short_name": "Benetton"
            }
        },
        {
            "type": "node",
            "id": 1496668342,
            "lat": 45.368328,
            "lon": 9.7207125,
            "timestamp": "2025-10-04T17:33:57Z",
            "version": 5,
            "changeset": 172840428,
            "user": "btcitnet",
            "uid": 22525435,
            "tags": {
                "addr:city": "Crema",
                "addr:postcode": "26013",
                "addr:street": "Via Serenissima",
                "amenity": "fuel",
                "brand": "Q8",
                "brand:wikidata": "Q1634762",
                "name": "Q8",
                "operator": "Servizi & Gestioni Italia S.R.L.",
                "ref:mise": "21234"
            }
        },
        {
            "type": "node",
            "id": 1707052013,
            "lat": 45.3304235,
            "lon": 10.0766184,
            "timestamp": "2025-10-23T15:01:09Z",
            "version": 4,
            "changeset": 173679189,
            "user": "btcitnet",
            "uid": 22525435,
            "tags": {
                "addr:city": "Verolanuova",
                "addr:postcode": "25028",
                "addr:street": "Via Gerolamo Rovetta",
                "brand": "Conad",
                "brand:wikidata": "Q639075",
                "name": "Conad",
                "shop": "supermarket"
            }
        },
        {
            "type": "node",
            "id": 1748598326,
            "lat": 44.8608417,
            "lon": 10.0533096,
            "timestamp": "2024-06-08T13:01:06Z",
            "version": 3,
            "changeset": 152413531,
            "user": "Chiarant",
            "uid": 18452174,
            "tags": {
                "addr:city": "Fidenza",
                "addr:housenumber": "1",
                "addr:postcode": "43036",
                "addr:street": "Viale Trieste",
                "brand": "Conad",
                "brand:wikidata": "Q639075",
                "brand:wikipedia": "it:Conad",
                "name": "Conad",
                "opening_hours": "Mo-Sa 08:00-20:00; Su 09:00-13:00",
                "shop": "supermarket"
            }
        },
        {
            "type": "node",
            "id": 1797393762,
            "lat": 45.305864,
            "lon": 9.508433,
            "timestamp": "2023-07-07T18:18:25Z",
            "version": 4,
            "changeset": 138239702,
            "user": "Chiarant",
            "uid": 18452174,
            "tags": {
                "addr:city": "Lodi",
                "addr:housenumber": "67",
                "addr:street": "Corso Giuseppe Mazzini",
                "check_date": "2023-07-07",
                "currency:XBT": "yes",
                "name": "Ecotaurus - Noleggio Bagni Chimici",
                "shop": "trade",
                "source": "Cartografia Provincia di Lodi",
                "website": "https://www.ecotaurus.it/"
            }
        },
        {
            "type": "node",
            "id": 1797439849,
            "lat": 45.3139522,
            "lon": 9.5018283,
            "timestamp": "2022-05-30T18:03:43Z",
            "version": 4,
            "changeset": 121733276,
            "user": "Mannivu",
            "uid": 1950277,
            "tags": {
                "addr:city": "Lodi",
                "addr:housenumber": "39",
                "addr:postcode": "26900",
                "addr:street": "Piazza della Vittoria",
                "brand": "Mondadori",
                "brand:wikidata": "Q85355",
                "brand:wikipedia": "en:Arnoldo Mondadori Editore",
                "name": "Mondadori",
                "shop": "books",
                "source": "Cartografia Provincia di Lodi"
            }
        },
        {
            "type": "node",
            "id": 1935708284,
            "lat": 44.813364,
            "lon": 10.1732084,
            "timestamp": "2025-10-05T14:57:59Z",
            "version": 3,
            "changeset": 172871871,
            "user": "btcitnet",
            "uid": 22525435,
            "tags": {
                "addr:city": "Noceto",
                "addr:housenumber": "1",
                "addr:postcode": "43015",
                "addr:street": "Piazza Calipari",
                "brand": "Conad",
                "brand:wikidata": "Q639075",
                "brand:wikipedia": "it:Conad",
                "name": "Conad",
                "shop": "supermarket"
            }
        },
        {
            "type": "node",
            "id": 2068127753,
            "lat": 45.1496272,
            "lon": 10.0280021,
            "timestamp": "2025-10-05T14:59:03Z",
            "version": 6,
            "changeset": 172871935,
            "user": "btcitnet",
            "uid": 22525435,
            "tags": {
                "addr:city": "Cremona",
                "addr:housenumber": "27",
                "addr:postcode": "26100",
                "addr:street": "Via Rosario",
                "amenity": "fuel",
                "brand": "Tamoil",
                "brand:wikidata": "Q706793",
                "brand:wikipedia": "en:Tamoil",
                "name": "Tamoil",
                "operator": "Cremona Oil Societ\u00e0 in Nome Collettivo di Malinverno Gianni e Cavallotti Barbara",
                "ref:mise": "7456",
                "self_service": "yes"
            }
        },
        {
            "type": "node",
            "id": 2106376582,
            "lat": 45.1432677,
            "lon": 9.9980382,
            "timestamp": "2025-10-05T14:59:51Z",
            "version": 11,
            "changeset": 172871980,
            "user": "btcitnet",
            "uid": 22525435,
            "tags": {
                "addr:city": "Cremona",
                "addr:housenumber": "7/B",
                "addr:postcode": "26100",
                "addr:street": "Via Milano",
                "amenity": "fuel",
                "brand": "Tamoil",
                "brand:wikidata": "Q706793",
                "brand:wikipedia": "en:Tamoil",
                "check_date": "2024-11-02",
                "compressed_air": "yes",
                "name": "Tamoil",
                "opening_hours": "24/7",
                "operator": "Gestore Distributori Cristiani/Mariani di Antonio Caridi",
                "ref:mise": "29661",
                "self_service": "yes",
                "wheelchair": "yes"
            }
        },
        {
            "type": "node",
            "id": 2106376583,
            "lat": 45.1479419,
            "lon": 10.0037071,
            "timestamp": "2025-10-07T20:08:09Z",
            "version": 5,
            "changeset": 172976264,
            "user": "btcitnet",
            "uid": 22525435,
            "tags": {
                "addr:city": "Cremona",
                "addr:housenumber": "45",
                "addr:postcode": "26100",
                "addr:street": "Via Castelleone",
                "amenity": "fuel",
                "brand": "Tamoil",
                "brand:wikidata": "Q706793",
                "brand:wikipedia": "en:Tamoil",
                "name": "Tamoil",
                "operator": "C. & G. Service S.A.S. di Colio Tiziana",
                "ref:mise": "26235"
            }
        },
        {
            "type": "node",
            "id": 2353978443,
            "lat": 44.6802532,
            "lon": 9.924658,
            "timestamp": "2025-03-27T17:32:40Z",
            "version": 5,
            "changeset": 164174413,
            "user": "Alessio Peracchi",
            "uid": 22681717,
            "tags": {
                "addr:city": "Varano de' Melegari",
                "addr:housenumber": "121",
                "addr:postcode": "43040",
                "addr:street": "Via Provinciale",
                "addr:unit": "A",
                "amenity": "fuel",
                "brand:wikidata": "Q706793",
                "fuel:diesel": "yes",
                "fuel:e85": "yes",
                "name": "Fioroil",
                "self_service": "yes"
            }
        },
        {
            "type": "node",
            "id": 2363415656,
            "lat": 45.4705416,
            "lon": 9.5151745,
            "timestamp": "2025-10-01T14:35:46Z",
            "version": 6,
            "changeset": 172709843,
            "user": "btcitnet",
            "uid": 22525435,
            "tags": {
                "addr:city": "Rivolta D'Adda",
                "addr:housenumber": "3",
                "addr:postcode": "26027",
                "addr:street": "Viale Piave",
                "amenity": "fuel",
                "brand": "Tamoil",
                "brand:wikidata": "Q706793",
                "brand:wikipedia": "en:Tamoil",
                "name": "Tamoil",
                "operator": "Mohamed Abdelaziz Ibrahim Issam",
                "ref:mise": "22646"
            }
        },
        {
            "type": "node",
            "id": 2389295918,
            "lat": 45.335375,
            "lon": 9.7338776,
            "timestamp": "2025-10-07T20:58:25Z",
            "version": 5,
            "changeset": 172977712,
            "user": "btcitnet",
            "uid": 22525435,
            "tags": {
                "addr:city": "Madignano",
                "addr:postcode": "26020",
                "addr:street": "Strada Provinciale 415 Paullese",
                "amenity": "fuel",
                "brand": "Tamoil",
                "brand:wikidata": "Q706793",
                "name": "Tamoil",
                "operator": "Stazione di Servizio Formenti Roberto e C. S.N.C.",
                "ref:mise": "22520"
            }
        },
        {
            "type": "node",
            "id": 2389503405,
            "lat": 45.3536264,
            "lon": 9.6636353,
            "timestamp": "2022-11-08T07:54:20Z",
            "version": 2,
            "changeset": 128627733,
            "user": "BSN21M",
            "uid": 17441326,
            "tags": {
                "addr:city": "Crema",
                "addr:postcode": "26013",
                "addr:street": "Via Cappuccini",
                "currency:XBT": "yes",
                "name": "Matilde Parrucchiera",
                "payment:lightning": "no",
                "payment:lightning_contactless": "no",
                "payment:onchain": "yes",
                "phone": "+39 037330293",
                "shop": "hairdresser",
                "survey:date": "2022-11-08",
                "unisex": "yes",
                "website": "https://www.facebook.com/matildeparrucchiera/"
            }
        },
        {
            "type": "node",
            "id": 2390297778,
            "lat": 45.3577501,
            "lon": 9.6691729,
            "timestamp": "2025-10-07T20:59:08Z",
            "version": 8,
            "changeset": 172977727,
            "user": "btcitnet",
            "uid": 22525435,
            "tags": {
                "addr:city": "Crema",
                "addr:housenumber": "7",
                "addr:postcode": "26013",
                "addr:street": "Viale Europa",
                "amenity": "fuel",
                "brand": "Tamoil",
                "brand:wikidata": "Q706793",
                "name": "Tamoil",
                "operator": "Marzio Prospero Davide",
                "ref:mise": "30948"
            }
        },
        {
            "type": "node",
            "id": 2402485820,
            "lat": 45.2446709,
            "lon": 9.8108215,
            "timestamp": "2022-11-15T20:35:47Z",
            "version": 8,
            "changeset": 128958565,
            "user": "pdovera",
            "uid": 1545610,
            "tags": {
                "addr:city": "San Bassano",
                "addr:housenumber": "15",
                "addr:postcode": "26020",
                "addr:street": "Via Castel Manfredo",
                "amenity": "fuel",
                "brand": "Tamoil",
                "brand:wikidata": "Q706793",
                "brand:wikipedia": "en:Tamoil",
                "compressed_air": "yes",
                "fuel:biodiesel": "no",
                "fuel:biogas": "no",
                "fuel:cng": "no",
                "fuel:diesel": "yes",
                "fuel:electricity": "no",
                "fuel:lpg": "no",
                "fuel:octane_95": "yes",
                "name": "Tamoil",
                "operator": "Freschi Gianpiero",
                "phone": "+39 0374 372140",
                "ref:mise": "39394"
            }
        },
        {
            "type": "node",
            "id": 2404906848,
            "lat": 45.3662308,
            "lon": 9.6291806,
            "timestamp": "2025-01-01T22:57:38Z",
            "version": 8,
            "changeset": 160888120,
            "user": "mpbin",
            "uid": 21850090,
            "tags": {
                "addr:city": "Bagnolo Cremasco",
                "addr:postcode": "26010",
                "addr:street": "Strada Provinciale 415 Paullese",
                "brand": "Trony",
                "brand:wikidata": "Q3999692",
                "name": "Trony",
                "operator": "Trony",
                "shop": "electronics"
            }
        },
        {
            "type": "node",
            "id": 2428270148,
            "lat": 45.367334,
            "lon": 9.6784294,
            "timestamp": "2025-10-29T14:50:04Z",
            "version": 4,
            "changeset": 173933936,
            "user": "btcitnet",
            "uid": 22525435,
            "tags": {
                "addr:city": "Crema",
                "addr:housenumber": "89",
                "addr:postcode": "26013",
                "addr:street": "Via Indipendenza",
                "amenity": "fuel",
                "brand": "Q8",
                "brand:wikidata": "Q1634762",
                "name": "Q8",
                "operator": "Servizi & Gestioni Italia S.R.L.",
                "ref:mise": "32485"
            }
        },
        {
            "type": "node",
            "id": 2433650788,
            "lat": 45.3464896,
            "lon": 10.1345338,
            "timestamp": "2025-10-06T15:25:24Z",
            "version": 5,
            "changeset": 172920611,
            "user": "btcitnet",
            "uid": 22525435,
            "tags": {
                "addr:city": "Manerbio",
                "addr:housenumber": "10",
                "addr:postcode": "25025",
                "addr:street": "Via Cremona",
                "brand": "Trony",
                "brand:wikidata": "Q3999692",
                "name": "Trony",
                "shop": "electronics"
            }
        },
        {
            "type": "node",
            "id": 2438760363,
            "lat": 45.359557,
            "lon": 9.6806843,
            "timestamp": "2025-10-25T16:15:28Z",
            "version": 4,
            "changeset": 173763209,
            "user": "btcitnet",
            "uid": 22525435,
            "tags": {
                "addr:city": "Crema",
                "addr:housenumber": "36",
                "addr:postcode": "26013",
                "addr:street": "Viale Repubblica",
                "addr:suburb": "Crema Nuova",
                "branch": "La Sanitaria",
                "brand": "Chicco",
                "brand:wikidata": "Q27897515",
                "contact:phone": "+39 0373 202838",
                "contact:website": "https://www.ortopediacremacr.it/",
                "description:it": "negozio per il bambino e di articoli ortopedici",
                "name": "Chicco",
                "ref:vatin": "IT00753310192",
                "shop": "baby_goods"
            }
        },
        {
            "type": "node",
            "id": 2776102704,
            "lat": 45.1889928,
            "lon": 9.1476089,
            "timestamp": "2025-01-03T14:03:10Z",
            "version": 4,
            "changeset": 160950617,
            "user": "mpbin",
            "uid": 21850090,
            "tags": {
                "addr:city": "Pavia",
                "addr:country": "IT",
                "addr:housenumber": "70",
                "addr:postcode": "27100",
                "addr:street": "Viale Cesare Battisti",
                "brand": "OVS",
                "brand:wikidata": "Q2042514",
                "name": "OVS",
                "operator": "OVS",
                "shop": "clothes"
            }
        },
        {
            "type": "node",
            "id": 2925660040,
            "lat": 45.4033748,
            "lon": 9.551727,
            "timestamp": "2025-10-16T18:31:16Z",
            "version": 5,
            "changeset": 173379682,
            "user": "btcitnet",
            "uid": 22525435,
            "tags": {
                "addr:city": "Pandino",
                "addr:housenumber": "2",
                "addr:postcode": "26025",
                "addr:street": "Via Roma",
                "amenity": "fuel",
                "brand": "Tamoil",
                "brand:wikidata": "Q706793",
                "brand:wikipedia": "en:Tamoil",
                "fuel:diesel": "yes",
                "fuel:octane_95": "yes",
                "name": "Tamoil",
                "operator": "Awadin Ali",
                "ref:mise": "35650",
                "source": "MISE - Ministero Sviluppo Economico"
            }
        },
        {
            "type": "node",
            "id": 2993902046,
            "lat": 44.9335803,
            "lon": 9.8915099,
            "timestamp": "2025-10-29T15:06:22Z",
            "version": 9,
            "changeset": 173934654,
            "user": "btcitnet",
            "uid": 22525435,
            "tags": {
                "addr:city": "Fiorenzuola D'arda",
                "addr:postcode": "29010",
                "addr:street": "Strada Statale 9 Tangenziale di Fiorenzuola",
                "amenity": "fuel",
                "brand": "Q8",
                "brand:wikidata": "Q1634762",
                "brand:wikipedia": "en:Kuwait Petroleum Corporation",
                "contact:website": "https://www.q8.it/?utm_campaign=listing&utm_medium=q8&utm_source=googlemybusiness",
                "fuel:cng": "no",
                "fuel:diesel": "yes",
                "fuel:lpg": "yes",
                "fuel:octane_95": "yes",
                "fuel:octane_98": "yes",
                "name": "Q8",
                "operator": "Servizi & Gestioni Italia S.R.L.",
                "ref:mise": "11753"
            }
        },
        {
            "type": "node",
            "id": 3002534049,
            "lat": 45.3548969,
            "lon": 9.3379902,
            "timestamp": "2025-10-29T15:07:40Z",
            "version": 3,
            "changeset": 173934706,
            "user": "btcitnet",
            "uid": 22525435,
            "tags": {
                "addr:city": "Vizzolo Predabissi",
                "addr:postcode": "20077",
                "addr:street": "Via Emilia",
                "brand": "Carrefour",
                "brand:wikidata": "Q217599",
                "brand:wikipedia": "fr:Carrefour (enseigne)",
                "name": "Carrefour",
                "phone": "+39 029832173",
                "shop": "supermarket"
            }
        },
        {
            "type": "node",
            "id": 3045965410,
            "lat": 45.1539586,
            "lon": 9.1266032,
            "timestamp": "2025-01-03T10:11:25Z",
            "version": 5,
            "changeset": 160941254,
            "user": "mpbin",
            "uid": 21850090,
            "tags": {
                "addr:city": "San Martino Siccomario",
                "addr:housenumber": "3-5",
                "addr:postcode": "27028",
                "addr:street": "Strada Provinciale Per Mortara",
                "brand": "Decathlon",
                "brand:wikidata": "Q509349",
                "clothes": "sports",
                "name": "Decathlon",
                "operator": "Decathlon",
                "shop": "sports"
            }
        },
        {
            "type": "node",
            "id": 3053570819,
            "lat": 45.1902222,
            "lon": 9.1536618,
            "timestamp": "2025-10-29T15:08:55Z",
            "version": 3,
            "changeset": 173934764,
            "user": "btcitnet",
            "uid": 22525435,
            "tags": {
                "addr:city": "Pavia",
                "addr:housenumber": "53",
                "addr:postcode": "27100",
                "addr:street": "Viale Giacomo Matteotti",
                "brand": "Carrefour",
                "brand:wikidata": "Q217599",
                "name": "Carrefour",
                "phone": "+39 038233650",
                "shop": "convenience"
            }
        },
        {
            "type": "node",
            "id": 3055352567,
            "lat": 45.1305308,
            "lon": 9.1203225,
            "timestamp": "2025-02-05T11:57:27Z",
            "version": 3,
            "changeset": 162162225,
            "user": "damianeue",
            "uid": 10124288,
            "tags": {
                "addr:city": "Cava Manara",
                "addr:housenumber": "22",
                "addr:postcode": "27051",
                "addr:street": "Via Filippo Turati",
                "brand": "OVS",
                "brand:wikidata": "Q2042514",
                "name": "OVS",
                "operator": "OVS",
                "shop": "clothes"
            }
        },
        {
            "type": "node",
            "id": 3344567960,
            "lat": 45.481276,
            "lon": 9.7813136,
            "timestamp": "2025-08-24T09:47:13Z",
            "version": 13,
            "changeset": 170914694,
            "user": "Mannivu",
            "uid": 1950277,
            "tags": {
                "addr:city": "Antegnate",
                "addr:housenumber": "3",
                "addr:postcode": "24051",
                "addr:street": "Via del commercio",
                "brand": "Trony",
                "brand:wikidata": "Q3999692",
                "brand:wikipedia": "it:Trony",
                "check_date": "2025-08-24",
                "check_date:opening_hours": "2025-08-24",
                "level": "1",
                "name": "Trony",
                "opening_hours": "Mo-Su 09:00-20:00",
                "operator": "Trony",
                "shop": "electronics",
                "toilets": "no",
                "wheelchair": "yes"
            }
        },
        {
            "type": "node",
            "id": 4124657708,
            "lat": 45.3357339,
            "lon": 9.6924699,
            "timestamp": "2025-10-16T18:23:53Z",
            "version": 5,
            "changeset": 173379456,
            "user": "btcitnet",
            "uid": 22525435,
            "tags": {
                "addr:city": "Ripalta Cremasca",
                "addr:housenumber": "2",
                "addr:postcode": "26010",
                "addr:street": "Via Roma",
                "amenity": "fuel",
                "brand": "Tamoil",
                "brand:wikidata": "Q706793",
                "name": "Tamoil",
                "operator": "Al Chiosco di Matteo Samarani",
                "ref:mise": "7934"
            }
        },
        {
            "type": "node",
            "id": 4142679689,
            "lat": 44.8659663,
            "lon": 10.0555121,
            "timestamp": "2025-10-06T10:33:32Z",
            "version": 3,
            "changeset": 172906538,
            "user": "btcitnet",
            "uid": 22525435,
            "tags": {
                "addr:city": "Fidenza",
                "addr:housenumber": "13",
                "addr:postcode": "43036",
                "addr:street": "Via Francesco Gramizzi",
                "brand": "Conad",
                "brand:wikidata": "Q639075",
                "brand:wikipedia": "it:Conad",
                "name": "Conad",
                "shop": "supermarket"
            }
        },
        {
            "type": "node",
            "id": 4217319810,
            "lat": 45.0523588,
            "lon": 9.6941552,
            "timestamp": "2025-01-03T14:06:49Z",
            "version": 4,
            "changeset": 160950762,
            "user": "mpbin",
            "uid": 21850090,
            "tags": {
                "addr:city": "Piacenza",
                "addr:postcode": "29121",
                "addr:street": "Via Venti Settembre",
                "brand": "OVS",
                "brand:wikidata": "Q2042514",
                "brand:wikipedia": "en:OVS (company)",
                "name": "OVS",
                "operator": "OVS",
                "shop": "clothes"
            }
        },
        {
            "type": "node",
            "id": 4217336946,
            "lat": 45.0519724,
            "lon": 9.6946979,
            "timestamp": "2021-05-21T20:28:10Z",
            "version": 4,
            "changeset": 105107623,
            "user": "wheelmap_visitor",
            "uid": 290680,
            "tags": {
                "addr:city": "Piacenza",
                "addr:postcode": "29121",
                "addr:street": "Via Venti Settembre",
                "brand": "Foot Locker",
                "brand:wikidata": "Q63335",
                "brand:wikipedia": "en:Foot Locker",
                "name": "Foot Locker",
                "shop": "shoes",
                "wheelchair": "no"
            }
        },
        {
            "type": "node",
            "id": 4217337689,
            "lat": 45.0519184,
            "lon": 9.6947834,
            "timestamp": "2020-12-18T03:32:18Z",
            "version": 3,
            "changeset": 96036510,
            "user": "ivanbranco",
            "uid": 11220113,
            "tags": {
                "addr:city": "Piacenza",
                "addr:postcode": "29121",
                "addr:street": "Via Venti Settembre",
                "brand": "Tezenis",
                "brand:wikidata": "Q28056374",
                "name": "Tezenis",
                "shop": "clothes"
            }
        },
        {
            "type": "node",
            "id": 4217340727,
            "lat": 45.051731,
            "lon": 9.6950658,
            "timestamp": "2024-10-25T15:18:13Z",
            "version": 4,
            "changeset": 158342817,
            "user": "DnaX",
            "uid": 69259,
            "tags": {
                "addr:city": "Piacenza",
                "addr:postcode": "29121",
                "addr:street": "Via Venti Settembre",
                "brand": "Bottega Verde",
                "brand:wikidata": "Q894870",
                "name": "Bottega Verde",
                "shop": "cosmetics"
            }
        },
        {
            "type": "node",
            "id": 4217498295,
            "lat": 45.0526123,
            "lon": 9.6938755,
            "timestamp": "2024-10-25T15:18:13Z",
            "version": 5,
            "changeset": 158342817,
            "user": "DnaX",
            "uid": 69259,
            "tags": {
                "addr:city": "Piacenza",
                "addr:postcode": "29121",
                "addr:street": "Via Venti Settembre",
                "brand": "La Feltrinelli",
                "brand:wikidata": "Q96311190",
                "name": "La Feltrinelli",
                "shop": "books"
            }
        },
        {
            "type": "node",
            "id": 4388772593,
            "lat": 45.4091337,
            "lon": 9.9308693,
            "timestamp": "2025-10-23T19:58:47Z",
            "version": 5,
            "changeset": 173690709,
            "user": "btcitnet",
            "uid": 22525435,
            "tags": {
                "addr:city": "Orzinuovi",
                "addr:postcode": "25034",
                "addr:street": "Viale Adua",
                "brand": "Trony",
                "brand:wikidata": "Q3999692",
                "name": "Trony",
                "shop": "electronics"
            }
        },
        {
            "type": "node",
            "id": 4442754484,
            "lat": 45.3454686,
            "lon": 10.1344746,
            "timestamp": "2025-10-06T14:20:45Z",
            "version": 3,
            "changeset": 172917236,
            "user": "btcitnet",
            "uid": 22525435,
            "tags": {
                "addr:city": "Manerbio",
                "addr:housenumber": "10",
                "addr:postcode": "25025",
                "addr:street": "Via Cremona",
                "brand": "Chicco",
                "brand:wikidata": "Q27897515",
                "name": "Chicco",
                "shop": "baby_goods"
            }
        },
        {
            "type": "node",
            "id": 4484164565,
            "lat": 45.0428439,
            "lon": 9.6943676,
            "timestamp": "2025-10-17T00:27:31Z",
            "version": 3,
            "changeset": 173388117,
            "user": "Comino",
            "uid": 6794624,
            "tags": {
                "addr:city": "Piacenza",
                "addr:housenumber": "38",
                "addr:street": "Via Pier Maria Campi",
                "check_date": "2025-10-16",
                "contact:facebook": "https://www.facebook.com/lascurepiacenza/",
                "currency:XBT": "yes",
                "name": "La Scure",
                "office": "political_party",
                "payment:lightning": "yes"
            }
        },
        {
            "type": "node",
            "id": 4536684194,
            "lat": 44.9147555,
            "lon": 9.6005812,
            "timestamp": "2025-10-23T15:31:09Z",
            "version": 4,
            "changeset": 173680458,
            "user": "btcitnet",
            "uid": 22525435,
            "tags": {
                "addr:city": "Rivergaro",
                "addr:postcode": "29029",
                "addr:street": "Strada Statale di Val Trebbia",
                "brand": "Conad",
                "brand:wikidata": "Q639075",
                "name": "Conad",
                "name:en": "Conad",
                "name:it": "Conad",
                "opening_hours": "Mo-Th 08:30-13:00, 15:00-20:00; Fr-Sa 08:30-20:00; Su 08:30-13:00",
                "phone": "+390523952117",
                "shop": "supermarket",
                "website": "https://www.conad.it/conad/home/puntivendita/dettaglio.html?idPdv=2420"
            }
        },
        {
            "type": "node",
            "id": 4574145522,
            "lat": 45.3637071,
            "lon": 9.5493933,
            "timestamp": "2025-10-16T18:16:55Z",
            "version": 4,
            "changeset": 173379178,
            "user": "btcitnet",
            "uid": 22525435,
            "tags": {
                "addr:city": "Dovera",
                "addr:housenumber": "18",
                "addr:postcode": "26010",
                "addr:street": "Viale Europa",
                "amenity": "fuel",
                "brand": "Tamoil",
                "brand:wikidata": "Q706793",
                "brand:wikipedia": "en:Tamoil",
                "name": "Tamoil",
                "opening_hours": "24/7",
                "operator": "Tamoil",
                "self_service": "only"
            }
        },
        {
            "type": "node",
            "id": 4756783299,
            "lat": 44.8610971,
            "lon": 10.0676522,
            "timestamp": "2024-03-14T17:04:28Z",
            "version": 2,
            "changeset": 148652536,
            "user": "Chiarant",
            "uid": 18452174,
            "tags": {
                "addr:city": "Fidenza",
                "addr:housenumber": "3",
                "addr:postcode": "43036",
                "addr:street": "Via Francesco Baracca",
                "check_date": "2024-03-14",
                "contact:facebook": "https://www.facebook.com/p/Dolcepasta-Cavallo-100064162410169/",
                "currency:XBT": "yes",
                "description": "Siamo un laboratorio/vendita di pasta fresca, dolci caserecci e piccola gastronomia.\nTutto esclusivamente di nostra produzione.",
                "name": "DolcePasta Cavallo di Dioni Barbara",
                "payment:lightning": "yes",
                "payment:lightning_contactless": "no",
                "payment:onchain": "no",
                "phone": "+39 347 149 5268",
                "shop": "pasta"
            }
        },
        {
            "type": "node",
            "id": 4756788528,
            "lat": 44.8661445,
            "lon": 10.0618031,
            "timestamp": "2023-08-27T21:24:49Z",
            "version": 2,
            "changeset": 140468753,
            "user": "Chiarant",
            "uid": 18452174,
            "tags": {
                "addr:city": "Fidenza",
                "addr:housenumber": "12",
                "addr:postcode": "43036",
                "addr:street": "Via Agostino Berenini",
                "brand": "Calzedonia",
                "brand:wikidata": "Q1027874",
                "clothes": "swimwear;socks",
                "name": "Calzedonia",
                "shop": "clothes"
            }
        },
        {
            "type": "node",
            "id": 4761697094,
            "lat": 45.0517209,
            "lon": 9.695166,
            "timestamp": "2020-12-10T15:39:06Z",
            "version": 4,
            "changeset": 95626802,
            "user": "ivanbranco",
            "uid": 11220113,
            "tags": {
                "addr:city": "Piacenza",
                "addr:housenumber": "68",
                "addr:postcode": "29121",
                "addr:street": "Via Venti Settembre",
                "air_conditioning": "yes",
                "brand": "Calzedonia",
                "brand:wikidata": "Q1027874",
                "brand:wikipedia": "en:Calzedonia",
                "clothes": "underwear",
                "level": "0",
                "name": "Calzedonia",
                "shop": "clothes"
            }
        },
        {
            "type": "node",
            "id": 4761697323,
            "lat": 45.0516521,
            "lon": 9.6952993,
            "timestamp": "2020-12-16T20:18:00Z",
            "version": 3,
            "changeset": 95962337,
            "user": "ivanbranco",
            "uid": 11220113,
            "tags": {
                "addr:city": "Piacenza",
                "addr:housenumber": "72;68",
                "addr:postcode": "29121",
                "addr:street": "Via Venti Settembre",
                "air_conditioning": "yes",
                "brand": "Intimissimi",
                "brand:wikidata": "Q305404",
                "brand:wikipedia": "en:Intimissimi",
                "clothes": "underwear",
                "name": "Intimissimi",
                "shop": "clothes"
            }
        },
        {
            "type": "node",
            "id": 4761697793,
            "lat": 45.0524588,
            "lon": 9.694075,
            "timestamp": "2020-06-05T12:57:24Z",
            "version": 2,
            "changeset": 86246121,
            "user": "Mokshi",
            "uid": 11240472,
            "tags": {
                "addr:city": "Piacenza",
                "addr:housenumber": "2",
                "addr:postcode": "29121",
                "addr:street": "Galleria San Francesco",
                "air_conditioning": "yes",
                "brand": "United Colors of Benetton",
                "brand:wikidata": "Q817139",
                "brand:wikipedia": "en:Benetton Group",
                "clothes": "clothes",
                "level": "0",
                "name": "United Colors of Benetton",
                "shop": "clothes",
                "short_name": "Benetton"
            }
        },
        {
            "type": "node",
            "id": 4932271986,
            "lat": 45.0015109,
            "lon": 9.0710686,
            "timestamp": "2024-09-09T14:58:16Z",
            "version": 4,
            "changeset": 156398868,
            "user": "damianeue",
            "uid": 10124288,
            "tags": {
                "addr:city": "Montebello della Battaglia",
                "addr:postcode": "27054",
                "brand": "Mondo Convenienza",
                "brand:wikidata": "Q55830962",
                "check_date:currency:XBT": "2023-07-31",
                "currency:XBT": "yes",
                "name": "Mondo Convenienza",
                "shop": "furniture"
            }
        },
        {
            "type": "node",
            "id": 4938352864,
            "lat": 44.9994419,
            "lon": 9.0753592,
            "timestamp": "2025-10-30T19:27:06Z",
            "version": 7,
            "changeset": 173992350,
            "user": "btcitnet",
            "uid": 22525435,
            "tags": {
                "addr:city": "Montebello della Battaglia",
                "addr:housenumber": "50",
                "addr:postcode": "27054",
                "addr:street": "Via Ingegnere Adolfo Mazza",
                "brand": "MediaWorld",
                "brand:wikidata": "Q2381223",
                "name": "MediaWorld",
                "operator": "Mediaworld",
                "phone": "+39 02 9475 1717",
                "shop": "electronics",
                "wheelchair": "yes"
            }
        },
        {
            "type": "node",
            "id": 4962059509,
            "lat": 45.1647929,
            "lon": 9.1357787,
            "timestamp": "2025-01-01T18:25:22Z",
            "version": 4,
            "changeset": 160879868,
            "user": "mpbin",
            "uid": 21850090,
            "tags": {
                "addr:city": "San Martino Siccomario",
                "addr:housenumber": "8",
                "addr:postcode": "27028",
                "addr:street": "Via Piemonte",
                "brand": "Unieuro",
                "brand:wikidata": "Q4004687",
                "name": "Unieuro",
                "operator": "Unieuro S.p.A.",
                "shop": "electronics"
            }
        },
        {
            "type": "node",
            "id": 5111876035,
            "lat": 45.4411637,
            "lon": 9.6446232,
            "timestamp": "2025-10-16T18:09:52Z",
            "version": 4,
            "changeset": 173378845,
            "user": "btcitnet",
            "uid": 22525435,
            "tags": {
                "addr:city": "Capralba",
                "addr:housenumber": "31",
                "addr:postcode": "26010",
                "addr:street": "Via Crema",
                "amenity": "fuel",
                "brand": "Tamoil",
                "brand:wikidata": "Q706793",
                "brand:wikipedia": "en:Tamoil",
                "name": "Tamoil",
                "operator": "Marta Dante Giuseppe",
                "ref:mise": "13548"
            }
        },
        {
            "type": "node",
            "id": 5273410536,
            "lat": 45.2770684,
            "lon": 10.2162144,
            "timestamp": "2025-10-29T15:11:53Z",
            "version": 4,
            "changeset": 173934902,
            "user": "btcitnet",
            "uid": 22525435,
            "tags": {
                "addr:city": "Pralboino",
                "addr:housenumber": "Km.30+048+113",
                "addr:postcode": "25020",
                "addr:street": "SP7",
                "amenity": "fuel",
                "brand": "Q8",
                "brand:wikidata": "Q1634762",
                "brand:wikipedia": "en:Kuwait Petroleum Corporation",
                "name": "Q8",
                "operator": "Servizi & Gestioni Italia S.R.L.",
                "ref:mise": "7257"
            }
        },
        {
            "type": "node",
            "id": 5323908087,
            "lat": 45.4023894,
            "lon": 9.9162824,
            "timestamp": "2025-04-20T20:41:53Z",
            "version": 3,
            "changeset": 165211733,
            "user": "btcitnet",
            "uid": 22525435,
            "tags": {
                "addr:city": "Orzinuovi",
                "addr:postcode": "25034",
                "addr:street": "Via Internazionale",
                "brand": "Spar",
                "brand:wikidata": "Q610492",
                "brand:wikipedia": "en:Spar (retailer)",
                "name": "Despar",
                "operator": "Despar",
                "shop": "supermarket"
            }
        },
        {
            "type": "node",
            "id": 5335327510,
            "lat": 45.2895686,
            "lon": 9.5307572,
            "timestamp": "2025-10-16T18:09:09Z",
            "version": 5,
            "changeset": 173378820,
            "user": "btcitnet",
            "uid": 22525435,
            "tags": {
                "addr:city": "Lodi",
                "addr:postcode": "26900",
                "addr:street": "Strada statale 9 Via Emilia",
                "amenity": "fuel",
                "brand": "Tamoil",
                "brand:wikidata": "Q706793",
                "fuel:diesel": "yes",
                "fuel:octane_95": "yes",
                "name": "Tamoil",
                "operator": "T.M.D. S.R.L.",
                "ref:mise": "45418",
                "source": "MISE - Ministero Sviluppo Economico"
            }
        },
        {
            "type": "node",
            "id": 5351518575,
            "lat": 45.3020694,
            "lon": 9.7554851,
            "timestamp": "2024-06-18T11:33:47Z",
            "version": 11,
            "changeset": 152844218,
            "user": "descubrebitcoin",
            "uid": 17565129,
            "tags": {
                "addr:city": "Castelleone",
                "addr:housenumber": "9",
                "addr:postcode": "26012",
                "addr:street": "Via Mariani",
                "amenity": "dentist",
                "check_date:currency:XBT": "2018-01-20",
                "currency:XBT": "yes",
                "email": "mar_anti@yahoo.it",
                "healthcare": "dentist",
                "healthcare:speciality": "orthodontics",
                "name": "Studio dentistico dott. Marco Antinori",
                "operator": "Dott. Marco Antinori",
                "payment:litecoin": "yes",
                "phone": "+39 037457727",
                "website": "http://studioantinori.com"
            }
        },
        {
            "type": "node",
            "id": 5413280439,
            "lat": 45.1423277,
            "lon": 10.0591425,
            "timestamp": "2025-10-30T19:28:18Z",
            "version": 9,
            "changeset": 173992399,
            "user": "btcitnet",
            "uid": 22525435,
            "tags": {
                "addr:city": "Cremona",
                "addr:housenumber": "66a",
                "addr:postcode": "26100",
                "addr:street": "Via Mantova",
                "amenity": "fuel",
                "brand": "Q8 Easy",
                "brand:wikidata": "Q1634762",
                "brand:wikipedia": "en:Kuwait Petroleum Corporation",
                "compressed_air": "yes",
                "fuel:diesel": "yes",
                "fuel:octane_95": "yes",
                "name": "Q8 Easy",
                "opening_hours": "24/7",
                "operator": "Servizi & Gestioni Italia S.R.L.",
                "ref:mise": "11567",
                "self_service": "yes",
                "wheelchair": "yes"
            }
        },
        {
            "type": "node",
            "id": 5851831348,
            "lat": 45.1303534,
            "lon": 10.046134,
            "timestamp": "2025-10-17T20:38:33Z",
            "version": 4,
            "changeset": 173427981,
            "user": "btcitnet",
            "uid": 22525435,
            "tags": {
                "addr:city": "Cremona",
                "addr:housenumber": "25",
                "addr:postcode": "26100",
                "addr:street": "Via Giuseppina",
                "amenity": "fuel",
                "brand": "Tamoil",
                "brand:wikidata": "Q706793",
                "brand:wikipedia": "en:Tamoil",
                "name": "Tamoil",
                "operator": "Singh Gurmail",
                "ref:mise": "7941"
            }
        },
        {
            "type": "node",
            "id": 5851831417,
            "lat": 45.2841047,
            "lon": 9.8544163,
            "timestamp": "2025-10-17T20:37:02Z",
            "version": 4,
            "changeset": 173427938,
            "user": "btcitnet",
            "uid": 22525435,
            "tags": {
                "addr:city": "Soresina",
                "addr:housenumber": "10",
                "addr:postcode": "26015",
                "addr:street": "Via Quattro Novembre",
                "amenity": "fuel",
                "brand": "Tamoil",
                "brand:wikidata": "Q706793",
                "brand:wikipedia": "en:Tamoil",
                "name": "Tamoil",
                "operator": "Agosti Massimo",
                "ref:mise": "7208"
            }
        },
        {
            "type": "node",
            "id": 5851831542,
            "lat": 45.4026422,
            "lon": 9.6270812,
            "timestamp": "2025-10-29T15:13:15Z",
            "version": 3,
            "changeset": 173934974,
            "user": "btcitnet",
            "uid": 22525435,
            "tags": {
                "addr:city": "Trescore Cremasco",
                "addr:housenumber": "5",
                "addr:postcode": "26017",
                "addr:street": "Via Alcide De Gasperi",
                "amenity": "fuel",
                "brand": "Tamoil",
                "brand:wikidata": "Q706793",
                "name": "Tamoil",
                "operator": "Bossi Roberta e Bossi Graziano Giuseppe - Snc",
                "ref:mise": "6150"
            }
        },
        {
            "type": "node",
            "id": 5851834072,
            "lat": 45.3970403,
            "lon": 9.486182,
            "timestamp": "2025-10-17T20:19:12Z",
            "version": 3,
            "changeset": 173427367,
            "user": "btcitnet",
            "uid": 22525435,
            "tags": {
                "addr:city": "Spino D'Adda",
                "addr:postcode": "26016",
                "addr:street": "Strada Statale 415 Paullese",
                "amenity": "fuel",
                "brand": "Tamoil",
                "brand:wikidata": "Q706793",
                "brand:wikipedia": "en:Tamoil",
                "name": "Tamoil",
                "operator": "Chizzoli Giampiero - Stazione di Servizio Tamoil",
                "ref:mise": "38152"
            }
        },
        {
            "type": "node",
            "id": 5851834988,
            "lat": 45.2102344,
            "lon": 9.3528253,
            "timestamp": "2025-10-17T20:12:39Z",
            "version": 3,
            "changeset": 173427137,
            "user": "btcitnet",
            "uid": 22525435,
            "tags": {
                "addr:city": "Villanterio",
                "addr:postcode": "27019",
                "addr:street": "SP ex SS235 di Orzinuovi",
                "amenity": "fuel",
                "brand": "Tamoil",
                "brand:wikidata": "Q706793",
                "name": "Tamoil",
                "operator": "T.D.M. S.R.L.",
                "ref:mise": "37247"
            }
        },
        {
            "type": "node",
            "id": 5851837372,
            "lat": 45.129815,
            "lon": 10.0364808,
            "timestamp": "2025-10-16T15:14:17Z",
            "version": 4,
            "changeset": 173371501,
            "user": "btcitnet",
            "uid": 22525435,
            "tags": {
                "addr:city": "Cremona",
                "addr:housenumber": "40",
                "addr:postcode": "26100",
                "addr:street": "Via Francesco Novati",
                "amenity": "fuel",
                "brand": "Tamoil",
                "brand:wikidata": "Q706793",
                "brand:wikipedia": "en:Tamoil",
                "name": "Tamoil",
                "operator": "T.D.M. S.R.L.",
                "ref:mise": "32229"
            }
        },
        {
            "type": "node",
            "id": 5851837654,
            "lat": 45.1874028,
            "lon": 9.9986655,
            "timestamp": "2021-12-29T16:04:59Z",
            "version": 4,
            "changeset": 115527112,
            "user": "GiovanniC83",
            "uid": 9622178,
            "tags": {
                "amenity": "fuel",
                "brand": "Tamoil",
                "brand:wikidata": "Q706793",
                "brand:wikipedia": "en:Tamoil",
                "name": "Tamoil",
                "operator": "Brilli Societ\u00e0 In Nome Collettivo di Cavallotti Barbara & C.",
                "ref:mise": "30882"
            }
        },
        {
            "type": "node",
            "id": 5851839936,
            "lat": 45.1438382,
            "lon": 9.9949676,
            "timestamp": "2025-10-16T15:00:38Z",
            "version": 9,
            "changeset": 173370901,
            "user": "btcitnet",
            "uid": 22525435,
            "tags": {
                "addr:city": "Cremona",
                "addr:housenumber": "13",
                "addr:postcode": "26100",
                "addr:street": "Via Milano",
                "amenity": "fuel",
                "brand": "Tamoil",
                "brand:wikidata": "Q706793",
                "brand:wikipedia": "en:Tamoil",
                "check_date": "2024-11-02",
                "compressed_air": "yes",
                "name": "Tamoil",
                "opening_hours": "24/7",
                "operator": "T.D.M. S.R.L.",
                "ref:mise": "27228",
                "self_service": "yes",
                "wheelchair": "yes"
            }
        },
        {
            "type": "node",
            "id": 5851845527,
            "lat": 44.8616091,
            "lon": 10.0693103,
            "timestamp": "2024-05-11T15:34:11Z",
            "version": 6,
            "changeset": 151190300,
            "user": "\u0110uro Ji\u0159\u00ed",
            "uid": 14617702,
            "tags": {
                "amenity": "fuel",
                "brand": "Q8",
                "brand:wikidata": "Q1634762",
                "brand:wikipedia": "en:Kuwait Petroleum Corporation",
                "compressed_air": "yes",
                "name": "Q8",
                "opening_hours": "24/7",
                "operator": "Servizi & Gestioni Italia S.R.L.",
                "ref:mise": "11780",
                "self_service": "yes",
                "wheelchair": "yes"
            }
        },
        {
            "type": "node",
            "id": 5851845667,
            "lat": 45.2190836,
            "lon": 10.2460492,
            "timestamp": "2025-10-16T14:34:11Z",
            "version": 4,
            "changeset": 173369424,
            "user": "btcitnet",
            "uid": 22525435,
            "tags": {
                "addr:city": "Ostiano",
                "addr:postcode": "26032",
                "addr:street": "Via Ponte Oglio",
                "amenity": "fuel",
                "brand": "Tamoil",
                "brand:wikidata": "Q706793",
                "brand:wikipedia": "en:Tamoil",
                "name": "Tamoil",
                "operator": "Distributore Tamoil-Gommista 4 Ruote Zorzi Daniele",
                "ref:mise": "10519"
            }
        },
        {
            "type": "node",
            "id": 6103271045,
            "lat": 45.2843316,
            "lon": 9.8556602,
            "timestamp": "2022-08-21T15:35:04Z",
            "version": 7,
            "changeset": 125188503,
            "user": "GiovanniC83",
            "uid": 9622178,
            "tags": {
                "addr:city": "Soresina",
                "addr:housenumber": "19",
                "addr:postcode": "26015",
                "addr:street": "Via Quattro Novembre",
                "branch": "Point",
                "brand": "Mondadori",
                "brand:wikidata": "Q85355",
                "name": "Mondadori",
                "phone": "+39 0374 344667",
                "shop": "books"
            }
        },
        {
            "type": "node",
            "id": 6150169603,
            "lat": 45.4640472,
            "lon": 9.6091638,
            "timestamp": "2024-12-07T20:15:15Z",
            "version": 3,
            "changeset": 160038508,
            "user": "Mannivu",
            "uid": 1950277,
            "tags": {
                "addr:city": "Vailate",
                "addr:housenumber": "5",
                "addr:postcode": "26019",
                "addr:street": "Via Primo Maggio",
                "brand": "Conad",
                "brand:wikidata": "Q639075",
                "check_date": "2024-12-07",
                "level": "0",
                "name": "Conad",
                "shop": "supermarket"
            }
        },
        {
            "type": "node",
            "id": 6185696785,
            "lat": 45.1336065,
            "lon": 10.0227861,
            "timestamp": "2025-06-19T16:22:27Z",
            "version": 4,
            "changeset": 167834867,
            "user": "Rockedf",
            "uid": 7522075,
            "tags": {
                "addr:city": "Cremona",
                "addr:housenumber": "17",
                "addr:postcode": "26100",
                "addr:street": "Piazza Antonio Stradivari",
                "amenity": "bar",
                "check_date": "2024-03-03",
                "check_date:currency:XBT": "2025-06-19",
                "currency:XBT": "yes",
                "name": "Di Bianco",
                "payment:lightning": "no",
                "payment:onchain": "yes"
            }
        },
        {
            "type": "node",
            "id": 6398465765,
            "lat": 45.1865102,
            "lon": 9.1502045,
            "timestamp": "2025-10-29T15:14:45Z",
            "version": 3,
            "changeset": 173935040,
            "user": "btcitnet",
            "uid": 22525435,
            "tags": {
                "addr:city": "Pavia",
                "addr:housenumber": "33",
                "addr:postcode": "27100",
                "addr:street": "Corso Cavour",
                "brand": "United Colors of Benetton",
                "brand:wikidata": "Q817139",
                "name": "United Colors of Benetton",
                "phone": "+39 0382 32191",
                "shop": "clothes",
                "short_name": "Benetton"
            }
        },
        {
            "type": "node",
            "id": 6577053126,
            "lat": 45.4838985,
            "lon": 9.780915,
            "timestamp": "2025-10-22T18:17:16Z",
            "version": 5,
            "changeset": 173641858,
            "user": "btcitnet",
            "uid": 22525435,
            "tags": {
                "addr:city": "Antegnate",
                "addr:housenumber": "3",
                "addr:postcode": "24051",
                "addr:street": "Via del commercio",
                "amenity": "fuel",
                "brand": "Q8",
                "brand:wikidata": "Q1634762",
                "fuel:cng": "yes",
                "fuel:diesel": "yes",
                "fuel:octane_95": "yes",
                "name": "Q8",
                "operator": "Servizi & Gestioni Italia S.R.L.",
                "ref:mise": "6550",
                "source": "MISE - Ministero Sviluppo Economico",
                "source:date": "2018-04-16"
            }
        },
        {
            "type": "node",
            "id": 6758886855,
            "lat": 44.8432632,
            "lon": 10.0157361,
            "timestamp": "2024-10-11T13:41:06Z",
            "version": 11,
            "changeset": 157757849,
            "user": "Chiarant",
            "uid": 18452174,
            "tags": {
                "addr:city": "Fidenza",
                "addr:housenumber": "32",
                "addr:place": "Ponte Ghiara",
                "addr:postcode": "43036",
                "amenity": "restaurant",
                "check_date": "2024-10-11",
                "contact:email": "info@bar50special.it",
                "contact:facebook": "https://www.facebook.com/bar50special/",
                "cuisine": "pizza;coffee_shop;italian",
                "currency:XBT": "yes",
                "email": "info@bar50special.it",
                "name": "50 Special",
                "opening_hours": "Mo-Su 07:00-01:30",
                "payment:lightning": "yes",
                "payment:lightning_contactless": "yes",
                "payment:onchain": "no",
                "phone": "+39 0524 202364"
            }
        },
        {
            "type": "node",
            "id": 6847965175,
            "lat": 45.3126487,
            "lon": 9.5039679,
            "timestamp": "2019-10-03T15:29:33Z",
            "version": 1,
            "changeset": 75241883,
            "user": "fedc",
            "uid": 602784,
            "tags": {
                "addr:city": "Lodi",
                "addr:housenumber": "64",
                "addr:postcode": "26900",
                "addr:street": "Corso Roma",
                "brand": "Intimissimi",
                "brand:wikidata": "Q305404",
                "brand:wikipedia": "en:Intimissimi",
                "clothes": "underwear",
                "name": "Intimissimi",
                "shop": "clothes"
            }
        },
        {
            "type": "node",
            "id": 6851531249,
            "lat": 45.3131022,
            "lon": 9.5027902,
            "timestamp": "2025-10-17T19:29:30Z",
            "version": 3,
            "changeset": 173425560,
            "user": "btcitnet",
            "uid": 22525435,
            "tags": {
                "addr:city": "Lodi",
                "addr:housenumber": "22",
                "addr:postcode": "26900",
                "addr:street": "Via Giuseppe Garibaldi",
                "brand": "OVS",
                "brand:wikidata": "Q2042514",
                "brand:wikipedia": "en:OVS (company)",
                "name": "OVS",
                "shop": "clothes"
            }
        },
        {
            "type": "node",
            "id": 6851561225,
            "lat": 45.3132381,
            "lon": 9.5024318,
            "timestamp": "2025-10-17T19:28:51Z",
            "version": 3,
            "changeset": 173425544,
            "user": "btcitnet",
            "uid": 22525435,
            "tags": {
                "addr:city": "Lodi",
                "addr:housenumber": "22",
                "addr:postcode": "26900",
                "addr:street": "Via Giuseppe Garibaldi",
                "brand": "OVS",
                "brand:wikidata": "Q2042514",
                "brand:wikipedia": "en:OVS (company)",
                "name": "OVS",
                "shop": "clothes"
            }
        },
        {
            "type": "node",
            "id": 6876045188,
            "lat": 45.3131354,
            "lon": 9.5035004,
            "timestamp": "2022-01-31T10:16:54Z",
            "version": 3,
            "changeset": 116815715,
            "user": "airon90",
            "uid": 89897,
            "tags": {
                "addr:city": "Lodi",
                "addr:housenumber": "28",
                "addr:street": "Corso Roma",
                "brand": "Tezenis",
                "brand:wikidata": "Q28056374",
                "brand:wikipedia": "ru:Tezenis",
                "name": "Tezenis",
                "shop": "clothes"
            }
        },
        {
            "type": "node",
            "id": 6960392596,
            "lat": 45.4816857,
            "lon": 9.7815888,
            "timestamp": "2025-10-29T15:15:47Z",
            "version": 9,
            "changeset": 173935076,
            "user": "btcitnet",
            "uid": 22525435,
            "tags": {
                "addr:city": "Antegnate",
                "addr:housenumber": "3",
                "addr:postcode": "24051",
                "addr:street": "Via del commercio",
                "brand": "H&M",
                "brand:wikidata": "Q188326",
                "brand:wikipedia": "en:H&M",
                "check_date": "2025-08-24",
                "check_date:opening_hours": "2025-08-24",
                "internet_access": "no",
                "level": "1",
                "name": "H&M",
                "opening_hours": "Mo-Su 09:00-20:00",
                "payment:mastercard": "yes",
                "payment:visa": "yes",
                "ref:vatin": "IT03269110965",
                "second_hand": "no",
                "shop": "clothes",
                "website": "https://www.antegnateshoppingcenter.it/negozi/hm/",
                "wheelchair": "yes"
            }
        },
        {
            "type": "node",
            "id": 6961538410,
            "lat": 45.2942693,
            "lon": 9.7636712,
            "timestamp": "2023-11-03T20:49:15Z",
            "version": 5,
            "changeset": 143591052,
            "user": "b-jazz-bot",
            "uid": 9451067,
            "tags": {
                "addr:city": "Castelleone",
                "addr:housenumber": "5",
                "addr:postcode": "26012",
                "addr:street": "Via Garibaldi",
                "air_conditioning": "yes",
                "check_date:currency:XBT": "2022-12-09",
                "craft": "photographer",
                "currency:XBT": "yes",
                "email": "info@fotorizzotti.it",
                "internet_access": "wlan",
                "name": "Foto Rizzotti",
                "payment:lightning": "yes",
                "payment:onchain": "yes",
                "phone": "+39 0374350151",
                "website": "https://www.fotorizzotti.it/",
                "wheelchair": "yes"
            }
        },
        {
            "type": "node",
            "id": 7595923273,
            "lat": 45.0515634,
            "lon": 9.6951931,
            "timestamp": "2020-08-29T20:02:20Z",
            "version": 2,
            "changeset": 90129659,
            "user": "Davide21B",
            "uid": 11728659,
            "tags": {
                "addr:city": "Piacenza",
                "addr:postcode": "29121",
                "brand": "H&M",
                "brand:wikidata": "Q188326",
                "brand:wikipedia": "en:H&M",
                "clothes": "fashion;women;underwear;men;sports;denim;babies;unisexs",
                "name": "H&M",
                "opening_hours": "Mo-Sa 09:00-20:00",
                "shop": "clothes"
            }
        },
        {
            "type": "node",
            "id": 7798468175,
            "lat": 45.4036794,
            "lon": 9.9245137,
            "timestamp": "2025-01-02T16:46:35Z",
            "version": 4,
            "changeset": 160916701,
            "user": "demon_box",
            "uid": 350864,
            "tags": {
                "addr:city": "Orzinuovi",
                "addr:housenumber": "1",
                "addr:postcode": "25034",
                "addr:street": "Piazza Giuseppe Garibaldi",
                "brand": "Kasanova",
                "brand:wikidata": "Q116214505",
                "check_date": "2024-08-12",
                "contact:phone": "+390309941852",
                "contact:website": "https://www.kasanova.com/it/",
                "name": "Kasanova",
                "shop": "houseware"
            }
        },
        {
            "type": "node",
            "id": 8409078015,
            "lat": 45.4028774,
            "lon": 9.5456677,
            "timestamp": "2025-10-16T14:24:55Z",
            "version": 4,
            "changeset": 173368903,
            "user": "btcitnet",
            "uid": 22525435,
            "tags": {
                "addr:city": "Pandino",
                "addr:housenumber": "38",
                "addr:postcode": "26025",
                "addr:street": "Viale Europa",
                "amenity": "fuel",
                "brand": "Tamoil",
                "brand:wikidata": "Q706793",
                "brand:wikipedia": "en:Tamoil",
                "fuel:diesel": "yes",
                "fuel:lpg": "yes",
                "fuel:octane_95": "yes",
                "name": "Tamoil",
                "operator": "M.A. Service S.A.S. di Moustafa Saber",
                "ref:mise": "59531",
                "self_service": "yes",
                "source": "MISE - Ministero Sviluppo Economico"
            }
        },
        {
            "type": "node",
            "id": 9383402121,
            "lat": 45.1373526,
            "lon": 9.9984673,
            "timestamp": "2025-10-29T15:18:06Z",
            "version": 2,
            "changeset": 173935158,
            "user": "btcitnet",
            "uid": 22525435,
            "tags": {
                "addr:city": "Cremona",
                "addr:housenumber": "21c",
                "addr:postcode": "26100",
                "addr:street": "Via Eridano",
                "amenity": "fuel",
                "brand": "Tamoil",
                "brand:wikidata": "Q706793",
                "brand:wikipedia": "en:Tamoil",
                "name": "Tamoil"
            }
        },
        {
            "type": "node",
            "id": 9389697015,
            "lat": 44.9327984,
            "lon": 9.8903101,
            "timestamp": "2025-10-02T06:14:43Z",
            "version": 4,
            "changeset": 172733288,
            "user": "btcitnet",
            "uid": 22525435,
            "tags": {
                "addr:city": "Fiorenzuola D'arda",
                "addr:postcode": "29017",
                "addr:street": "Strada Statale 9 Tangenziale di Fiorenzuola",
                "amenity": "fuel",
                "brand": "Q8",
                "brand:wikidata": "Q1634762",
                "brand:wikipedia": "en:Kuwait Petroleum Corporation",
                "contact:website": "https://www.q8.it/?utm_campaign=listing&utm_medium=q8&utm_source=googlemybusiness",
                "fuel:cng": "yes",
                "fuel:diesel": "yes",
                "fuel:octane_95": "yes",
                "fuel:octane_98": "yes",
                "name": "Q8",
                "operator": "Servizi & Gestioni Italia S.R.L.",
                "ref:mise": "7306"
            }
        },
        {
            "type": "node",
            "id": 9412562812,
            "lat": 45.3567159,
            "lon": 9.322439,
            "timestamp": "2022-01-12T11:42:27Z",
            "version": 1,
            "changeset": 116063235,
            "user": "Michele Aquilani",
            "uid": 3860151,
            "tags": {
                "addr:city": "Melegnano",
                "addr:housenumber": "8",
                "addr:postcode": "20077",
                "addr:street": "Via Zuavi",
                "brand": "Mondadori",
                "brand:wikidata": "Q85355",
                "brand:wikipedia": "en:Arnoldo Mondadori Editore",
                "name": "Mondadori",
                "phone": "+39 02 49462247",
                "shop": "books"
            }
        },
        {
            "type": "node",
            "id": 9454741561,
            "lat": 45.3577268,
            "lon": 9.323079,
            "timestamp": "2024-11-30T14:05:53Z",
            "version": 2,
            "changeset": 159775141,
            "user": "Chiarant",
            "uid": 18452174,
            "tags": {
                "addr:city": "Melegnano",
                "addr:housenumber": "15",
                "addr:postcode": "20077",
                "addr:street": "Via Monte Suello",
                "check_date": "2024-11-30",
                "currency:XBT": "yes",
                "email": "info@osteopatamelegnano.it",
                "healthcare": "physiotherapist",
                "healthcare:speciality": "osteopathy",
                "name": "Alessandro Marazzina Osteopata Fisioterapista",
                "phone": "+39 333 586 0526",
                "website": "https://osteopatamelegnano.it/"
            }
        },
        {
            "type": "node",
            "id": 9631500979,
            "lat": 45.4818273,
            "lon": 9.7817113,
            "timestamp": "2025-10-17T18:44:42Z",
            "version": 8,
            "changeset": 173424150,
            "user": "btcitnet",
            "uid": 22525435,
            "tags": {
                "addr:city": "Antegnate",
                "addr:housenumber": "3",
                "addr:postcode": "24051",
                "addr:street": "Via del commercio",
                "brand": "OVS",
                "brand:wikidata": "Q2042514",
                "check_date": "2025-02-15",
                "clothes": "suits;children;women;babies;men",
                "level": "1",
                "name": "OVS",
                "opening_hours": "Mo-Su,PH 09:00-20:00; Jan 1,Dec 25 off",
                "payment:cash": "yes",
                "payment:mastercard": "yes",
                "payment:visa": "yes",
                "shop": "clothes",
                "wheelchair": "yes"
            }
        },
        {
            "type": "node",
            "id": 9732393851,
            "lat": 44.8591105,
            "lon": 10.0879228,
            "timestamp": "2025-09-28T17:48:36Z",
            "version": 4,
            "changeset": 172578257,
            "user": "btcitnet",
            "uid": 22525435,
            "tags": {
                "addr:city": "Fidenza",
                "addr:housenumber": "11",
                "addr:postcode": "43036",
                "addr:street": "Via Galileo Ferraris",
                "brand": "Unieuro",
                "brand:wikidata": "Q4004687",
                "brand:wikipedia": "en:Unieuro",
                "email": "info@faesrl.it",
                "name": "F.A.E. srl Unieuro",
                "operator": "Unieuro S.p.A.",
                "phone": "0524518611",
                "shop": "electronics"
            }
        },
        {
            "type": "node",
            "id": 9732893982,
            "lat": 44.9233319,
            "lon": 9.9150167,
            "timestamp": "2025-10-29T15:20:31Z",
            "version": 3,
            "changeset": 173935256,
            "user": "btcitnet",
            "uid": 22525435,
            "tags": {
                "addr:city": "Fiorenzuola d'Arda",
                "addr:housenumber": "2",
                "addr:postcode": "29017",
                "addr:street": "Via John Fitzgerald Kennedy",
                "brand": "OVS Kids",
                "brand:wikidata": "Q2042514",
                "clothes": "children",
                "name": "OVS Kids",
                "shop": "clothes"
            }
        },
        {
            "type": "node",
            "id": 9796784831,
            "lat": 45.4814653,
            "lon": 9.7827193,
            "timestamp": "2025-01-05T14:28:13Z",
            "version": 7,
            "changeset": 161022459,
            "user": "Mannivu",
            "uid": 1950277,
            "tags": {
                "addr:housenumber": "3",
                "addr:street": "Via del commercio",
                "brand": "Tezenis",
                "brand:wikidata": "Q28056374",
                "check_date": "2025-01-05",
                "check_date:opening_hours": "2025-01-05",
                "internet_access": "no",
                "level": "1",
                "name": "Tezenis",
                "opening_hours": "Mo-Su,PH 09:00-20:00",
                "payment:mastercard": "yes",
                "payment:visa": "yes",
                "shop": "clothes",
                "wheelchair": "yes"
            }
        },
        {
            "type": "node",
            "id": 9907819462,
            "lat": 45.3583438,
            "lon": 9.6660733,
            "timestamp": "2025-10-17T18:38:10Z",
            "version": 2,
            "changeset": 173423944,
            "user": "btcitnet",
            "uid": 22525435,
            "tags": {
                "addr:city": "Crema",
                "addr:housenumber": "18",
                "addr:postcode": "26013",
                "addr:street": "Via Giorgio La Pira",
                "brand": "OVS",
                "brand:wikidata": "Q2042514",
                "check_date": "2022-07-24",
                "clothes": "women;children;men;babies",
                "internet_access": "no",
                "level": "0",
                "name": "OVS",
                "payment:mastercard": "yes",
                "payment:visa": "yes",
                "shop": "clothes",
                "wheelchair": "yes"
            }
        },
        {
            "type": "node",
            "id": 9983112983,
            "lat": 45.4817698,
            "lon": 9.7831692,
            "timestamp": "2025-08-24T10:05:40Z",
            "version": 8,
            "changeset": 170914694,
            "user": "Mannivu",
            "uid": 1950277,
            "tags": {
                "addr:housenumber": "3",
                "addr:street": "Via del commercio",
                "brand": "GrandVision",
                "brand:wikidata": "Q105644278",
                "level": "1",
                "name": "GrandVision",
                "opening_hours": "Mo-Su 09:00-20:00",
                "shop": "optician"
            }
        },
        {
            "type": "node",
            "id": 10165712913,
            "lat": 45.3555613,
            "lon": 9.6627822,
            "timestamp": "2025-08-27T20:39:56Z",
            "version": 2,
            "changeset": 171103891,
            "user": "Comino",
            "uid": 6794624,
            "tags": {
                "addr:city": "Crema",
                "addr:postcode": "26013",
                "addr:street": "Via Cappuccini",
                "craft": "painter",
                "currency:XBT": "yes",
                "name": "Doldi Luca Imbianchino",
                "payment:lightning": "no",
                "payment:lightning_contactless": "no",
                "payment:onchain": "yes",
                "phone": "+39 3384808366",
                "survey:date": "2022-11-07"
            }
        },
        {
            "type": "node",
            "id": 10165750730,
            "lat": 45.356339,
            "lon": 9.6515674,
            "timestamp": "2022-11-07T08:18:54Z",
            "version": 1,
            "changeset": 128585463,
            "user": "BSN21M",
            "uid": 17441326,
            "tags": {
                "addr:city": "Crema",
                "addr:postcode": "26013",
                "addr:street": "Via Pandino",
                "amenity": "restaurant",
                "currency:XBT": "yes",
                "email": "scorse_89@hotmail.it",
                "name": "Dal Barbarossa",
                "payment:lightning": "no",
                "payment:lightning_contactless": "no",
                "payment:onchain": "yes",
                "phone": "+393491745630",
                "survey:date": "2022-11-07",
                "website": "https://it-it.facebook.com/dalbarbarossaOBV/"
            }
        },
        {
            "type": "node",
            "id": 10178682396,
            "lat": 44.9998382,
            "lon": 9.0717981,
            "timestamp": "2025-10-06T20:05:17Z",
            "version": 4,
            "changeset": 172932158,
            "user": "btcitnet",
            "uid": 22525435,
            "tags": {
                "addr:city": "Montebello della Battaglia",
                "addr:housenumber": "50",
                "addr:postcode": "27054",
                "addr:street": "Via Ing. Adolfo Mazza",
                "brand": "H&M",
                "brand:wikidata": "Q188326",
                "name": "H&M",
                "shop": "clothes",
                "wheelchair": "yes"
            }
        },
        {
            "type": "node",
            "id": 10178685919,
            "lat": 44.9991167,
            "lon": 9.0756244,
            "timestamp": "2025-10-06T20:04:28Z",
            "version": 4,
            "changeset": 172932138,
            "user": "btcitnet",
            "uid": 22525435,
            "tags": {
                "addr:city": "Montebello della Battaglia",
                "addr:housenumber": "50",
                "addr:postcode": "27054",
                "addr:street": "Via Ingegnere Adolfo Mazza",
                "brand": "OVS",
                "brand:wikidata": "Q2042514",
                "name": "OVS",
                "shop": "clothes",
                "wheelchair": "yes"
            }
        },
        {
            "type": "node",
            "id": 10178685928,
            "lat": 44.9995252,
            "lon": 9.074914,
            "timestamp": "2025-01-01T20:55:26Z",
            "version": 5,
            "changeset": 160885117,
            "user": "mpbin",
            "uid": 21850090,
            "tags": {
                "addr:city": "Montebello della Battaglia",
                "addr:housenumber": "50",
                "addr:postcode": "27054",
                "addr:street": "Via Ing. Adolfo Mazza",
                "brand": "Unieuro",
                "brand:wikidata": "Q4004687",
                "name": "Unieuro",
                "operator": "Unieuro S.p.A.",
                "shop": "electronics",
                "wheelchair": "yes"
            }
        },
        {
            "type": "node",
            "id": 10178757620,
            "lat": 44.998844,
            "lon": 9.0746775,
            "timestamp": "2025-10-06T20:02:16Z",
            "version": 4,
            "changeset": 172932080,
            "user": "btcitnet",
            "uid": 22525435,
            "tags": {
                "addr:city": "Montebello della Battaglia",
                "addr:housenumber": "50",
                "addr:postcode": "27054",
                "addr:street": "Via Ingegnere Adolfo Mazza",
                "brand": "Foot Locker",
                "brand:wikidata": "Q63335",
                "name": "Foot Locker",
                "shop": "shoes",
                "wheelchair": "yes"
            }
        },
        {
            "type": "node",
            "id": 10178757623,
            "lat": 44.9990384,
            "lon": 9.0734429,
            "timestamp": "2025-10-06T20:01:33Z",
            "version": 5,
            "changeset": 172932062,
            "user": "btcitnet",
            "uid": 22525435,
            "tags": {
                "addr:city": "Montebello della Battaglia",
                "addr:housenumber": "50",
                "addr:postcode": "27054",
                "addr:street": "Via Ingegnere Adolfo Mazza",
                "brand": "Tezenis",
                "brand:wikidata": "Q28056374",
                "clothes": "women;underwear;swimwear;men;children",
                "name": "Tezenis",
                "shop": "clothes",
                "wheelchair": "yes"
            }
        },
        {
            "type": "node",
            "id": 10178757627,
            "lat": 44.9991418,
            "lon": 9.0748596,
            "timestamp": "2025-10-06T13:07:47Z",
            "version": 4,
            "changeset": 172913563,
            "user": "btcitnet",
            "uid": 22525435,
            "tags": {
                "addr:city": "Montebello della Battaglia",
                "addr:housenumber": "50",
                "addr:postcode": "27054",
                "addr:street": "Via Ingegnere Adolfo Mazza",
                "brand": "Bottega Verde",
                "brand:wikidata": "Q894870",
                "name": "Bottega Verde",
                "shop": "cosmetics",
                "wheelchair": "yes"
            }
        },
        {
            "type": "node",
            "id": 10178757630,
            "lat": 44.9982971,
            "lon": 9.0700829,
            "timestamp": "2025-10-06T20:00:49Z",
            "version": 3,
            "changeset": 172932040,
            "user": "btcitnet",
            "uid": 22525435,
            "tags": {
                "addr:city": "Montebello della Battaglia",
                "addr:housenumber": "11",
                "addr:postcode": "27054",
                "addr:street": "Via Mirabella",
                "brand": "Kasanova",
                "brand:wikidata": "Q116214505",
                "name": "Kasanova",
                "shop": "houseware"
            }
        },
        {
            "type": "node",
            "id": 10178757645,
            "lat": 44.9988763,
            "lon": 9.0743076,
            "timestamp": "2025-10-19T13:40:20Z",
            "version": 4,
            "changeset": 173492233,
            "user": "btcitnet",
            "uid": 22525435,
            "tags": {
                "addr:city": "Montebello della Battaglia",
                "addr:housenumber": "50",
                "addr:postcode": "27054",
                "addr:street": "Via Ingegnere Adolfo Mazza",
                "brand": "Mondadori",
                "brand:wikidata": "Q85355",
                "name": "Mondadori",
                "shop": "books",
                "wheelchair": "yes"
            }
        },
        {
            "type": "node",
            "id": 10178757648,
            "lat": 44.999045,
            "lon": 9.0743821,
            "timestamp": "2025-10-30T19:32:25Z",
            "version": 4,
            "changeset": 173992533,
            "user": "btcitnet",
            "uid": 22525435,
            "tags": {
                "addr:city": "Montebello della Battaglia",
                "addr:housenumber": "50",
                "addr:postcode": "27054",
                "addr:street": "Via Ingegnere Adolfo Mazza",
                "brand": "Intimissimi",
                "brand:wikidata": "Q305404",
                "clothes": "underwear",
                "name": "Intimissimi",
                "phone": "+39 352 004 9245",
                "shop": "clothes",
                "wheelchair": "yes"
            }
        },
        {
            "type": "node",
            "id": 10181963839,
            "lat": 44.9981573,
            "lon": 9.0636027,
            "timestamp": "2025-10-17T18:26:28Z",
            "version": 4,
            "changeset": 173423631,
            "user": "btcitnet",
            "uid": 22525435,
            "tags": {
                "addr:city": "Voghera",
                "addr:postcode": "27058",
                "addr:street": "Via Piacenza",
                "brand": "OVS",
                "brand:wikidata": "Q2042514",
                "contact:phone": "+39 0383 366578",
                "contact:website": "www.ovs.it",
                "name": "OVS",
                "shop": "clothes",
                "wheelchair": "yes"
            }
        },
        {
            "type": "node",
            "id": 10195513664,
            "lat": 45.3569294,
            "lon": 9.2289508,
            "timestamp": "2022-11-16T21:33:34Z",
            "version": 1,
            "changeset": 129012447,
            "user": "mjc0042",
            "uid": 15075078,
            "tags": {
                "addr:housenumber": "30",
                "addr:street": "Via Giacomo Puccini",
                "branch": "Locate",
                "brand": "Spar",
                "brand:wikidata": "Q610492",
                "name": "Despar",
                "shop": "supermarket"
            }
        },
        {
            "type": "node",
            "id": 10250750357,
            "lat": 45.3462702,
            "lon": 10.1350625,
            "timestamp": "2025-01-07T13:42:36Z",
            "version": 3,
            "changeset": 161096087,
            "user": "damianeue",
            "uid": 10124288,
            "tags": {
                "addr:city": "Manerbio",
                "addr:housenumber": "10",
                "addr:postcode": "25025",
                "addr:street": "Via Cremona",
                "amenity": "fast_food",
                "brand": "La Piadineria",
                "brand:wikidata": "Q108195414",
                "check_date": "2022-12-12",
                "contact:phone": "+390309938067",
                "contact:website": "https://www.lapiadineria.com/",
                "cuisine": "piadina",
                "currency:XBT": "yes",
                "name": "La Piadineria",
                "payment:lightning": "yes",
                "payment:onchain": "yes",
                "takeaway": "yes"
            }
        },
        {
            "type": "node",
            "id": 10273236375,
            "lat": 45.2226058,
            "lon": 9.7706893,
            "timestamp": "2024-08-31T16:40:12Z",
            "version": 2,
            "changeset": 156023778,
            "user": "mpbin",
            "uid": 21850090,
            "tags": {
                "addr:city": "Formigara",
                "addr:housenumber": "1",
                "addr:postcode": "26020",
                "addr:street": "Via Castello",
                "check_date": "2022-12-19",
                "contact:facebook": "https://www.facebook.com/MaisCorvino/",
                "contact:instagram": "https://www.instagram.com/mais_corvino/",
                "currency:XBT": "yes",
                "email": "info@maiscorvino.it",
                "name": "Mais Corvino",
                "payment:lightning": "yes",
                "payment:onchain": "yes",
                "phone": "+393477191733",
                "shop": "health_food",
                "website": "https://www.maiscorvino.it/"
            }
        },
        {
            "type": "node",
            "id": 10612535136,
            "lat": 45.1481041,
            "lon": 9.997077,
            "timestamp": "2025-10-04T04:53:06Z",
            "version": 5,
            "changeset": 172815692,
            "user": "\u0110uro Ji\u0159\u00ed",
            "uid": 14617702,
            "tags": {
                "addr:city": "Cremona",
                "addr:housenumber": "43",
                "addr:postcode": "26100",
                "addr:street": "Via Sesto",
                "brand": "Decathlon",
                "brand:wikidata": "Q509349",
                "name": "Decathlon",
                "opening_hours": "Mo-Su 09:00-20:00",
                "operator": "Decathlon",
                "shop": "sports",
                "wheelchair": "yes"
            }
        },
        {
            "type": "node",
            "id": 10691696858,
            "lat": 45.1862026,
            "lon": 9.1503676,
            "timestamp": "2025-10-23T07:17:07Z",
            "version": 3,
            "changeset": 173658768,
            "user": "btcitnet",
            "uid": 22525435,
            "tags": {
                "addr:city": "Pavia",
                "addr:housenumber": "30",
                "addr:postcode": "27100",
                "addr:street": "Corso Cavour",
                "brand": "Kasanova",
                "brand:wikidata": "Q116214505",
                "name": "Kasanova",
                "shop": "houseware"
            }
        },
        {
            "type": "node",
            "id": 10693302231,
            "lat": 45.1857852,
            "lon": 9.1535748,
            "timestamp": "2025-10-30T19:34:53Z",
            "version": 3,
            "changeset": 173992603,
            "user": "btcitnet",
            "uid": 22525435,
            "tags": {
                "addr:city": "Pavia",
                "addr:housenumber": "9",
                "addr:postcode": "27100",
                "addr:street": "Corso Cavour",
                "brand": "Tezenis",
                "brand:wikidata": "Q28056374",
                "clothes": "women;underwear;swimwear;men;children",
                "name": "Tezenis",
                "shop": "clothes"
            }
        },
        {
            "type": "node",
            "id": 10694611384,
            "lat": 45.1858818,
            "lon": 9.1526173,
            "timestamp": "2023-02-26T11:28:20Z",
            "version": 1,
            "changeset": 133038253,
            "user": "ivanbranco",
            "uid": 11220113,
            "tags": {
                "brand": "Foot Locker",
                "brand:wikidata": "Q63335",
                "contact:city": "Pavia",
                "contact:housenumber": "16b",
                "contact:postcode": "27100",
                "contact:street": "Corso Cavour",
                "name": "Foot Locker",
                "shop": "shoes"
            }
        },
        {
            "type": "node",
            "id": 10698237255,
            "lat": 45.1862691,
            "lon": 9.1534646,
            "timestamp": "2023-02-27T23:22:48Z",
            "version": 1,
            "changeset": 133107320,
            "user": "ivanbranco",
            "uid": 11220113,
            "tags": {
                "brand": "La Feltrinelli",
                "brand:wikidata": "Q96311190",
                "contact:city": "Pavia",
                "contact:housenumber": "21",
                "contact:postcode": "27100",
                "contact:street": "Via Venti Settembre",
                "name": "La Feltrinelli",
                "shop": "books"
            }
        },
        {
            "type": "node",
            "id": 10698237262,
            "lat": 45.1861239,
            "lon": 9.1514898,
            "timestamp": "2024-03-25T21:10:25Z",
            "version": 2,
            "changeset": 149149649,
            "user": "ivanbranco",
            "uid": 11220113,
            "tags": {
                "brand": "Calzedonia",
                "brand:wikidata": "Q1027874",
                "contact:city": "Pavia",
                "contact:housenumber": "24",
                "contact:postcode": "27100",
                "contact:street": "Corso Cavour",
                "name": "Calzedonia",
                "shop": "clothes"
            }
        },
        {
            "type": "node",
            "id": 10698387279,
            "lat": 45.1838606,
            "lon": 9.1546273,
            "timestamp": "2023-02-27T23:55:13Z",
            "version": 1,
            "changeset": 133107851,
            "user": "ivanbranco",
            "uid": 11220113,
            "tags": {
                "brand": "Intimissimi",
                "brand:wikidata": "Q305404",
                "clothes": "underwear",
                "contact:city": "Pavia",
                "contact:housenumber": "29c",
                "contact:postcode": "27100",
                "contact:street": "Corso Strada Nuova",
                "name": "Intimissimi",
                "shop": "clothes"
            }
        },
        {
            "type": "node",
            "id": 10761438067,
            "lat": 45.4823885,
            "lon": 9.7827514,
            "timestamp": "2025-01-05T14:28:48Z",
            "version": 2,
            "changeset": 161022459,
            "user": "Mannivu",
            "uid": 1950277,
            "tags": {
                "addr:housenumber": "3",
                "addr:street": "Via del commercio",
                "brand": "Calzedonia",
                "brand:wikidata": "Q1027874",
                "check_date": "2025-01-05",
                "check_date:opening_hours": "2025-01-05",
                "internet_access": "no",
                "level": "1",
                "name": "Calzedonia",
                "opening_hours": "09:00-20:00",
                "payment:mastercard": "yes",
                "payment:visa": "yes",
                "shop": "clothes",
                "wheelchair": "yes"
            }
        },
        {
            "type": "node",
            "id": 10775522834,
            "lat": 45.1551384,
            "lon": 10.0989582,
            "timestamp": "2024-12-09T10:24:12Z",
            "version": 4,
            "changeset": 160086067,
            "user": "DnaX",
            "uid": 69259,
            "tags": {
                "brand": "OVS",
                "brand:wikidata": "Q2042514",
                "contact:email": "1666f@ovs.it",
                "contact:phone": "+39 0372 838389",
                "contact:website": "www.ovs.it",
                "name": "OVS",
                "shop": "clothes",
                "wheelchair": "yes"
            }
        },
        {
            "type": "node",
            "id": 10816172089,
            "lat": 45.1150561,
            "lon": 10.0579052,
            "timestamp": "2025-10-07T21:59:07Z",
            "version": 3,
            "changeset": 172979242,
            "user": "btcitnet",
            "uid": 22525435,
            "tags": {
                "addr:city": "Cremona",
                "addr:postcode": "26100",
                "addr:street": "Area di Cremona Sud",
                "amenity": "fuel",
                "brand": "Tamoil",
                "brand:wikidata": "Q706793",
                "brand:wikipedia": "en:Tamoil",
                "fuel:GTL_diesel": "yes",
                "fuel:HGV_diesel": "yes",
                "fuel:diesel": "yes",
                "fuel:lpg": "yes",
                "fuel:octane_100": "yes",
                "fuel:octane_95": "yes",
                "name": "Tamoil",
                "operator": "F.lli Ieva S.N.C. di Alberto Ieva & C.",
                "ref:mise": "22119",
                "source:date": "2018-04-16"
            }
        },
        {
            "type": "node",
            "id": 10844464866,
            "lat": 45.3120876,
            "lon": 9.9985,
            "timestamp": "2025-01-02T16:46:35Z",
            "version": 6,
            "changeset": 160916701,
            "user": "demon_box",
            "uid": 350864,
            "tags": {
                "addr:city": "Quinzano D'Oglio",
                "addr:housenumber": "30",
                "addr:postcode": "25027",
                "addr:street": "Via Luigi Ciocca",
                "check_date": "2024-09-21",
                "check_date:currency:XBT": "2024-09-21",
                "contact:email": "info@2fsas.com",
                "contact:phone": "+390309924331",
                "contact:website": "https://www.2fsas.com",
                "currency:XBT": "yes",
                "name": "2F Computer",
                "shop": "computer"
            }
        },
        {
            "type": "node",
            "id": 10844470943,
            "lat": 45.0753716,
            "lon": 9.3032702,
            "timestamp": "2024-10-09T18:39:11Z",
            "version": 3,
            "changeset": 157685215,
            "user": "mpbin",
            "uid": 21850090,
            "tags": {
                "addr:city": "Stradella",
                "addr:housenumber": "23/24",
                "addr:postcode": "27049",
                "addr:street": "Piazzale Trieste",
                "check_date": "2024-10-09",
                "check_date:currency:XBT": "2024-10-09",
                "currency:XBT": "yes",
                "email": "info@studiobrega.it",
                "name": "Studio Brega",
                "office": "accountant",
                "phone": "+39 038 542259",
                "website": "https://www.studiobrega.it"
            }
        },
        {
            "type": "node",
            "id": 11104778454,
            "lat": 44.8156263,
            "lon": 9.9773502,
            "timestamp": "2024-09-15T06:12:43Z",
            "version": 3,
            "changeset": 156634732,
            "user": "paulbrunner",
            "uid": 15541433,
            "tags": {
                "addr:city": "Salsomaggiore Terme",
                "addr:housenumber": "9",
                "addr:postcode": "43039",
                "addr:street": "Via Loschi",
                "check_date": "2024-09-14",
                "contact:facebook": "https://www.facebook.com/diegopaccini.macelleria.streetfood.catering/",
                "currency:XBT": "yes",
                "email": "info@diegopaccini.it",
                "name": "Macelleria Paccini",
                "payment:lightning": "yes",
                "payment:onchain": "yes",
                "phone": "+39 0524 573219",
                "shop": "butcher",
                "website": "https://diegopaccini.it/",
                "wheelchair": "limited"
            }
        },
        {
            "type": "node",
            "id": 11266895596,
            "lat": 45.0512088,
            "lon": 9.7605461,
            "timestamp": "2025-10-08T20:31:19Z",
            "version": 3,
            "changeset": 173022559,
            "user": "btcitnet",
            "uid": 22525435,
            "tags": {
                "addr:city": "Piacenza",
                "addr:postcode": "29100",
                "addr:street": "Nure Nord",
                "amenity": "fuel",
                "brand": "Tamoil",
                "brand:wikidata": "Q706793",
                "brand:wikipedia": "en:Tamoil",
                "fuel:HGV_diesel": "yes",
                "fuel:diesel": "yes",
                "fuel:lpg": "yes",
                "fuel:octane_100": "yes",
                "fuel:octane_95": "yes",
                "name": "Tamoil",
                "operator": "Nure - S.A.S. di Raul Crescimanna & C.",
                "ref:mise": "3531"
            }
        },
        {
            "type": "node",
            "id": 11563999954,
            "lat": 45.0530685,
            "lon": 9.6613715,
            "timestamp": "2025-10-30T08:33:07Z",
            "version": 2,
            "changeset": 173963132,
            "user": "btcitnet",
            "uid": 22525435,
            "tags": {
                "addr:city": "Piacenza",
                "addr:housenumber": "20",
                "addr:postcode": "29121",
                "addr:street": "Via Atleti Azzurri d'Italia",
                "brand": "OVS",
                "brand:wikidata": "Q2042514",
                "name": "OVS",
                "shop": "clothes"
            }
        },
        {
            "type": "node",
            "id": 11897011481,
            "lat": 44.8671654,
            "lon": 10.0585568,
            "timestamp": "2025-10-30T19:37:19Z",
            "version": 4,
            "changeset": 173992689,
            "user": "btcitnet",
            "uid": 22525435,
            "tags": {
                "addr:city": "Fidenza",
                "addr:housenumber": "82",
                "addr:postcode": "43036",
                "addr:street": "Via Camillo Benso di Cavour",
                "brand": "Tezenis",
                "brand:wikidata": "Q28056374",
                "check_date": "2024-09-15",
                "clothes": "women;underwear;swimwear;men;children",
                "name": "Tezenis",
                "phone": "+39 0524 800948",
                "shop": "clothes",
                "wheelchair": "yes"
            }
        },
        {
            "type": "node",
            "id": 11898172120,
            "lat": 45.1139187,
            "lon": 10.0560289,
            "timestamp": "2024-05-12T07:59:24Z",
            "version": 1,
            "changeset": 151213182,
            "user": "Anonix35",
            "uid": 2362150,
            "tags": {
                "advertising": "totem",
                "brand": "Tamoil",
                "brand:wikidata": "Q706793",
                "lit": "yes"
            }
        },
        {
            "type": "node",
            "id": 11907356017,
            "lat": 45.1588719,
            "lon": 10.1061461,
            "timestamp": "2025-02-07T02:18:07Z",
            "version": 8,
            "changeset": 162228980,
            "user": "Rockedf",
            "uid": 7522075,
            "tags": {
                "addr:city": "Gadesco Pieve Delmona",
                "addr:country": "IT",
                "addr:housenumber": "20",
                "addr:postcode": "26030",
                "addr:street": "Via Sandro Pertini",
                "amenity": "marketplace",
                "check_date:currency:XBT": "2025-02-07",
                "currency:XBT": "yes",
                "name": "Spend Your Sats",
                "payment:lightning": "yes",
                "payment:lightning_contactless": "yes",
                "payment:onchain": "yes",
                "website": "https://www.spendsats.org"
            }
        },
        {
            "type": "node",
            "id": 12079098476,
            "lat": 44.883035,
            "lon": 10.0900347,
            "timestamp": "2025-10-16T20:05:01Z",
            "version": 2,
            "changeset": 173382987,
            "user": "btcitnet",
            "uid": 22525435,
            "tags": {
                "addr:city": "Fidenza",
                "addr:postcode": "43036",
                "addr:street": "Via San Michele Campagna",
                "brand": "OVS",
                "brand:wikidata": "Q2042514",
                "name": "OVS",
                "shop": "clothes"
            }
        },
        {
            "type": "node",
            "id": 12079098521,
            "lat": 44.8823348,
            "lon": 10.0918577,
            "timestamp": "2025-10-30T19:36:14Z",
            "version": 2,
            "changeset": 173992647,
            "user": "btcitnet",
            "uid": 22525435,
            "tags": {
                "addr:city": "Fidenza",
                "addr:postcode": "43036",
                "addr:street": "Via Federico Fellini",
                "brand": "H&M",
                "brand:wikidata": "Q188326",
                "name": "H&M",
                "shop": "clothes"
            }
        },
        {
            "type": "node",
            "id": 12238931073,
            "lat": 45.0160643,
            "lon": 9.1244964,
            "timestamp": "2024-10-09T18:34:26Z",
            "version": 1,
            "changeset": 157685021,
            "user": "mpbin",
            "uid": 21850090,
            "tags": {
                "addr:city": "Casteggio",
                "addr:housenumber": "10",
                "addr:postcode": "27045",
                "addr:street": "Via Console Marcello",
                "check_date": "2024-10-09",
                "check_date:currency:XBT": "2024-10-09",
                "currency:XBT": "yes",
                "email": "info@studiobrega.it",
                "name": "Studio Brega",
                "office": "accountant",
                "phone": "+39 038 542259",
                "website": "https://www.studiobrega.it/"
            }
        },
        {
            "type": "node",
            "id": 12248218504,
            "lat": 45.4814696,
            "lon": 9.7829912,
            "timestamp": "2024-10-13T13:11:24Z",
            "version": 1,
            "changeset": 157834513,
            "user": "Mannivu",
            "uid": 1950277,
            "tags": {
                "addr:housenumber": "3",
                "addr:street": "Via del commercio",
                "brand": "Guess",
                "brand:wikidata": "Q2470307",
                "check_date": "2024-10-13",
                "level": "1",
                "name": "Guess",
                "opening_hours": "Mo-Su,PH 09:00-20:00; Jan 1,Dec 25 off",
                "payment:cash": "yes",
                "payment:mastercard": "yes",
                "payment:visa": "yes",
                "shop": "clothes",
                "wheelchair": "yes"
            }
        },
        {
            "type": "node",
            "id": 12305187194,
            "lat": 45.1546407,
            "lon": 10.0990506,
            "timestamp": "2024-12-09T10:24:12Z",
            "version": 3,
            "changeset": 160086067,
            "user": "DnaX",
            "uid": 69259,
            "tags": {
                "brand": "Intimissimi",
                "brand:wikidata": "Q305404",
                "clothes": "underwear",
                "name": "Intimissimi",
                "shop": "clothes",
                "wheelchair": "yes"
            }
        },
        {
            "type": "node",
            "id": 12305217121,
            "lat": 45.1534596,
            "lon": 10.0988992,
            "timestamp": "2025-10-30T19:40:07Z",
            "version": 4,
            "changeset": 173992782,
            "user": "btcitnet",
            "uid": 22525435,
            "tags": {
                "addr:city": "San Marino",
                "addr:postcode": "26030",
                "addr:street": "SS10 Padana Inferiore",
                "brand": "Tezenis",
                "brand:wikidata": "Q28056374",
                "clothes": "women;underwear;swimwear;men;children",
                "name": "Tezenis",
                "phone": "+39 351 649 8070",
                "shop": "clothes",
                "wheelchair": "yes"
            }
        },
        {
            "type": "node",
            "id": 12305217196,
            "lat": 45.1552584,
            "lon": 10.0990764,
            "timestamp": "2025-10-13T20:58:59Z",
            "version": 4,
            "changeset": 173247771,
            "user": "btcitnet",
            "uid": 22525435,
            "tags": {
                "addr:city": "Gadesco-Pieve Delmona",
                "addr:housenumber": "23",
                "addr:postcode": "26030",
                "addr:street": "Via Enrico Berlinguer",
                "brand": "Upim",
                "brand:wikidata": "Q1414836",
                "contact:email": "5749d@upim.it",
                "contact:phone": "+39 0372 198 4715",
                "contact:website": "www.upim.it",
                "name": "Upim",
                "shop": "department_store",
                "wheelchair": "yes"
            }
        },
        {
            "type": "node",
            "id": 12306949567,
            "lat": 45.1551145,
            "lon": 10.0989546,
            "timestamp": "2024-11-02T11:50:09Z",
            "version": 2,
            "changeset": 158654140,
            "user": "\u0110uro Ji\u0159\u00ed",
            "uid": 14617702,
            "tags": {
                "brand": "Intimissimi",
                "brand:wikidata": "Q305404",
                "clothes": "underwear",
                "name": "Intimissimi",
                "shop": "clothes",
                "wheelchair": "yes"
            }
        },
        {
            "type": "node",
            "id": 12453042751,
            "lat": 45.0509789,
            "lon": 9.7608061,
            "timestamp": "2025-10-30T08:35:23Z",
            "version": 2,
            "changeset": 173963242,
            "user": "btcitnet",
            "uid": 22525435,
            "tags": {
                "addr:city": "Piacenza",
                "addr:postcode": "29100",
                "addr:street": "Autostrada dei Vini",
                "advertising": "totem",
                "brand": "Tamoil",
                "brand:wikidata": "Q706793"
            }
        },
        {
            "type": "node",
            "id": 12719000825,
            "lat": 45.1861191,
            "lon": 9.1547062,
            "timestamp": "2025-04-01T16:30:36Z",
            "version": 1,
            "changeset": 164383554,
            "user": "Qwave",
            "uid": 55912,
            "tags": {
                "addr:street": "Piazza della Vittoria",
                "brand": "Carrefour",
                "brand:wikidata": "Q217599",
                "layer": "-1",
                "name": "Carrefour",
                "opening_hours": "Mo-Sa 08:00-19:30",
                "shop": "supermarket",
                "website": "https://www.carrefour.it/punti-vendita/carrefour-express-pavia-pzza-vittoria-sottomercato-1343.html"
            }
        },
        {
            "type": "node",
            "id": 12812375246,
            "lat": 45.1321906,
            "lon": 10.0226846,
            "timestamp": "2025-05-05T19:59:38Z",
            "version": 1,
            "changeset": 165862837,
            "user": "rm_",
            "uid": 398010,
            "tags": {
                "addr:city": "Cremona",
                "addr:housenumber": "15a",
                "addr:postcode": "26100",
                "addr:street": "Piazza Guglielmo Marconi",
                "brand": "Conad",
                "brand:wikidata": "Q639075",
                "name": "Conad",
                "shop": "supermarket"
            }
        },
        {
            "type": "node",
            "id": 12850567719,
            "lat": 45.2384632,
            "lon": 9.4090979,
            "timestamp": "2025-05-20T09:12:03Z",
            "version": 1,
            "changeset": 166513668,
            "user": "astraspera",
            "uid": 2653653,
            "tags": {
                "brand": "OVS Kids",
                "brand:wikidata": "Q2042514",
                "clothes": "children",
                "name": "OVS Kids",
                "shop": "clothes"
            }
        },
        {
            "type": "node",
            "id": 13105905510,
            "lat": 44.8183264,
            "lon": 9.9960684,
            "timestamp": "2025-10-08T19:33:40Z",
            "version": 2,
            "changeset": 173020606,
            "user": "btcitnet",
            "uid": 22525435,
            "tags": {
                "addr:city": "Salsomaggiore Terme",
                "addr:housenumber": "20",
                "addr:postcode": "43039",
                "addr:street": "Via Salvo D'Acquisto",
                "brand": "Expert",
                "brand:wikidata": "Q680990",
                "name": "Expert",
                "shop": "electronics"
            }
        },
        {
            "type": "node",
            "id": 13191882347,
            "lat": 45.1498921,
            "lon": 9.9969002,
            "timestamp": "2025-10-06T20:30:18Z",
            "version": 3,
            "changeset": 172932875,
            "user": "btcitnet",
            "uid": 22525435,
            "tags": {
                "addr:city": "Cremona",
                "addr:housenumber": "108",
                "addr:postcode": "26100",
                "addr:street": "Via Castelleone",
                "brand": "OVS",
                "brand:wikidata": "Q2042514",
                "name": "OVS",
                "shop": "clothes",
                "wheelchair": "yes"
            }
        },
        {
            "type": "node",
            "id": 13191885848,
            "lat": 45.1489204,
            "lon": 9.9984656,
            "timestamp": "2025-10-21T15:03:51Z",
            "version": 2,
            "changeset": 173587673,
            "user": "btcitnet",
            "uid": 22525435,
            "tags": {
                "addr:city": "Cremona",
                "addr:postcode": "26100",
                "brand": "Bottega Verde",
                "brand:wikidata": "Q894870",
                "name": "Bottega Verde",
                "shop": "cosmetics"
            }
        },
        {
            "type": "way",
            "id": 27549342,
            "timestamp": "2025-05-23T16:12:37Z",
            "version": 6,
            "changeset": 166664052,
            "user": "olgia",
            "uid": 216179,
            "nodes": [
                302420147,
                858116604,
                302420148,
                302420150,
                858116564,
                858116391,
                858116594,
                302420151,
                302420147
            ],
            "tags": {
                "addr:city": "Cremona",
                "addr:street": "Via Arcangelo Ghisleri",
                "branch": "CREMONA",
                "brand": "Esselunga",
                "brand:wikidata": "Q1059636",
                "brand:wikipedia": "en:Esselunga",
                "building": "yes",
                "name": "Esselunga",
                "shop": "supermarket"
            }
        },
        {
            "type": "way",
            "id": 58380184,
            "timestamp": "2025-05-23T16:06:48Z",
            "version": 7,
            "changeset": 166663822,
            "user": "olgia",
            "uid": 216179,
            "nodes": [
                724056152,
                724056387,
                724055668,
                724056132,
                5383610505,
                5383610510,
                5383610515,
                5383610513,
                724056152
            ],
            "tags": {
                "addr:city": "Broni",
                "addr:housenumber": "53",
                "addr:street": "Via Quartiere Piave",
                "branch": "Broni",
                "brand": "Esselunga",
                "brand:wikidata": "Q1059636",
                "building": "retail",
                "name": "Esselunga",
                "shop": "supermarket"
            }
        },
        {
            "type": "way",
            "id": 81755831,
            "timestamp": "2022-06-27T20:07:44Z",
            "version": 3,
            "changeset": 122926802,
            "user": "GiovanniC83",
            "uid": 9622178,
            "nodes": [
                952440298,
                952443114,
                952440527,
                952443033,
                952443605,
                952442169,
                952442866,
                952441221,
                952441956,
                952440240,
                952440090,
                952442723,
                952440298
            ],
            "tags": {
                "brand": "Carrefour",
                "brand:wikidata": "Q217599",
                "building": "yes",
                "name": "Carrefour",
                "shop": "supermarket"
            }
        },
        {
            "type": "way",
            "id": 99703117,
            "timestamp": "2021-08-17T22:43:52Z",
            "version": 5,
            "changeset": 109837085,
            "user": "SimoGine",
            "uid": 11449631,
            "nodes": [
                1152749270,
                1152749334,
                1152749530,
                1152749126,
                1152749363,
                1152749417,
                1152748886,
                1152749304,
                1152749504,
                1152749560,
                1152749038,
                1152749513,
                1152748987,
                1152749043,
                1152749317,
                1152748933,
                1152749211,
                1152749254,
                1152749464,
                1152749358,
                1152749270
            ],
            "tags": {
                "addr:city": "Lodi Vecchio",
                "addr:postcode": "26855",
                "addr:street": "Via Roma",
                "amenity": "fuel",
                "brand": "Q8",
                "brand:wikidata": "Q1634762",
                "brand:wikipedia": "en:Kuwait Petroleum Corporation",
                "building": "yes",
                "fuel:diesel": "yes",
                "fuel:octane_95": "yes",
                "name": "Caldi",
                "operator": "Servizi & Gestioni Italia S.R.L.",
                "ref:mise": "22135",
                "source": "MISE - Ministero Sviluppo Economico",
                "source:date": "2018-04-16"
            }
        },
        {
            "type": "way",
            "id": 117671956,
            "timestamp": "2025-10-30T19:44:56Z",
            "version": 5,
            "changeset": 173992931,
            "user": "btcitnet",
            "uid": 22525435,
            "nodes": [
                1325159571,
                1325159576,
                1325159583,
                1325159597,
                1325159571
            ],
            "tags": {
                "addr:city": "Piacenza",
                "addr:housenumber": "90",
                "addr:postcode": "29122",
                "addr:street": "Viale dell'Artigianato",
                "brand": "Decathlon",
                "brand:wikidata": "Q509349",
                "brand:wikipedia": "en:Decathlon Group",
                "name": "Decathlon",
                "opening_hours": "Mo-Su 09:00-20:00",
                "phone": "+39 0523 188 5252",
                "ref:vatin": "IT11005760159",
                "shop": "sports",
                "website": "https://www.decathlon.it/"
            }
        },
        {
            "type": "way",
            "id": 166623805,
            "timestamp": "2025-10-29T20:02:41Z",
            "version": 6,
            "changeset": 173946632,
            "user": "btcitnet",
            "uid": 22525435,
            "nodes": [
                1780607244,
                1780607230,
                1780607217,
                1780607233,
                1780607211,
                1780607245,
                1780607214,
                1780607229,
                1780607241,
                1780607218,
                1780607244
            ],
            "tags": {
                "addr:city": "San Giuliano Milanese",
                "addr:housenumber": "5",
                "addr:postcode": "20098",
                "addr:street": "Piazza Italia",
                "brand": "Carrefour",
                "brand:wikidata": "Q217599",
                "brand:wikipedia": "fr:Carrefour (enseigne)",
                "building": "retail",
                "name": "Carrefour",
                "phone": "+39 02 984 5434",
                "shop": "supermarket"
            }
        },
        {
            "type": "way",
            "id": 168488037,
            "timestamp": "2024-06-14T12:48:22Z",
            "version": 6,
            "changeset": 152676769,
            "user": "Rockedf",
            "uid": 7522075,
            "nodes": [
                1797396430,
                1797396188,
                1797396208,
                1797396056,
                1797395918,
                1797395770,
                1797395598,
                1797396033,
                1797396094,
                1797396212,
                1797396248,
                1797396430
            ],
            "tags": {
                "addr:city": "Lodi",
                "addr:housenumber": "6",
                "addr:postcode": "26900",
                "addr:street": "via Agello",
                "building": "house",
                "check_date": "2024-06-14",
                "check_date:currency:XBT": "2024-06-14",
                "currency:XBT": "yes",
                "email": "info@villalaila.com",
                "guest_house": "bed_and_breakfast",
                "height": "9.315",
                "internet_access": "wlan",
                "internet_access:fee": "customers",
                "name": "Villa Laila",
                "opening_hours": "Mo-Su 09:00-20:30",
                "payment:lightning": "yes",
                "payment:lightning_contactless": "yes",
                "payment:onchain": "yes",
                "phone": "+393519110305",
                "rooms": "3",
                "source": "Cartografia Provincia di Lodi",
                "tourism": "hotel",
                "website": "https://www.villalaila.com/"
            }
        },
        {
            "type": "way",
            "id": 171658117,
            "timestamp": "2025-05-23T16:20:41Z",
            "version": 10,
            "changeset": 166664320,
            "user": "olgia",
            "uid": 216179,
            "nodes": [
                1826510942,
                5366665593,
                5366655499,
                5366655502,
                1826510977,
                1826511061,
                1826511107,
                1826510819,
                1826510942
            ],
            "tags": {
                "addr:city": "San Giuliano Milanese",
                "addr:street": "Via Emilia",
                "branch": "SAN GIULIANO MILANESE",
                "brand": "Esselunga",
                "brand:wikidata": "Q1059636",
                "brand:wikipedia": "en:Esselunga",
                "building": "retail",
                "name": "Esselunga",
                "shop": "supermarket"
            }
        },
        {
            "type": "way",
            "id": 179145768,
            "timestamp": "2025-05-29T12:23:18Z",
            "version": 8,
            "changeset": 166919039,
            "user": "Francesco Zanaboni",
            "uid": 11979968,
            "nodes": [
                1894938360,
                1083395475,
                1894938855,
                1894938837,
                1894938360
            ],
            "tags": {
                "amenity": "fuel",
                "brand": "Tamoil",
                "brand:wikidata": "Q706793",
                "car_wash": "yes",
                "fuel:diesel": "yes",
                "fuel:lpg": "no",
                "fuel:octane_95": "yes",
                "name": "Tamoil",
                "operator": "Fendillo Simona Matilde",
                "ref:mise": "7407",
                "source:date": "2018-04-16",
                "surface": "asphalt"
            }
        },
        {
            "type": "way",
            "id": 183406002,
            "timestamp": "2020-03-22T17:57:08Z",
            "version": 3,
            "changeset": 82490358,
            "user": "GiovanniC83",
            "uid": 9622178,
            "nodes": [
                1937779053,
                1937779136,
                1937779087,
                1937779123,
                1937779080,
                1937779046,
                1937779032,
                1937778836,
                1937778959,
                1937778996,
                1937779020,
                1937779008,
                1937779019,
                1937779029,
                1937779053
            ],
            "tags": {
                "brand": "Carrefour",
                "brand:wikidata": "Q217599",
                "brand:wikipedia": "fr:Carrefour (enseigne)",
                "building": "retail",
                "name": "Carrefour",
                "shop": "supermarket",
                "source": "Regione Emilia Romagna"
            }
        },
        {
            "type": "way",
            "id": 183719943,
            "timestamp": "2025-10-30T09:11:48Z",
            "version": 5,
            "changeset": 173964874,
            "user": "btcitnet",
            "uid": 22525435,
            "nodes": [
                1941317842,
                1941317844,
                1941318670,
                1941318088,
                1941317794,
                1941317718,
                1941317714,
                1941317542,
                1941317510,
                1941317522,
                1941317502,
                1941317453,
                1941317566,
                1941317842
            ],
            "tags": {
                "addr:city": "Piacenza",
                "addr:housenumber": "36",
                "addr:postcode": "29121",
                "addr:street": "Via Grazia Deledda",
                "brand": "Conad",
                "brand:wikidata": "Q639075",
                "building": "retail",
                "name": "Conad",
                "operator": "Conad",
                "phone": "+39 0523 451394",
                "shop": "supermarket",
                "source": "Regione Emilia Romagna"
            }
        },
        {
            "type": "way",
            "id": 183727645,
            "timestamp": "2025-05-22T13:01:41Z",
            "version": 3,
            "changeset": 166612431,
            "user": "olgia",
            "uid": 216179,
            "nodes": [
                1941328275,
                1941328283,
                1941328406,
                1941328457,
                1941327287,
                1941327246,
                1941327311,
                1941327307,
                1941327320,
                1941328275
            ],
            "tags": {
                "addr:city": "Piacenza",
                "addr:housenumber": "55/c",
                "addr:street": "Via Giuseppe Manfredi",
                "branch": "PIACENZA MANFREDI",
                "brand": "Esselunga",
                "brand:wikidata": "Q1059636",
                "building": "yes",
                "name": "Esselunga",
                "shop": "supermarket",
                "source": "Regione Emilia Romagna"
            }
        },
        {
            "type": "way",
            "id": 183740540,
            "timestamp": "2025-10-30T09:13:05Z",
            "version": 6,
            "changeset": 173964932,
            "user": "btcitnet",
            "uid": 22525435,
            "nodes": [
                1941439452,
                13075079002,
                1941441433,
                1941440290,
                1941441145,
                1941441965,
                1941442111,
                13075079001,
                1941441230,
                1941438502,
                1941439452
            ],
            "tags": {
                "addr:city": "Piacenza",
                "addr:housenumber": "6",
                "addr:postcode": "29100",
                "addr:street": "Via Gaetano Modonesi",
                "brand": "Conad",
                "brand:wikidata": "Q639075",
                "building": "retail",
                "name": "Conad",
                "shop": "supermarket",
                "source": "Regione Emilia Romagna"
            }
        },
        {
            "type": "way",
            "id": 184125522,
            "timestamp": "2024-01-29T14:15:50Z",
            "version": 4,
            "changeset": 146823785,
            "user": "DnaX",
            "uid": 69259,
            "nodes": [
                1945731905,
                11564372854,
                11564372856,
                11564372855,
                1945733240,
                1945733223,
                1945731601,
                1945731612,
                1945731900,
                1945731905
            ],
            "tags": {
                "addr:city": "Piacenza",
                "addr:postcode": "29121",
                "addr:street": "Via Emilia Pavese",
                "brand": "Unieuro",
                "brand:wikidata": "Q4004687",
                "building": "retail",
                "name": "Unieuro",
                "shop": "electronics",
                "source": "Regione Emilia Romagna"
            }
        },
        {
            "type": "way",
            "id": 184139519,
            "timestamp": "2025-05-22T17:31:06Z",
            "version": 9,
            "changeset": 166623435,
            "user": "olgia",
            "uid": 216179,
            "nodes": [
                1945803963,
                1945806523,
                1945807592,
                1945807545,
                1945803916,
                1945803963
            ],
            "tags": {
                "addr:city": "Piacenza",
                "addr:postcode": "29122",
                "addr:street": "Via Conciliazione",
                "branch": "PIACENZA",
                "brand": "Esselunga",
                "brand:wikidata": "Q1059636",
                "building": "retail",
                "name": "Esselunga",
                "shop": "supermarket",
                "source": "Regione Emilia Romagna"
            }
        },
        {
            "type": "way",
            "id": 201407974,
            "timestamp": "2024-09-26T14:06:03Z",
            "version": 5,
            "changeset": 157130752,
            "user": "damianeue",
            "uid": 10124288,
            "nodes": [
                2113799492,
                2113799493,
                2113799470,
                2113799469,
                2113799492
            ],
            "tags": {
                "addr:city": "San Secondo Parmense",
                "addr:street": "Via Cremonese",
                "brand": "Conad",
                "brand:wikidata": "Q639075",
                "building": "retail",
                "name": "Conad",
                "operator": "CONAD Soc. Coop.",
                "shop": "supermarket"
            }
        },
        {
            "type": "way",
            "id": 202199864,
            "timestamp": "2025-03-07T14:01:26Z",
            "version": 4,
            "changeset": 163328807,
            "user": "btcitnet",
            "uid": 22525435,
            "nodes": [
                2121815878,
                2121815835,
                2121815793,
                2121815802,
                2121815796,
                2121815814,
                2121815845,
                2121815839,
                2121815878
            ],
            "tags": {
                "addr:city": "Fidenza",
                "addr:housenumber": "9",
                "addr:postcode": "43036",
                "addr:street": "Via Federico Fellini",
                "brand": "Decathlon",
                "brand:wikidata": "Q509349",
                "building": "yes",
                "name": "Decathlon",
                "operator": "Decathlon",
                "phone": "+39 0524 687943",
                "shop": "sports"
            }
        },
        {
            "type": "way",
            "id": 230856278,
            "timestamp": "2025-10-30T09:14:09Z",
            "version": 5,
            "changeset": 173964985,
            "user": "btcitnet",
            "uid": 22525435,
            "nodes": [
                2392913474,
                2392913481,
                8234137479,
                2392913487,
                2392913485,
                2392913483,
                2392913474
            ],
            "tags": {
                "addr:city": "Codogno",
                "addr:housenumber": "2",
                "addr:postcode": "26845",
                "addr:street": "Via dei Mulini",
                "brand": "Conad",
                "brand:wikidata": "Q639075",
                "brand:wikipedia": "it:Conad",
                "building": "yes",
                "name": "Conad",
                "phone": "+39 377 435 507",
                "shop": "supermarket"
            }
        },
        {
            "type": "way",
            "id": 242873738,
            "timestamp": "2025-10-23T08:41:56Z",
            "version": 7,
            "changeset": 173661981,
            "user": "btcitnet",
            "uid": 22525435,
            "nodes": [
                2503213908,
                2503213874,
                2503213878,
                2503213911,
                2503213908
            ],
            "tags": {
                "addr:city": "Crema",
                "addr:housenumber": "12",
                "addr:postcode": "26013",
                "addr:street": "Via Giorgio La Pira",
                "brand": "Kasanova",
                "brand:wikidata": "Q116214505",
                "contact:phone": "+39 0373 202833",
                "contact:website": "www.kasanova.it",
                "indoor": "room",
                "level": "0",
                "name": "Kasanova",
                "shop": "houseware"
            }
        },
        {
            "type": "way",
            "id": 248637541,
            "timestamp": "2024-06-17T08:29:29Z",
            "version": 5,
            "changeset": 152790756,
            "user": "bbgg",
            "uid": 4126696,
            "nodes": [
                2554012635,
                2554012655,
                2554012650,
                2554012627,
                2554012635
            ],
            "tags": {
                "addr:city": "San Giuliano Milanese",
                "addr:housenumber": "13/15",
                "addr:postcode": "20098",
                "addr:street": "Via Po",
                "brand": "PittaRosso",
                "brand:wikidata": "Q105643314",
                "building": "retail",
                "name": "PittaRosso",
                "shop": "shoes"
            }
        },
        {
            "type": "way",
            "id": 318895833,
            "timestamp": "2025-10-30T09:15:20Z",
            "version": 9,
            "changeset": 173965039,
            "user": "btcitnet",
            "uid": 22525435,
            "nodes": [
                3252926154,
                3252926142,
                3252926143,
                3252926144,
                3252926145,
                3252926147,
                3252926152,
                3252926151,
                3252926157,
                3252926158,
                3252926156,
                3252926155,
                3252926148,
                3252926149,
                3252926150,
                3252926146,
                3252926136,
                3252926135,
                3252926134,
                3252926133,
                3252926131,
                3252926132,
                3252926137,
                3252926139,
                3252926138,
                3252926141,
                3252926140,
                3252926153,
                3252926154
            ],
            "tags": {
                "addr:city": "Orio Litta",
                "addr:postcode": "26063",
                "addr:street": "Strada provinciale ex SS 234 Codognese",
                "addr:village": "Orio Litta",
                "amenity": "fuel",
                "brand": "Tamoil",
                "brand:wikidata": "Q706793",
                "check_date": "2024-11-03",
                "compressed_air": "yes",
                "name": "Tamoil",
                "opening_hours": "24/7",
                "ref:mise": "10329",
                "self_service": "yes",
                "source": "geoportale Provincia di Lodi, License IODL-2.0 (http://sdi.provincia.lodi.it/)",
                "source:date": "2018-04-16",
                "wheelchair": "yes"
            }
        },
        {
            "type": "way",
            "id": 318895842,
            "timestamp": "2025-10-30T09:17:03Z",
            "version": 9,
            "changeset": 173965111,
            "user": "btcitnet",
            "uid": 22525435,
            "nodes": [
                3252926130,
                3252926122,
                3252926120,
                3252926125,
                3252926130
            ],
            "tags": {
                "addr:city": "Codogno",
                "addr:postcode": "26845",
                "addr:street": "Via Emilia",
                "amenity": "fuel",
                "brand": "Tamoil",
                "brand:wikidata": "Q706793",
                "compressed_air": "yes",
                "fuel:diesel": "yes",
                "fuel:lpg": "yes",
                "fuel:octane_91": "yes",
                "fuel:octane_95": "yes",
                "fuel:octane_98": "yes",
                "name": "Tamoil",
                "opening_hours": "24/7",
                "ref:mise": "4926",
                "self_service": "yes",
                "source": "geoportale Provincia di Lodi, License IODL-2.0 (http://sdi.provincia.lodi.it/)",
                "source:date": "2018-04-16",
                "wheelchair": "yes"
            }
        },
        {
            "type": "way",
            "id": 318895845,
            "timestamp": "2025-10-30T09:18:08Z",
            "version": 5,
            "changeset": 173965166,
            "user": "btcitnet",
            "uid": 22525435,
            "nodes": [
                3252926067,
                3252926072,
                3252926073,
                3252926078,
                3252926080,
                3252926079,
                3252926077,
                3252926076,
                3252926075,
                3252926074,
                3252926071,
                3252926070,
                3252926069,
                3252926068,
                3252926067
            ],
            "tags": {
                "addr:city": "Codogno",
                "addr:housenumber": "31",
                "addr:postcode": "26845",
                "addr:street": "Viale Leonardo da Vinci",
                "amenity": "fuel",
                "brand": "Tamoil",
                "brand:wikidata": "Q706793",
                "compressed_air": "yes",
                "name": "Tamoil",
                "operator": "Inzadi Giovanna",
                "phone": "+39 0377 32103",
                "ref:mise": "10768",
                "source": "geoportale Provincia di Lodi, License IODL-2.0 (http://sdi.provincia.lodi.it/)",
                "source:date": "2018-04-16"
            }
        },
        {
            "type": "way",
            "id": 318895846,
            "timestamp": "2025-10-30T09:19:13Z",
            "version": 11,
            "changeset": 173965222,
            "user": "btcitnet",
            "uid": 22525435,
            "nodes": [
                3252926263,
                3252926236,
                3252926224,
                3252926235,
                3252926272,
                3252926275,
                3252926262,
                3252926263
            ],
            "tags": {
                "addr:city": "Casalpusterlengo",
                "addr:postcode": "26841",
                "addr:street": "Via Emilia",
                "amenity": "fuel",
                "brand": "Tamoil",
                "brand:wikidata": "Q706793",
                "brand:wikipedia": "en:Tamoil",
                "check_date": "2024-11-03",
                "compressed_air": "yes",
                "fuel:diesel": "yes",
                "fuel:octane_95": "yes",
                "fuel:octane_98": "yes",
                "name": "Tamoil",
                "opening_hours": "24/7",
                "operator": "T.D.M. S.R.L.",
                "ref:mise": "34664",
                "self_service": "yes",
                "source": "geoportale Provincia di Lodi, License IODL-2.0 (http://sdi.provincia.lodi.it/)",
                "source:date": "2018-04-16",
                "wheelchair": "yes"
            }
        },
        {
            "type": "way",
            "id": 329487182,
            "timestamp": "2025-03-16T07:53:27Z",
            "version": 3,
            "changeset": 163677154,
            "user": "skizz98",
            "uid": 13920670,
            "nodes": [
                3363582877,
                3363589331,
                3363589326,
                3363589355,
                3363589315,
                3363582877
            ],
            "tags": {
                "brand": "Conad",
                "brand:wikidata": "Q639075",
                "building": "retail",
                "name": "Conad",
                "shop": "supermarket"
            }
        },
        {
            "type": "way",
            "id": 375525083,
            "timestamp": "2019-08-15T23:22:19Z",
            "version": 4,
            "changeset": 73394512,
            "user": "GiovanniC83",
            "uid": 9622178,
            "nodes": [
                3788861424,
                3788861427,
                3788861422,
                5705989974,
                3788861418,
                226914985,
                5705989973,
                3788861417,
                3788861424
            ],
            "tags": {
                "addr:city": "Cremona",
                "addr:housenumber": "21c",
                "addr:postcode": "26100",
                "addr:street": "Via Eridano",
                "amenity": "fuel",
                "brand": "Tamoil",
                "brand:wikidata": "Q706793",
                "brand:wikipedia": "en:Tamoil",
                "building": "roof",
                "name": "Tamoil",
                "operator": "Cremona Oil Societ\u00e0 in Nome Collettivo di Malinverno Gianni e Cavallotti Barbara",
                "ref:mise": "5723",
                "source:date": "2018-04-16"
            }
        },
        {
            "type": "way",
            "id": 375525221,
            "timestamp": "2022-05-06T20:03:13Z",
            "version": 4,
            "changeset": 120645505,
            "user": "Denisov21",
            "uid": 817066,
            "nodes": [
                3788860025,
                3788859988,
                3788859755,
                3788859962,
                3788860031,
                3788860029,
                3788860025
            ],
            "tags": {
                "addr:city": "Cremona",
                "addr:housenumber": "119",
                "addr:postcode": "26100",
                "addr:street": "Viale Po",
                "brand": "Conad",
                "brand:wikidata": "Q639075",
                "brand:wikipedia": "en:Simply Market",
                "building": "retail",
                "name": "Conad",
                "shop": "supermarket"
            }
        },
        {
            "type": "way",
            "id": 392521647,
            "timestamp": "2025-05-22T15:24:58Z",
            "version": 5,
            "changeset": 166618584,
            "user": "olgia",
            "uid": 216179,
            "nodes": [
                3957390623,
                3957390620,
                3957390621,
                3957390619,
                3957390622,
                3957390618,
                3957390624,
                1165750936,
                3957390629,
                1165750763,
                1165751025,
                3957390623
            ],
            "tags": {
                "addr:city": "Pantigliate",
                "addr:housenumber": "15",
                "addr:postcode": "20090",
                "addr:street": "Vecchia Paullese",
                "branch": "PANTIGLIATE",
                "brand": "Esselunga",
                "brand:wikidata": "Q1059636",
                "brand:wikipedia": "en:Esselunga",
                "building": "retail",
                "name": "Esselunga",
                "shop": "supermarket",
                "toilets": "yes",
                "website": "https://www.esselunga.it/it-it/negozi/negozio.esselunga-di-pantigliate.pan.html"
            }
        },
        {
            "type": "way",
            "id": 418908329,
            "timestamp": "2022-11-14T06:55:36Z",
            "version": 3,
            "changeset": 128874887,
            "user": "bbgg",
            "uid": 4126696,
            "nodes": [
                4191288125,
                4191288126,
                4191288127,
                4191288128,
                4191288125
            ],
            "tags": {
                "addr:city": "Piacenza",
                "addr:postcode": "29122",
                "addr:street": "Via Conciliazione",
                "amenity": "fuel",
                "brand": "Q8",
                "brand:wikidata": "Q1634762",
                "fuel:diesel": "yes",
                "fuel:octane_95": "yes",
                "name": "Q8",
                "operator": "Servizi & Gestioni Italia Srl",
                "ref:mise": "6465",
                "source:date": "2018-04-16"
            }
        },
        {
            "type": "way",
            "id": 421759127,
            "timestamp": "2025-10-30T09:20:35Z",
            "version": 4,
            "changeset": 173965284,
            "user": "btcitnet",
            "uid": 22525435,
            "nodes": [
                4215032433,
                4215032434,
                4215032435,
                4215032436,
                4215032437,
                4215032438,
                4215032433
            ],
            "tags": {
                "addr:city": "Piacenza",
                "addr:postcode": "29122",
                "addr:street": "Via Giuseppe Manfredi",
                "amenity": "fuel",
                "brand": "Q8",
                "brand:wikidata": "Q1634762",
                "name": "Q8",
                "operator": "Servizi & Gestioni Italia Srl",
                "ref:mise": "6464",
                "source:date": "2018-04-16"
            }
        },
        {
            "type": "way",
            "id": 421826857,
            "timestamp": "2023-11-23T11:55:46Z",
            "version": 5,
            "changeset": 144366213,
            "user": "DnaX",
            "uid": 69259,
            "nodes": [
                1945705021,
                4215598197,
                4215598198,
                4215598199,
                1945705021
            ],
            "tags": {
                "addr:city": "Piacenza",
                "addr:postcode": "29121",
                "amenity": "fuel",
                "brand": "Q8",
                "brand:wikidata": "Q1634762",
                "name": "Q8",
                "operator": "Servizi & Gestioni Italia S.R.L.",
                "ref:mise": "23211",
                "source:date": "2018-04-16"
            }
        },
        {
            "type": "way",
            "id": 422148583,
            "timestamp": "2024-03-07T16:13:49Z",
            "version": 3,
            "changeset": 148349796,
            "user": "CjMalone",
            "uid": 6816132,
            "nodes": [
                4218714393,
                4218714394,
                4218714395,
                4218714396,
                4218714397,
                4218714393
            ],
            "tags": {
                "addr:city": "Piacenza",
                "addr:postcode": "29122",
                "addr:street": "Via Emilia Parmense",
                "amenity": "fuel",
                "brand": "Q8",
                "brand:wikidata": "Q1634762",
                "name": "Q8",
                "operator": "Provini Luisella",
                "ref:mise": "7920"
            }
        },
        {
            "type": "way",
            "id": 640259477,
            "timestamp": "2020-02-24T22:08:14Z",
            "version": 3,
            "changeset": 81425061,
            "user": "GiovanniC83",
            "uid": 9622178,
            "nodes": [
                6031745776,
                6031745777,
                6031745778,
                6031745789,
                6031745779,
                6031745776
            ],
            "tags": {
                "addr:housenumber": "11",
                "addr:street": "Via San Tommaso",
                "brand": "Carrefour",
                "brand:wikidata": "Q217599",
                "brand:wikipedia": "fr:Carrefour (enseigne)",
                "building": "yes",
                "name": "Carrefour",
                "shop": "supermarket"
            }
        },
        {
            "type": "way",
            "id": 683167703,
            "timestamp": "2020-03-21T10:53:30Z",
            "version": 2,
            "changeset": 82456828,
            "user": "astraspera",
            "uid": 2653653,
            "nodes": [
                6398811601,
                6398811602,
                6398811603,
                6398811604,
                6398811605,
                6398811606,
                6398811601
            ],
            "tags": {
                "brand": "Decathlon",
                "brand:wikidata": "Q509349",
                "brand:wikipedia": "en:Decathlon Group",
                "building": "yes",
                "name": "Decathlon",
                "operator": "Decathlon",
                "shop": "sports"
            }
        },
        {
            "type": "way",
            "id": 766722579,
            "timestamp": "2020-01-26T17:07:26Z",
            "version": 1,
            "changeset": 80103479,
            "user": "astraspera",
            "uid": 2653653,
            "nodes": [
                7160762859,
                7160762860,
                7160762861,
                7160762862,
                7160762863,
                7160762864,
                7160762859
            ],
            "tags": {
                "amenity": "fuel",
                "brand": "Tamoil",
                "brand:wikidata": "Q706793",
                "brand:wikipedia": "en:Tamoil",
                "fuel:octane_95": "yes",
                "name": "Tamoil",
                "operator": "Astidias Cardenas Miguel Angel"
            }
        },
        {
            "type": "way",
            "id": 923140254,
            "timestamp": "2025-03-21T09:16:48Z",
            "version": 2,
            "changeset": 163895755,
            "user": "Land2000",
            "uid": 12923042,
            "nodes": [
                4575529069,
                8569567351,
                8569567365,
                8569567352,
                8569567353,
                8569567354,
                8569567355,
                8569567356,
                8569567357,
                8569567358,
                8569567359,
                8569567360,
                8569567361,
                8569567362,
                4575529069
            ],
            "tags": {
                "addr:city": "Melegnano",
                "addr:housenumber": "3",
                "addr:postcode": "20077",
                "addr:street": "Via Francesca Morvillo",
                "brand": "Spar",
                "brand:wikidata": "Q610492",
                "building": "yes",
                "name": "Eurospar",
                "operator": "Eurospar",
                "shop": "supermarket"
            }
        },
        {
            "type": "way",
            "id": 976944492,
            "timestamp": "2022-06-27T20:07:44Z",
            "version": 2,
            "changeset": 122926802,
            "user": "GiovanniC83",
            "uid": 9622178,
            "nodes": [
                9040453280,
                9040453281,
                9040453282,
                9040453287,
                9040453286,
                9040453283,
                9040453285,
                9040453284,
                9040453280
            ],
            "tags": {
                "brand": "Expert",
                "brand:wikidata": "Q680990",
                "building": "commercial",
                "name": "Expert",
                "shop": "electronics"
            }
        },
        {
            "type": "way",
            "id": 1020529419,
            "timestamp": "2022-01-12T11:42:27Z",
            "version": 1,
            "changeset": 116063235,
            "user": "Michele Aquilani",
            "uid": 3860151,
            "nodes": [
                9412562079,
                227536644,
                9412562080,
                9412562081,
                9412562079
            ],
            "tags": {
                "amenity": "fuel",
                "brand": "Q8",
                "brand:wikidata": "Q1634762",
                "brand:wikipedia": "en:Kuwait Petroleum Corporation",
                "building": "roof",
                "layer": "1",
                "name": "Q8",
                "operator": "Servizi & Gestioni Italia S.R.L.",
                "ref:mise": "11666"
            }
        },
        {
            "type": "way",
            "id": 1127838253,
            "timestamp": "2025-10-05T14:27:18Z",
            "version": 11,
            "changeset": 172870273,
            "user": "Mannivu",
            "uid": 1950277,
            "nodes": [
                2687741990,
                2687741992,
                2687741986,
                2687741987,
                7466306730,
                2687741989,
                2687741990
            ],
            "tags": {
                "addr:city": "Caravaggio",
                "addr:postcode": "24043",
                "addr:street": "Via Carlo Sangaletti",
                "air_conditioning": "yes",
                "brand": "OVS",
                "brand:wikidata": "Q2042514",
                "brand:wikipedia": "en:OVS (company)",
                "check_date": "2025-03-13",
                "check_date:opening_hours": "2022-05-01",
                "clothes": "babies;children;suits;women;fashion;leather;sports;traditional;men",
                "contact:phone": "+39 0363 350571",
                "internet_access": "no",
                "level": "0",
                "name": "OVS",
                "nohousenumber": "yes",
                "opening_hours": "09:00-13:00,15:00-19:00",
                "payment:bancomat": "yes",
                "payment:cash": "yes",
                "payment:jcb": "yes",
                "payment:maestro": "yes",
                "payment:mastercard": "yes",
                "payment:notes": "yes",
                "payment:visa": "yes",
                "payment:visa_debit": "yes",
                "ref:vatin": "IT04240010274",
                "second_hand": "no",
                "shop": "clothes",
                "website": "https://www.ovs.it/it/it/stores/italia/lombardia/bergamo/ovs-caravaggio",
                "wheelchair": "yes"
            }
        },
        {
            "type": "way",
            "id": 1256605625,
            "timestamp": "2025-01-06T17:50:23Z",
            "version": 3,
            "changeset": 161068591,
            "user": "GiovanniC83",
            "uid": 9622178,
            "nodes": [
                11681908234,
                11681908235,
                11681908236,
                11681908237,
                11681908234
            ],
            "tags": {
                "brand": "MediaWorld",
                "brand:wikidata": "Q2381223",
                "building": "yes",
                "name": "MediaWorld",
                "operator": "Mediamarket S.p.A.",
                "shop": "electronics"
            }
        },
        {
            "type": "way",
            "id": 1279690040,
            "timestamp": "2025-09-08T12:50:20Z",
            "version": 3,
            "changeset": 171633503,
            "user": "Chiarant",
            "uid": 18452174,
            "nodes": [
                11879293393,
                11879293394,
                11879293395,
                13127944375,
                11879293396,
                11879293393
            ],
            "tags": {
                "brand": "Conad",
                "brand:wikidata": "Q639075",
                "building": "yes",
                "check_date": "2024-09-14",
                "name": "Conad",
                "shop": "supermarket",
                "wheelchair": "yes"
            }
        },
        {
            "type": "way",
            "id": 1303896675,
            "timestamp": "2024-09-03T07:50:27Z",
            "version": 2,
            "changeset": 156129649,
            "user": "Francesco Zanaboni",
            "uid": 11979968,
            "nodes": [
                12075281976,
                12075281977,
                12075281978,
                12075281979,
                12075281976
            ],
            "tags": {
                "brand": "Conad",
                "brand:wikidata": "Q639075",
                "building": "yes",
                "name": "Conad",
                "shop": "supermarket"
            }
        },
        {
            "type": "way",
            "id": 1330916212,
            "timestamp": "2025-03-15T16:46:49Z",
            "version": 2,
            "changeset": 163659179,
            "user": "GiovanniC83",
            "uid": 9622178,
            "nodes": [
                12314407161,
                12314407162,
                12314407163,
                12314407164,
                12314407165,
                12314407161
            ],
            "tags": {
                "addr:city": "Cremona",
                "addr:postcode": "26100",
                "addr:street": "via Del Giordano, angolo via Mosa",
                "addr:unit": "1",
                "brand": "Spar",
                "brand:wikidata": "Q610492",
                "building": "yes",
                "contact:facebook": "https://www.facebook.com/DesparNord",
                "contact:instagram": "https://www.instagram.com/desparnord/",
                "contact:linkedin": "https://www.linkedin.com/company/desparnord/",
                "contact:tiktok": "https://www.tiktok.com/@desparnord",
                "contact:whatsapp": "https://www.whatsapp.com/channel/0029VaKSecf1HspwcdF1y82f",
                "contact:youtube": "https://www.youtube.com/user/DesparNordest",
                "fixme": "approximate shape",
                "name": "Eurospar",
                "opening_hours": "Mo-Sa 08:00-20:00 Su-Su 08:00-19:00",
                "phone": "+39037237415",
                "shop": "supermarket"
            }
        },
        {
            "type": "way",
            "id": 1374246823,
            "timestamp": "2025-04-02T19:21:33Z",
            "version": 2,
            "changeset": 164436168,
            "user": "Mannivu",
            "uid": 1950277,
            "nodes": [
                835850575,
                835850602,
                835850455,
                11641285721,
                11641285722,
                835850610,
                835850575
            ],
            "tags": {
                "brand": "Conad",
                "brand:wikidata": "Q639075",
                "brand:wikipedia": "it:Conad",
                "name": "Conad",
                "shop": "supermarket"
            }
        }
    ],
    "telegram": []
}