{
    "id": "belluno",
    "name": "Belluno",
    "lng": 46.13837528,
    "lat": 12.21704167,
    "idcomune": 46834,
    "poi": [
        {
            "type": "node",
            "id": 226754502,
            "lat": 45.889799,
            "lon": 12.003014,
            "timestamp": "2025-09-30T08:37:39Z",
            "version": 6,
            "changeset": 172649179,
            "user": "btcitnet",
            "uid": 22525435,
            "tags": {
                "addr:city": "Valdobbiadene",
                "addr:housenumber": "128",
                "addr:postcode": "31049",
                "addr:street": "Via Erizzo",
                "amenity": "fuel",
                "brand": "Tamoil",
                "brand:wikidata": "Q706793",
                "name": "Tamoil",
                "operator": "Favretto S.N.C. di Favretto Luigi & C.",
                "ref:mise": "12995"
            }
        },
        {
            "type": "node",
            "id": 227510348,
            "lat": 46.17112,
            "lon": 12.712458,
            "timestamp": "2025-10-02T19:46:17Z",
            "version": 8,
            "changeset": 172763962,
            "user": "btcitnet",
            "uid": 22525435,
            "tags": {
                "addr:city": "Maniago",
                "addr:postcode": "33085",
                "addr:street": "Via Unit\u00e0 d'Italia",
                "amenity": "fuel",
                "brand": "Tamoil",
                "brand:wikidata": "Q706793",
                "brand:wikipedia": "en:Tamoil",
                "name": "Tamoil",
                "name:it": "Maniago",
                "operator": "Butto' Maurizio & C. S.A.S.",
                "ref:mise": "22957"
            }
        },
        {
            "type": "node",
            "id": 227697901,
            "lat": 46.1813109,
            "lon": 12.2839299,
            "timestamp": "2025-09-30T19:29:00Z",
            "version": 10,
            "changeset": 172676220,
            "user": "btcitnet",
            "uid": 22525435,
            "tags": {
                "addr:city": "Ponte nelle Alpi",
                "addr:housenumber": "24",
                "addr:postcode": "32014",
                "addr:street": "Viale Cadore",
                "amenity": "fuel",
                "brand": "Q8",
                "brand:wikidata": "Q1634762",
                "brand:wikipedia": "en:Kuwait Petroleum Corporation",
                "fixme": "name",
                "name": "Q8",
                "operator": "Servizi & Gestioni Italia S.R.L.",
                "ref:mise": "11505"
            }
        },
        {
            "type": "node",
            "id": 227717886,
            "lat": 45.9386935,
            "lon": 12.4973751,
            "timestamp": "2025-09-30T20:12:35Z",
            "version": 11,
            "changeset": 172677730,
            "user": "btcitnet",
            "uid": 22525435,
            "tags": {
                "addr:city": "Sacile",
                "addr:housenumber": "7",
                "addr:postcode": "33077",
                "addr:street": "Borgo Schiavoi",
                "amenity": "fuel",
                "brand": "Q8",
                "brand:wikidata": "Q1634762",
                "brand:wikipedia": "en:Kuwait Petroleum Corporation",
                "fixme": "Check name and brand",
                "name": "SMP",
                "operator": "Sanson Alessandro",
                "ref:mise": "24883",
                "self_service": "yes"
            }
        },
        {
            "type": "node",
            "id": 227763720,
            "lat": 46.018679,
            "lon": 11.8898804,
            "timestamp": "2025-09-30T20:24:10Z",
            "version": 8,
            "changeset": 172678166,
            "user": "btcitnet",
            "uid": 22525435,
            "tags": {
                "addr:city": "Feltre",
                "addr:housenumber": "25",
                "addr:postcode": "32032",
                "addr:street": "Via Dante Alighieri",
                "amenity": "fuel",
                "brand": "Q8",
                "brand:wikidata": "Q1634762",
                "brand:wikipedia": "en:Kuwait Petroleum Corporation",
                "name": "Q8",
                "opening_hours": "24/7",
                "operator": "Servizi & Gestioni Italia S.R.L.",
                "ref:mise": "11504"
            }
        },
        {
            "type": "node",
            "id": 227774797,
            "lat": 45.8176852,
            "lon": 11.8460823,
            "timestamp": "2025-09-30T20:27:15Z",
            "version": 7,
            "changeset": 172678257,
            "user": "btcitnet",
            "uid": 22525435,
            "tags": {
                "addr:city": "Pieve Del Grappa",
                "addr:housenumber": "23",
                "addr:postcode": "31017",
                "addr:street": "Via Asolana",
                "amenity": "fuel",
                "brand": "Tamoil",
                "brand:wikidata": "Q706793",
                "name": "Tamoil",
                "operator": "T.D.M. S.R.L.",
                "ref:mise": "40815"
            }
        },
        {
            "type": "node",
            "id": 227792477,
            "lat": 46.0144151,
            "lon": 11.9106807,
            "timestamp": "2025-10-01T06:56:48Z",
            "version": 11,
            "changeset": 172690936,
            "user": "btcitnet",
            "uid": 22525435,
            "tags": {
                "addr:city": "Feltre",
                "addr:postcode": "32032",
                "addr:street": "Via del Piave",
                "amenity": "fuel",
                "brand": "Tamoil",
                "brand:wikidata": "Q706793",
                "compressed_air": "no",
                "name": "Tamoil",
                "opening_hours": "24/7",
                "operator": "Crestani Giuseppe",
                "ref:mise": "18414",
                "self_service": "yes"
            }
        },
        {
            "type": "node",
            "id": 227819153,
            "lat": 45.968784,
            "lon": 12.615443,
            "timestamp": "2025-10-02T19:47:16Z",
            "version": 7,
            "changeset": 172764004,
            "user": "btcitnet",
            "uid": 22525435,
            "tags": {
                "addr:city": "Porcia",
                "addr:housenumber": "62",
                "addr:postcode": "33080",
                "addr:street": "Corso Lino Zanussi",
                "amenity": "fuel",
                "brand": "Tamoil",
                "brand:wikidata": "Q706793",
                "name": "Tamoil",
                "operator": "T.D.M. S.R.L.",
                "ref:mise": "37731"
            }
        },
        {
            "type": "node",
            "id": 227832734,
            "lat": 46.1498412,
            "lon": 11.7351753,
            "timestamp": "2025-10-01T06:32:49Z",
            "version": 8,
            "changeset": 172690115,
            "user": "btcitnet",
            "uid": 22525435,
            "tags": {
                "addr:city": "Canal San Bovo",
                "amenity": "fuel",
                "brand": "Tamoil",
                "brand:wikidata": "Q706793",
                "brand:wikipedia": "en:Tamoil",
                "name": "Tamoil",
                "operator": "La Fornace di Orsingher Elena & C. S.N.C.",
                "ref:mise": "8372"
            }
        },
        {
            "type": "node",
            "id": 227880419,
            "lat": 45.81911,
            "lon": 12.201605,
            "timestamp": "2025-10-08T13:30:56Z",
            "version": 12,
            "changeset": 173005080,
            "user": "\u0110uro Ji\u0159\u00ed",
            "uid": 14617702,
            "tags": {
                "addr:city": "Nervesa Della Battaglia",
                "addr:housenumber": "11",
                "addr:postcode": "31040",
                "addr:street": "Via Ivo Lollini",
                "amenity": "fuel",
                "brand": "Tamoil",
                "brand:wikidata": "Q706793",
                "changing_table": "no",
                "compressed_air": "yes",
                "name": "Tamoil",
                "opening_hours": "24/7",
                "operator": "Stella Ambrozzo di Stella Sonia",
                "ref:mise": "21307",
                "self_service": "yes",
                "valves": "schrader",
                "wheelchair": "yes"
            }
        },
        {
            "type": "node",
            "id": 227887629,
            "lat": 45.900581,
            "lon": 12.110828,
            "timestamp": "2025-10-02T19:49:31Z",
            "version": 6,
            "changeset": 172764087,
            "user": "btcitnet",
            "uid": 22525435,
            "tags": {
                "addr:city": "Farra Di Soligo",
                "addr:housenumber": "8",
                "addr:postcode": "31010",
                "addr:street": "Via Rui Stort",
                "amenity": "fuel",
                "brand": "Tamoil",
                "brand:wikidata": "Q706793",
                "fixme": "Name",
                "name": "Tamoil",
                "operator": "Trivengas S.R.L",
                "ref:mise": "4115"
            }
        },
        {
            "type": "node",
            "id": 227888880,
            "lat": 45.9333788,
            "lon": 12.3749637,
            "timestamp": "2025-10-02T19:51:12Z",
            "version": 6,
            "changeset": 172764139,
            "user": "btcitnet",
            "uid": 22525435,
            "tags": {
                "addr:city": "Cordignano",
                "amenity": "fuel",
                "brand": "Tamoil",
                "brand:wikidata": "Q706793",
                "name": "Tamoil",
                "operator": "Tamoil"
            }
        },
        {
            "type": "node",
            "id": 227889058,
            "lat": 45.957574,
            "lon": 12.350135,
            "timestamp": "2025-10-07T13:53:24Z",
            "version": 13,
            "changeset": 172960225,
            "user": "\u0110uro Ji\u0159\u00ed",
            "uid": 14617702,
            "tags": {
                "addr:city": "Colle Umberto",
                "addr:housenumber": "20",
                "addr:postcode": "31014",
                "addr:street": "Via Boschetta",
                "amenity": "fuel",
                "brand": "Q8",
                "brand:wikidata": "Q1634762",
                "changing_table": "no",
                "compressed_air": "yes",
                "fuel:diesel": "yes",
                "fuel:lpg": "yes",
                "fuel:octane_95": "yes",
                "name": "Q8",
                "opening_hours": "24/7",
                "operator": "Marcon Mauro & Giuseppe S.N.C.",
                "ref:mise": "14523",
                "self_service": "yes",
                "valves": "schrader",
                "wheelchair": "yes"
            }
        },
        {
            "type": "node",
            "id": 227932972,
            "lat": 46.0630539,
            "lon": 12.5977319,
            "timestamp": "2025-10-02T19:53:31Z",
            "version": 8,
            "changeset": 172764221,
            "user": "btcitnet",
            "uid": 22525435,
            "tags": {
                "addr:city": "Aviano",
                "addr:housenumber": "63",
                "addr:postcode": "33081",
                "addr:street": "Via Pordenone",
                "amenity": "fuel",
                "brand": "Q8",
                "brand:wikidata": "Q1634762",
                "name": "Q8",
                "operator": "Servizi & Gestioni Italia S.R.L.",
                "ref:mise": "9001"
            }
        },
        {
            "type": "node",
            "id": 227951676,
            "lat": 45.7192466,
            "lon": 12.2852173,
            "timestamp": "2025-10-02T19:54:23Z",
            "version": 7,
            "changeset": 172764245,
            "user": "btcitnet",
            "uid": 22525435,
            "tags": {
                "addr:city": "Villorba",
                "addr:housenumber": "219",
                "addr:postcode": "31050",
                "addr:street": "Via Piave",
                "amenity": "fuel",
                "brand": "Tamoil",
                "brand:wikidata": "Q706793",
                "name": "Tamoil",
                "operator": "El Zaatari Sobhi",
                "ref:mise": "39619"
            }
        },
        {
            "type": "node",
            "id": 228249522,
            "lat": 46.5437447,
            "lon": 12.4593056,
            "timestamp": "2025-10-02T19:55:05Z",
            "version": 8,
            "changeset": 172764266,
            "user": "btcitnet",
            "uid": 22525435,
            "tags": {
                "addr:city": "Auronzo di Cadore",
                "addr:postcode": "32041",
                "addr:street": "Via Cella",
                "amenity": "fuel",
                "brand": "Tamoil",
                "brand:wikidata": "Q706793",
                "brand:wikipedia": "en:Tamoil",
                "name": "Tamoil",
                "operator": "Corte Pause Mariantonia",
                "ref:mise": "39703"
            }
        },
        {
            "type": "node",
            "id": 289485917,
            "lat": 46.537047,
            "lon": 12.1405035,
            "timestamp": "2025-09-27T19:25:26Z",
            "version": 12,
            "changeset": 172541632,
            "user": "btcitnet",
            "uid": 22525435,
            "tags": {
                "addr:city": "Cortina d'Ampezzo",
                "addr:housenumber": "1",
                "addr:postcode": "32043",
                "addr:street": "Via Carlo Franchetti",
                "brand": "Conad City",
                "brand:wikidata": "Q57543102",
                "brand:wikipedia": "it:Conad",
                "name": "Conad city",
                "opening_hours": "Mo-Su 08:00-20:00",
                "operator": "Conad",
                "shop": "supermarket",
                "website": "https://www.conad.it/ricerca-negozi/conad-city-via-barone-franchetti-1-32043--cortina-dampezzo--010378"
            }
        },
        {
            "type": "node",
            "id": 799257002,
            "lat": 46.1371223,
            "lon": 12.2215505,
            "timestamp": "2025-10-02T19:57:15Z",
            "version": 5,
            "changeset": 172764324,
            "user": "btcitnet",
            "uid": 22525435,
            "tags": {
                "addr:city": "Belluno",
                "addr:housenumber": "92",
                "addr:postcode": "32100",
                "addr:street": "Via Lungardo",
                "brand": "Conad City",
                "brand:wikidata": "Q57543102",
                "name": "Conad City",
                "shop": "supermarket"
            }
        },
        {
            "type": "node",
            "id": 1403161164,
            "lat": 45.8241234,
            "lon": 11.8825578,
            "timestamp": "2025-09-28T06:12:58Z",
            "version": 8,
            "changeset": 172552372,
            "user": "btcitnet",
            "uid": 22525435,
            "tags": {
                "addr:city": "Castelcucco",
                "addr:housenumber": "52",
                "addr:postcode": "31030",
                "addr:street": "Via Guglielmo Marconi",
                "brand": "Unieuro",
                "brand:wikidata": "Q4004687",
                "brand:wikipedia": "en:Unieuro",
                "name": "Unieuro",
                "operator": "Unieuro S.p.A.",
                "shop": "electronics"
            }
        },
        {
            "type": "node",
            "id": 1493446463,
            "lat": 45.7758662,
            "lon": 12.0452606,
            "timestamp": "2022-08-23T16:07:45Z",
            "version": 7,
            "changeset": 125278967,
            "user": "Panik73",
            "uid": 15979395,
            "tags": {
                "addr:city": "Montebelluna",
                "addr:housenumber": "115",
                "addr:postcode": "31044",
                "addr:street": "Corso Giuseppe Mazzini",
                "brand": "United Colors of Benetton",
                "brand:wikidata": "Q817139",
                "name": "United Colors of Benetton",
                "operator": "Benetton Group",
                "shop": "clothes",
                "short_name": "Benetton",
                "website": "https://it.benetton.com/"
            }
        },
        {
            "type": "node",
            "id": 1539203010,
            "lat": 45.8789638,
            "lon": 12.3077782,
            "timestamp": "2025-09-27T18:39:52Z",
            "version": 5,
            "changeset": 172540018,
            "user": "btcitnet",
            "uid": 22525435,
            "tags": {
                "addr:city": "Conegliano",
                "addr:postcode": "31015",
                "addr:street": "Viale Italia",
                "brand": "OVS",
                "brand:wikidata": "Q2042514",
                "brand:wikipedia": "it:OVS",
                "name": "OVS",
                "operator": "OVS",
                "shop": "clothes",
                "wheelchair": "yes"
            }
        },
        {
            "type": "node",
            "id": 1586852220,
            "lat": 45.9449136,
            "lon": 12.7263726,
            "timestamp": "2024-12-31T17:46:39Z",
            "version": 5,
            "changeset": 160843069,
            "user": "mpbin",
            "uid": 21850090,
            "tags": {
                "addr:city": "Fiume Veneto",
                "addr:postcode": "33080",
                "addr:street": "Via Maestri del Lavoro",
                "brand": "Unieuro",
                "brand:wikidata": "Q4004687",
                "brand:wikipedia": "en:Unieuro",
                "contact:email": "direzionefiumeveneto@unieuro.com",
                "contact:facebook": "https://m.facebook.com/UnieuroFiumeVeneto",
                "contact:phone": "+39 0434 560846",
                "contact:website": "www.unieuro.it",
                "name": "Unieuro",
                "opening_hours": "Mo-Fr 09:00-20:00",
                "operator": "Unieuro S.p.A.",
                "phone": "+39 0434 560846",
                "shop": "electronics",
                "wheelchair": "yes"
            }
        },
        {
            "type": "node",
            "id": 1586852268,
            "lat": 45.9444396,
            "lon": 12.7240486,
            "timestamp": "2025-09-30T08:40:18Z",
            "version": 7,
            "changeset": 172649282,
            "user": "btcitnet",
            "uid": 22525435,
            "tags": {
                "addr:city": "Fiume Veneto",
                "addr:housenumber": "42",
                "addr:postcode": "33080",
                "addr:street": "Via Maestri del Lavoro",
                "brand": "H&M",
                "brand:wikidata": "Q188326",
                "brand:wikipedia": "en:H&M",
                "check_date": "2025-06-04",
                "contact:email": "INFO.IT@hm.com",
                "contact:facebook": "https://m.facebook.com/hm",
                "contact:phone": "+39 800 599 155",
                "contact:website": "www.hm.com",
                "name": "H&M",
                "opening_hours": "Mo-Sa 09:00-20:30; Su 09:30-20:00",
                "shop": "clothes",
                "wheelchair": "yes"
            }
        },
        {
            "type": "node",
            "id": 1586852381,
            "lat": 45.9448673,
            "lon": 12.7261813,
            "timestamp": "2025-06-04T15:18:13Z",
            "version": 8,
            "changeset": 167183575,
            "user": "\u0110uro Ji\u0159\u00ed",
            "uid": 14617702,
            "tags": {
                "addr:city": "Fiume Veneto",
                "addr:postcode": "33080",
                "addr:street": "Via Maestri del Lavoro",
                "brand": "Upim",
                "brand:wikidata": "Q1414836",
                "check_date": "2025-06-04",
                "contact:email": "3832d@upim.it",
                "contact:facebook": "https://m.facebook.com/UpimItalia",
                "contact:phone": "+39 0434 564128",
                "contact:website": "www.upim.com",
                "name": "Upim",
                "opening_hours": "Mo-Sa 09:00-20:30; Su 09:30-20:00",
                "shop": "department_store",
                "wheelchair": "yes"
            }
        },
        {
            "type": "node",
            "id": 1586852383,
            "lat": 45.9453415,
            "lon": 12.7247094,
            "timestamp": "2025-10-05T15:24:25Z",
            "version": 9,
            "changeset": 172873237,
            "user": "btcitnet",
            "uid": 22525435,
            "tags": {
                "addr:city": "Fiume Veneto",
                "addr:postcode": "33080",
                "addr:street": "Via Maestri del Lavoro",
                "brand": "Guess",
                "brand:wikidata": "Q2470307",
                "name": "Guess",
                "shop": "clothes",
                "wheelchair": "yes"
            }
        },
        {
            "type": "node",
            "id": 1748853004,
            "lat": 45.8788895,
            "lon": 12.3073428,
            "timestamp": "2024-12-31T17:49:16Z",
            "version": 5,
            "changeset": 160843146,
            "user": "mpbin",
            "uid": 21850090,
            "tags": {
                "addr:city": "Conegliano",
                "addr:housenumber": "207",
                "addr:postcode": "31015",
                "addr:street": "Viale Italia",
                "brand": "Unieuro",
                "brand:wikidata": "Q4004687",
                "brand:wikipedia": "en:Unieuro",
                "check_date": "2023-07-14",
                "name": "Unieuro",
                "operator": "Unieuro S.p.A.",
                "shop": "electronics",
                "wheelchair": "yes"
            }
        },
        {
            "type": "node",
            "id": 1801853005,
            "lat": 45.8693292,
            "lon": 11.9690372,
            "timestamp": "2025-09-28T06:15:00Z",
            "version": 6,
            "changeset": 172552411,
            "user": "btcitnet",
            "uid": 22525435,
            "tags": {
                "addr:city": "Pederobba",
                "addr:housenumber": "45",
                "addr:postcode": "31040",
                "addr:street": "Via Feltrina",
                "brand": "Unieuro",
                "brand:wikidata": "Q4004687",
                "brand:wikipedia": "en:Unieuro",
                "name": "Unieuro",
                "operator": "Unieuro S.p.A.",
                "shop": "electronics"
            }
        },
        {
            "type": "node",
            "id": 1993363709,
            "lat": 46.1815783,
            "lon": 12.2735231,
            "timestamp": "2021-08-06T14:23:11Z",
            "version": 6,
            "changeset": 109266012,
            "user": "diegomodolo",
            "uid": 8109808,
            "tags": {
                "addr:city": "Ponte nelle Alpi",
                "addr:housenumber": "41",
                "addr:postcode": "32014",
                "addr:street": "Viale Dolomiti",
                "branch": "Idea Musica",
                "brand": "Expert",
                "brand:wikidata": "Q680990",
                "brand:wikipedia": "en:Expert (company)",
                "name": "Expert",
                "shop": "electronics"
            }
        },
        {
            "type": "node",
            "id": 2319028355,
            "lat": 46.0860694,
            "lon": 11.9884501,
            "timestamp": "2025-10-02T19:58:26Z",
            "version": 6,
            "changeset": 172764363,
            "user": "btcitnet",
            "uid": 22525435,
            "tags": {
                "addr:city": "Cesiomaggiore",
                "addr:housenumber": "26",
                "addr:postcode": "32030",
                "addr:street": "Piazza Commercio",
                "brand": "Conad City",
                "brand:wikidata": "Q57543102",
                "name": "Conad City",
                "shop": "supermarket",
                "wheelchair": "limited"
            }
        },
        {
            "type": "node",
            "id": 2721631644,
            "lat": 46.5379058,
            "lon": 12.1360943,
            "timestamp": "2025-10-05T16:04:30Z",
            "version": 4,
            "changeset": 172875008,
            "user": "btcitnet",
            "uid": 22525435,
            "tags": {
                "addr:city": "Cortina d'Ampezzo",
                "addr:postcode": "32043",
                "brand": "Guess",
                "brand:wikidata": "Q2470307",
                "name": "Guess",
                "shop": "clothes"
            }
        },
        {
            "type": "node",
            "id": 2806097588,
            "lat": 46.0166697,
            "lon": 11.9043621,
            "timestamp": "2025-05-24T11:48:24Z",
            "version": 4,
            "changeset": 166693287,
            "user": "Enrico21",
            "uid": 2816924,
            "tags": {
                "addr:city": "Feltre",
                "addr:housenumber": "9",
                "addr:postcode": "32032",
                "addr:street": "Via 31 Ottobre",
                "branch": "0 12",
                "brand": "United Colors of Benetton",
                "brand:wikidata": "Q817139",
                "clothes": "children",
                "email": "012fel@melostore.it",
                "name": "Stefanel",
                "shop": "clothes",
                "short_name": "Benetton"
            }
        },
        {
            "type": "node",
            "id": 2806097596,
            "lat": 46.0164143,
            "lon": 11.9047747,
            "timestamp": "2025-01-03T16:04:00Z",
            "version": 3,
            "changeset": 160955688,
            "user": "mpbin",
            "uid": 21850090,
            "tags": {
                "addr:city": "Feltre",
                "addr:housenumber": "21",
                "addr:postcode": "32032",
                "addr:street": "Largo Panfilo Castaldi",
                "brand": "OVS",
                "brand:wikidata": "Q2042514",
                "contact:email": "249f@ovs.it",
                "contact:phone": "+39 0439 83500",
                "contact:website": "https://www.ovs.it/it/it/stores/italia/veneto/belluno/ovs-feltre",
                "name": "OVS",
                "operator": "OVS",
                "shop": "clothes"
            }
        },
        {
            "type": "node",
            "id": 3314465752,
            "lat": 45.95532,
            "lon": 12.50348,
            "timestamp": "2023-09-09T14:21:13Z",
            "version": 5,
            "changeset": 141026233,
            "user": "Mateusz Konieczny - bot account",
            "uid": 3199858,
            "tags": {
                "addr:city": "Sacile",
                "addr:country": "IT",
                "addr:housenumber": "14",
                "addr:postcode": "33077",
                "addr:street": "Via Camillo Benso Conte di Cavour",
                "branch": "Supermercati",
                "brand": "Spar",
                "brand:wikidata": "Q610492",
                "brand:wikipedia": "en:SPAR (retailer)",
                "name": "Despar",
                "payment:cash": "yes",
                "payment:coins": "yes",
                "shop": "supermarket"
            }
        },
        {
            "type": "node",
            "id": 3314477286,
            "lat": 45.96014,
            "lon": 12.51388,
            "timestamp": "2022-03-31T16:08:33Z",
            "version": 3,
            "changeset": 119167974,
            "user": "tiziodcaio",
            "uid": 12266546,
            "tags": {
                "addr:city": "Sacile",
                "addr:country": "IT",
                "addr:housenumber": "44",
                "addr:postcode": "33077",
                "addr:street": "Viale Giacomo Matteotti",
                "brand": "Expert",
                "brand:wikidata": "Q680990",
                "brand:wikipedia": "en:Expert (company)",
                "name": "Expert",
                "shop": "electronics"
            }
        },
        {
            "type": "node",
            "id": 3641023406,
            "lat": 46.1355652,
            "lon": 12.2001648,
            "timestamp": "2025-10-02T19:59:22Z",
            "version": 4,
            "changeset": 172764388,
            "user": "btcitnet",
            "uid": 22525435,
            "tags": {
                "addr:city": "Belluno",
                "addr:housenumber": "254",
                "addr:postcode": "32100",
                "addr:street": "Via Feltre",
                "brand": "Expert",
                "brand:wikidata": "Q680990",
                "name": "Expert",
                "shop": "electronics"
            }
        },
        {
            "type": "node",
            "id": 3741343756,
            "lat": 46.08631,
            "lon": 12.6526404,
            "timestamp": "2025-09-29T11:04:33Z",
            "version": 4,
            "changeset": 172606945,
            "user": "btcitnet",
            "uid": 22525435,
            "tags": {
                "addr:city": "Montereale Valcellina",
                "addr:postcode": "33086",
                "addr:street": "Via San Martino",
                "amenity": "fuel",
                "brand": "Tamoil",
                "brand:wikidata": "Q706793",
                "brand:wikipedia": "en:Tamoil",
                "fuel:diesel": "yes",
                "fuel:lpg": "no",
                "fuel:octane_95": "yes",
                "name": "Tamoil",
                "operator": "Tamoil",
                "survey:date": "2020-01-22"
            }
        },
        {
            "type": "node",
            "id": 3765078134,
            "lat": 45.9571189,
            "lon": 12.6594887,
            "timestamp": "2024-10-03T08:13:48Z",
            "version": 4,
            "changeset": 157407250,
            "user": "Flight777",
            "uid": 9925732,
            "tags": {
                "addr:city": "Pordenone",
                "addr:housenumber": "21h",
                "addr:postcode": "33170",
                "addr:street": "Corso Vittorio Emanuele Secondo",
                "brand": "Intimissimi",
                "brand:wikidata": "Q305404",
                "clothes": "underwear",
                "level": "0",
                "name": "Intimissimi",
                "shop": "clothes",
                "wheelchair": "no"
            }
        },
        {
            "type": "node",
            "id": 3765116375,
            "lat": 45.9582864,
            "lon": 12.6622506,
            "timestamp": "2024-07-20T20:53:38Z",
            "version": 7,
            "changeset": 154195679,
            "user": "mauropili",
            "uid": 1496865,
            "tags": {
                "addr:city": "Pordenone",
                "addr:housenumber": "5",
                "addr:postcode": "33170",
                "addr:street": "Piazzetta dei Domenicani",
                "check_date:currency:XBT": "2023-03-03",
                "contact:facebook": "https://www.facebook.com/FrancoPadovanZETA",
                "contact:linkedin": "https://www.linkedin.com/in/franco-padovan-0b232b107/",
                "currency:XBT": "yes",
                "name": "Zeta Gold Banco Metalli",
                "shop": "gold_buyer",
                "website": "https://www.francopadovan.com/"
            }
        },
        {
            "type": "node",
            "id": 3857674670,
            "lat": 46.3918865,
            "lon": 12.2915312,
            "timestamp": "2023-12-10T17:25:40Z",
            "version": 3,
            "changeset": 144972065,
            "user": "szydzio",
            "uid": 2313574,
            "tags": {
                "addr:city": "Cibiana di Cadore",
                "addr:postcode": "32040",
                "brand": "Conad",
                "brand:wikidata": "Q639075",
                "name": "Conad",
                "opening_hours": "Mo,Th,Fr,Sa 08:30-13:00,16:30-18:30; Tu,We 08:30-13:00; Su 08:30-13:00",
                "operator": "Cooperativa di San Vito",
                "shop": "supermarket"
            }
        },
        {
            "type": "node",
            "id": 3887586481,
            "lat": 46.1693851,
            "lon": 12.7043867,
            "timestamp": "2024-02-19T21:13:40Z",
            "version": 2,
            "changeset": 147668418,
            "user": "Chiarant",
            "uid": 18452174,
            "tags": {
                "addr:city": "Maniago",
                "addr:housenumber": "2",
                "addr:postcode": "33085",
                "addr:street": "Via Alessandro Manzoni",
                "check_date": "2024-02-19",
                "currency:XBT": "yes",
                "email": "info@valbershop.it",
                "name": "Valber Shop",
                "phone": "+39 0427 731290",
                "shop": "clothes",
                "website": "https://www.valbershop.it/"
            }
        },
        {
            "type": "node",
            "id": 3991679557,
            "lat": 46.0223691,
            "lon": 11.9129992,
            "timestamp": "2025-01-01T17:54:43Z",
            "version": 4,
            "changeset": 160878925,
            "user": "mpbin",
            "uid": 21850090,
            "tags": {
                "addr:city": "Feltre",
                "addr:housenumber": "9",
                "addr:postcode": "32032",
                "addr:street": "Vicolo Uniera",
                "brand": "Unieuro",
                "brand:wikidata": "Q4004687",
                "brand:wikipedia": "en:Unieuro",
                "name": "Unieuro",
                "opening_hours": "Mo-Sa 9:30-12:30,15:30-19:30",
                "operator": "Unieuro S.p.A.",
                "phone": "+390439840670",
                "shop": "electronics",
                "website": "https://www.unieuro.it/online/negozi/Unieuro-Feltre"
            }
        },
        {
            "type": "node",
            "id": 4217350899,
            "lat": 45.8859516,
            "lon": 12.2981284,
            "timestamp": "2025-10-02T20:00:29Z",
            "version": 4,
            "changeset": 172764415,
            "user": "btcitnet",
            "uid": 22525435,
            "tags": {
                "addr:city": "Conegliano",
                "addr:housenumber": "5/A",
                "addr:postcode": "31015",
                "addr:street": "Viale Giosu\u00e8 Carducci",
                "brand": "Calzedonia",
                "brand:wikidata": "Q1027874",
                "name": "Calzedonia",
                "shop": "clothes"
            }
        },
        {
            "type": "node",
            "id": 4217920989,
            "lat": 45.8855203,
            "lon": 12.2956204,
            "timestamp": "2025-10-02T20:01:24Z",
            "version": 5,
            "changeset": 172764443,
            "user": "btcitnet",
            "uid": 22525435,
            "tags": {
                "addr:city": "Conegliano",
                "addr:housenumber": "1",
                "addr:postcode": "31015",
                "addr:street": "Via Cavour",
                "brand": "Spar",
                "brand:wikidata": "Q610492",
                "name": "Despar",
                "shop": "supermarket"
            }
        },
        {
            "type": "node",
            "id": 4262211224,
            "lat": 45.8755934,
            "lon": 12.283231,
            "timestamp": "2025-10-02T20:02:23Z",
            "version": 5,
            "changeset": 172764479,
            "user": "btcitnet",
            "uid": 22525435,
            "tags": {
                "addr:city": "Conegliano",
                "addr:housenumber": "12",
                "addr:postcode": "31015",
                "addr:street": "Viale Venezia",
                "brand": "PittaRosso",
                "brand:wikidata": "Q105643314",
                "name": "PittaRosso",
                "shop": "shoes",
                "wheelchair": "yes"
            }
        },
        {
            "type": "node",
            "id": 4273854674,
            "lat": 45.9444215,
            "lon": 12.4638597,
            "timestamp": "2025-01-03T16:23:00Z",
            "version": 6,
            "changeset": 160956497,
            "user": "mpbin",
            "uid": 21850090,
            "tags": {
                "addr:city": "Sacile",
                "addr:housenumber": "1",
                "addr:postcode": "33077",
                "addr:street": "Viale Europa",
                "brand": "OVS",
                "brand:wikidata": "Q2042514",
                "brand:wikipedia": "en:Decathlon (retailer)",
                "name": "OVS",
                "opening_hours": "Mo-Su 09:00-20:00",
                "operator": "OVS",
                "shop": "clothes"
            }
        },
        {
            "type": "node",
            "id": 4317222376,
            "lat": 45.8796415,
            "lon": 12.3162104,
            "timestamp": "2025-10-02T20:03:23Z",
            "version": 5,
            "changeset": 172764508,
            "user": "btcitnet",
            "uid": 22525435,
            "tags": {
                "addr:city": "Conegliano",
                "addr:housenumber": "25",
                "addr:postcode": "31015",
                "addr:street": "Via San Giuseppe",
                "brand": "H&M",
                "brand:wikidata": "Q188326",
                "brand:wikipedia": "en:H&M",
                "name": "H&M",
                "shop": "clothes",
                "wheelchair": "yes"
            }
        },
        {
            "type": "node",
            "id": 5156018871,
            "lat": 45.7577506,
            "lon": 12.2489123,
            "timestamp": "2025-10-02T20:04:48Z",
            "version": 3,
            "changeset": 172764547,
            "user": "btcitnet",
            "uid": 22525435,
            "tags": {
                "addr:city": "Visnadello",
                "addr:postcode": "31020",
                "addr:street": "Via Campagnola",
                "brand": "Spar",
                "brand:wikidata": "Q610492",
                "brand:wikipedia": "en:Spar (retailer)",
                "name": "Despar",
                "shop": "supermarket"
            }
        },
        {
            "type": "node",
            "id": 5333027525,
            "lat": 45.780744,
            "lon": 11.889103,
            "timestamp": "2023-07-18T22:00:14Z",
            "version": 4,
            "changeset": 138689431,
            "user": "saunter",
            "uid": 10396321,
            "tags": {
                "addr:city": "Fonte",
                "addr:housenumber": "53",
                "addr:postcode": "31010",
                "addr:street": "Via delle Industrie",
                "check_date:currency:XBT": "2023-07-18",
                "craft": "carpenter",
                "currency:XBT": "yes",
                "description": "Produzione di mobili e arredamenti di alta gamma, anche personalizzati.",
                "email": "faber@fabermobili.com",
                "name": "Faber Mobili srl",
                "phone": "+39 0423410000",
                "website": "https://www.fabermobili.com/"
            }
        },
        {
            "type": "node",
            "id": 5346573655,
            "lat": 45.7930713,
            "lon": 12.4866055,
            "timestamp": "2025-01-01T18:38:34Z",
            "version": 3,
            "changeset": 160880282,
            "user": "mpbin",
            "uid": 21850090,
            "tags": {
                "addr:city": "Oderzo",
                "addr:postcode": "31046",
                "addr:street": "Via Maestri del Commercio",
                "brand": "Unieuro",
                "brand:wikidata": "Q4004687",
                "brand:wikipedia": "en:Unieuro",
                "name": "Unieuro",
                "operator": "Unieuro S.p.A.",
                "shop": "electronics"
            }
        },
        {
            "type": "node",
            "id": 5414009056,
            "lat": 46.0696252,
            "lon": 11.8237276,
            "timestamp": "2024-10-05T07:23:30Z",
            "version": 6,
            "changeset": 157486996,
            "user": "mpbin",
            "uid": 21850090,
            "tags": {
                "addr:city": "Sovramonte",
                "addr:housenumber": "84",
                "addr:postcode": "32030",
                "addr:street": "Via Aune",
                "check_date:currency:XBT": "2023-07-19",
                "contact:facebook": "https://www.facebook.com/sosinformaticatech",
                "contact:instagram": "https://www.instagram.com/sosinformaticabl/",
                "contact:linkedin": "https://www.linkedin.com/company/sosinformatica",
                "contact:mobile": "+39 342 3944 263",
                "currency:XBT": "yes",
                "description": "Laboratorio specializzato nella riparazione di Pc, Notebook, Tablet e Smartphone.Recupero dati da qualsiasi dispositivo, laboratorio allestito con camera bianca.",
                "ele": "900",
                "email": "info@sosinformatica.tech",
                "name": "S.o.S. informatica di De Bortoli Antonio",
                "opening_hours": "Mo-Fr 09:30-12:30,15:00-17:30",
                "payment:coins": "yes",
                "payment:credit_cards": "yes",
                "payment:maestro": "yes",
                "payment:mastercard": "yes",
                "payment:visa": "yes",
                "payment:visa_electron": "yes",
                "phone": "+3904391990229",
                "shop": "computer",
                "website": "https://www.sosinformatica.tech/"
            }
        },
        {
            "type": "node",
            "id": 5715158024,
            "lat": 46.5370728,
            "lon": 12.1380468,
            "timestamp": "2025-10-11T07:36:32Z",
            "version": 4,
            "changeset": 173124483,
            "user": "btcitnet",
            "uid": 22525435,
            "tags": {
                "addr:city": "Cortina d'Ampezzo",
                "addr:housenumber": "50/A",
                "addr:postcode": "32043",
                "addr:street": "Corso Italia",
                "brand": "United Colors of Benetton",
                "brand:wikidata": "Q817139",
                "name": "United Colors of Benetton",
                "opening_hours": "Mo-Su 10:00-19:30",
                "shop": "clothes",
                "short_name": "Benetton"
            }
        },
        {
            "type": "node",
            "id": 5770912521,
            "lat": 45.9893075,
            "lon": 12.295699,
            "timestamp": "2025-09-07T00:10:30Z",
            "version": 7,
            "changeset": 171563895,
            "user": "ezio_m",
            "uid": 2795300,
            "tags": {
                "addr:city": "Vittorio Veneto",
                "addr:housenumber": "2",
                "addr:postcode": "31029",
                "addr:street": "Largo Felice Cavallotti",
                "check_date:currency:XBT": "2023-07-19",
                "currency:XBT": "yes",
                "description": "Rivendita sali e tabacchi, articoli da fumo e lotto.",
                "email": "sasakiperin@gmail.com",
                "name": "Tabaccheria al Quadrilatero",
                "shop": "tobacco",
                "website": "https://www.facebook.com/tabaccheriaquadrilatero"
            }
        },
        {
            "type": "node",
            "id": 5851831557,
            "lat": 45.9299326,
            "lon": 12.3761722,
            "timestamp": "2025-10-17T20:34:41Z",
            "version": 9,
            "changeset": 173427866,
            "user": "btcitnet",
            "uid": 22525435,
            "tags": {
                "addr:city": "Godega di Sant'Urbano",
                "addr:postcode": "31010",
                "addr:street": "Via Colombo",
                "amenity": "fuel",
                "brand": "Tamoil",
                "brand:wikidata": "Q706793",
                "changing_table": "no",
                "compressed_air": "yes",
                "name": "Tamoil",
                "opening_hours": "24/7",
                "operator": "Tocchet Moreno",
                "ref:mise": "5747",
                "self_service": "yes",
                "valves": "schrader",
                "wheelchair": "yes"
            }
        },
        {
            "type": "node",
            "id": 5851837331,
            "lat": 45.8041454,
            "lon": 12.2513638,
            "timestamp": "2025-10-16T15:15:00Z",
            "version": 3,
            "changeset": 173371546,
            "user": "btcitnet",
            "uid": 22525435,
            "tags": {
                "addr:city": "Nervesa della Battaglia",
                "amenity": "fuel",
                "brand": "Tamoil",
                "brand:wikidata": "Q706793",
                "name": "Tamoil",
                "operator": "Daniel Fabio e Daniel Michele & C. - S.N.C.",
                "ref:mise": "32454"
            }
        },
        {
            "type": "node",
            "id": 5851842304,
            "lat": 46.0678896,
            "lon": 11.6124172,
            "timestamp": "2022-05-20T20:24:09Z",
            "version": 2,
            "changeset": 121259871,
            "user": "ivanbranco",
            "uid": 11220113,
            "tags": {
                "amenity": "fuel",
                "brand": "Tamoil",
                "brand:wikidata": "Q706793",
                "name": "Tamoil",
                "operator": "Mascarello Gino",
                "ref:mise": "23533"
            }
        },
        {
            "type": "node",
            "id": 6477573230,
            "lat": 46.0489313,
            "lon": 12.0524223,
            "timestamp": "2024-04-17T10:38:51Z",
            "version": 4,
            "changeset": 150122040,
            "user": "yhic4uw",
            "uid": 2104834,
            "tags": {
                "addr:city": "Mel",
                "addr:housenumber": "65",
                "addr:postcode": "32026",
                "addr:street": "Via Campo San Pietro",
                "check_date": "2024-04-17",
                "currency:XBT": "yes",
                "email": "info@ramcomputers.org",
                "name": "RAM Computers",
                "payment:bitcoin:operator": "inbitcoin.it",
                "phone": "+390437552344",
                "shop": "computer",
                "website": "https://ramcomputers.org"
            }
        },
        {
            "type": "node",
            "id": 6528179520,
            "lat": 45.9068785,
            "lon": 12.3391302,
            "timestamp": "2025-09-26T09:13:16Z",
            "version": 5,
            "changeset": 172474985,
            "user": "btcitnet",
            "uid": 22525435,
            "tags": {
                "addr:city": "San Martino",
                "addr:housenumber": "86",
                "addr:postcode": "31020",
                "addr:street": "Via Nazionale",
                "brand": "MediaWorld",
                "brand:wikidata": "Q2381223",
                "name": "MediaWorld",
                "operator": "MediaMarket S.p.A.",
                "shop": "electronics"
            }
        },
        {
            "type": "node",
            "id": 6528179526,
            "lat": 45.9053929,
            "lon": 12.3401467,
            "timestamp": "2025-09-28T04:22:00Z",
            "version": 5,
            "changeset": 172550879,
            "user": "b-jazz-bot",
            "uid": 9451067,
            "tags": {
                "addr:city": "San Martino",
                "addr:housenumber": "19",
                "addr:postcode": "31020",
                "addr:street": "Via Villa Liccer",
                "brand": "Decathlon",
                "brand:wikidata": "Q509349",
                "brand:wikipedia": "en:Decathlon Group",
                "name": "Decathlon",
                "opening_hours": "Mo-Su 09:00-20:00",
                "operator": "Decathlon",
                "phone": "+39 0438 167 3641",
                "shop": "sports",
                "website": "https://www.decathlon.it/"
            }
        },
        {
            "type": "node",
            "id": 6897820650,
            "lat": 45.9053036,
            "lon": 12.3401004,
            "timestamp": "2025-09-29T09:49:09Z",
            "version": 3,
            "changeset": 172603584,
            "user": "btcitnet",
            "uid": 22525435,
            "tags": {
                "addr:city": "San Martino",
                "addr:housenumber": "19",
                "addr:postcode": "31020",
                "addr:street": "Via Villa Liccer",
                "brand": "Decathlon",
                "brand:wikidata": "Q509349",
                "brand:wikipedia": "it:Decathlon",
                "emergency": "defibrillator",
                "indoor": "yes",
                "name": "Decathlon",
                "operator": "Decathlon"
            }
        },
        {
            "type": "node",
            "id": 7079801464,
            "lat": 46.0166108,
            "lon": 11.9053987,
            "timestamp": "2022-06-02T19:41:06Z",
            "version": 3,
            "changeset": 121866274,
            "user": "Flight777",
            "uid": 9925732,
            "tags": {
                "brand": "United Colors of Benetton",
                "brand:wikidata": "Q817139",
                "email": "benfel@melostore.it",
                "mobile": "+393386290661",
                "name": "United Colors of Benetton",
                "opening_hours": "Mo-Sa 15:30 - 19:00;Tu-Sa 09:30 - 12:30",
                "phone": "+39043980187",
                "shop": "clothes",
                "short_name": "Benetton",
                "website": "https://melostore.it/benfel"
            }
        },
        {
            "type": "node",
            "id": 7079817894,
            "lat": 46.0176565,
            "lon": 11.9031526,
            "timestamp": "2022-06-02T19:40:10Z",
            "version": 2,
            "changeset": 121866248,
            "user": "Flight777",
            "uid": 9925732,
            "tags": {
                "branch": "intimo",
                "brand": "United Colors of Benetton",
                "brand:wikidata": "Q817139",
                "name": "United Colors of Benetton",
                "shop": "clothes",
                "short_name": "Benetton"
            }
        },
        {
            "type": "node",
            "id": 7179860059,
            "lat": 45.8782928,
            "lon": 12.3141316,
            "timestamp": "2025-10-23T08:01:01Z",
            "version": 5,
            "changeset": 173660383,
            "user": "btcitnet",
            "uid": 22525435,
            "tags": {
                "addr:city": "Conegliano",
                "addr:housenumber": "25",
                "addr:postcode": "31015",
                "addr:street": "Via San Giuseppe",
                "brand": "Kasanova",
                "brand:wikidata": "Q116214505",
                "name": "Kasanova",
                "shop": "houseware",
                "wheelchair": "yes"
            }
        },
        {
            "type": "node",
            "id": 7179860064,
            "lat": 45.8785247,
            "lon": 12.3147582,
            "timestamp": "2025-10-23T18:33:58Z",
            "version": 5,
            "changeset": 173687839,
            "user": "btcitnet",
            "uid": 22525435,
            "tags": {
                "addr:city": "Conegliano",
                "addr:housenumber": "25",
                "addr:postcode": "31015",
                "addr:street": "Via San Giuseppe",
                "brand": "Bottega Verde",
                "brand:wikidata": "Q894870",
                "name": "Bottega Verde",
                "phone": "+39 3351973081",
                "shop": "cosmetics",
                "wheelchair": "yes"
            }
        },
        {
            "type": "node",
            "id": 7179860067,
            "lat": 45.8787735,
            "lon": 12.3149456,
            "timestamp": "2025-10-27T18:23:20Z",
            "version": 5,
            "changeset": 173851865,
            "user": "btcitnet",
            "uid": 22525435,
            "tags": {
                "addr:city": "Conegliano",
                "addr:postcode": "31015",
                "addr:street": "Via San Giuseppe",
                "addr:unit": "13",
                "brand": "Intimissimi",
                "brand:wikidata": "Q305404",
                "brand:wikipedia": "en:Intimissimi",
                "clothes": "underwear",
                "name": "Intimissimi",
                "opening_hours": "Mo-Su 09:00-20:30",
                "shop": "clothes",
                "wheelchair": "yes"
            }
        },
        {
            "type": "node",
            "id": 7179860072,
            "lat": 45.8791623,
            "lon": 12.3154492,
            "timestamp": "2025-10-27T18:25:08Z",
            "version": 6,
            "changeset": 173851934,
            "user": "btcitnet",
            "uid": 22525435,
            "tags": {
                "addr:city": "Conegliano",
                "addr:housenumber": "25",
                "addr:postcode": "31015",
                "addr:street": "Via San Giuseppe",
                "brand": "Tezenis",
                "brand:wikidata": "Q28056374",
                "clothes": "women;underwear;swimwear;men;children",
                "name": "Tezenis",
                "phone": "+39 0438 336705",
                "shop": "clothes",
                "wheelchair": "yes"
            }
        },
        {
            "type": "node",
            "id": 7179860073,
            "lat": 45.8792368,
            "lon": 12.315538,
            "timestamp": "2025-10-16T11:11:19Z",
            "version": 6,
            "changeset": 173360351,
            "user": "btcitnet",
            "uid": 22525435,
            "tags": {
                "addr:city": "Conegliano",
                "addr:housenumber": "25",
                "addr:postcode": "31015",
                "addr:street": "Via San Giuseppe",
                "brand": "Foot Locker",
                "brand:wikidata": "Q63335",
                "brand:wikipedia": "en:Foot Locker",
                "name": "Foot Locker",
                "shop": "shoes",
                "wheelchair": "yes"
            }
        },
        {
            "type": "node",
            "id": 8432670707,
            "lat": 46.1390371,
            "lon": 12.2182308,
            "timestamp": "2025-04-29T09:42:14Z",
            "version": 3,
            "changeset": 165583329,
            "user": "diegomodolo",
            "uid": 8109808,
            "tags": {
                "brand": "United Colors of Benetton",
                "brand:wikidata": "Q817139",
                "brand:wikipedia": "en:Benetton Group",
                "disused:shop": "yes",
                "name": "United Colors of Benetton",
                "short_name": "Benetton"
            }
        },
        {
            "type": "node",
            "id": 8434840125,
            "lat": 46.1397505,
            "lon": 12.2168317,
            "timestamp": "2025-10-17T19:20:43Z",
            "version": 2,
            "changeset": 173425289,
            "user": "btcitnet",
            "uid": 22525435,
            "tags": {
                "addr:city": "Belluno",
                "addr:housenumber": "56",
                "addr:postcode": "32100",
                "addr:street": "Piazza dei Martiri",
                "brand": "OVS",
                "brand:wikidata": "Q2042514",
                "brand:wikipedia": "en:OVS (company)",
                "name": "OVS",
                "shop": "clothes"
            }
        },
        {
            "type": "node",
            "id": 8434840129,
            "lat": 46.139748,
            "lon": 12.2169508,
            "timestamp": "2025-10-16T09:44:35Z",
            "version": 2,
            "changeset": 173356642,
            "user": "btcitnet",
            "uid": 22525435,
            "tags": {
                "addr:city": "Belluno",
                "addr:housenumber": "59",
                "addr:place": "Piazza dei Martiri",
                "addr:postcode": "32100",
                "brand": "Calzedonia",
                "brand:wikidata": "Q1027874",
                "brand:wikipedia": "en:Calzedonia",
                "name": "Calzedonia",
                "shop": "clothes"
            }
        },
        {
            "type": "node",
            "id": 8434840130,
            "lat": 46.139748,
            "lon": 12.2170885,
            "timestamp": "2025-10-17T19:20:03Z",
            "version": 2,
            "changeset": 173425274,
            "user": "btcitnet",
            "uid": 22525435,
            "tags": {
                "addr:city": "Belluno",
                "addr:housenumber": "56",
                "addr:postcode": "32100",
                "addr:street": "Piazza dei Martiri",
                "brand": "OVS",
                "brand:wikidata": "Q2042514",
                "brand:wikipedia": "en:OVS (company)",
                "name": "OVS",
                "shop": "clothes"
            }
        },
        {
            "type": "node",
            "id": 8435109507,
            "lat": 46.1395373,
            "lon": 12.2147132,
            "timestamp": "2025-10-27T18:31:25Z",
            "version": 2,
            "changeset": 173852172,
            "user": "btcitnet",
            "uid": 22525435,
            "tags": {
                "addr:city": "Belluno",
                "addr:housenumber": "2",
                "addr:postcode": "32100",
                "addr:street": "Via Giacomo Matteotti",
                "brand": "Intimissimi",
                "brand:wikidata": "Q305404",
                "brand:wikipedia": "en:Intimissimi",
                "clothes": "underwear",
                "name": "Intimissimi",
                "shop": "clothes"
            }
        },
        {
            "type": "node",
            "id": 8445710586,
            "lat": 46.181508,
            "lon": 12.2734622,
            "timestamp": "2024-03-22T09:36:37Z",
            "version": 2,
            "changeset": 149003379,
            "user": "DnaX",
            "uid": 69259,
            "tags": {
                "addr:city": "Ponte nelle Alpi",
                "addr:housenumber": "41",
                "addr:postcode": "32014",
                "addr:street": "Viale Dolomiti",
                "brand": "Kasanova",
                "brand:wikidata": "Q116214505",
                "name": "Kasanova",
                "shop": "houseware"
            }
        },
        {
            "type": "node",
            "id": 8476827173,
            "lat": 46.1381825,
            "lon": 12.2187238,
            "timestamp": "2025-10-27T18:35:44Z",
            "version": 2,
            "changeset": 173852383,
            "user": "btcitnet",
            "uid": 22525435,
            "tags": {
                "addr:city": "Belluno",
                "addr:housenumber": "15",
                "addr:postcode": "32100",
                "addr:street": "Via Mezzaterra",
                "brand": "Mondadori",
                "brand:wikidata": "Q85355",
                "brand:wikipedia": "en:Arnoldo Mondadori Editore",
                "name": "Mondadori",
                "phone": "+39 320 489 3942",
                "shop": "books"
            }
        },
        {
            "type": "node",
            "id": 8476853958,
            "lat": 46.1393646,
            "lon": 12.2173716,
            "timestamp": "2025-10-10T21:41:31Z",
            "version": 2,
            "changeset": 173114192,
            "user": "btcitnet",
            "uid": 22525435,
            "tags": {
                "addr:city": "Belluno",
                "addr:housenumber": "2",
                "addr:postcode": "32100",
                "addr:street": "Piazza dei Martiri",
                "brand": "Tezenis",
                "brand:wikidata": "Q28056374",
                "name": "Tezenis",
                "shop": "clothes"
            }
        },
        {
            "type": "node",
            "id": 8522204442,
            "lat": 46.1657044,
            "lon": 12.2439482,
            "timestamp": "2025-01-01T20:23:59Z",
            "version": 2,
            "changeset": 160884120,
            "user": "mpbin",
            "uid": 21850090,
            "tags": {
                "addr:city": "Belluno",
                "addr:housenumber": "1",
                "addr:postcode": "32100",
                "addr:street": "Via Valerio da Pos",
                "brand": "Unieuro",
                "brand:wikidata": "Q4004687",
                "brand:wikipedia": "en:Unieuro",
                "name": "Unieuro",
                "operator": "Unieuro S.p.A.",
                "shop": "electronics"
            }
        },
        {
            "type": "node",
            "id": 8522210465,
            "lat": 46.1813546,
            "lon": 12.2750037,
            "timestamp": "2025-01-03T09:50:31Z",
            "version": 5,
            "changeset": 160940423,
            "user": "mpbin",
            "uid": 21850090,
            "tags": {
                "addr:city": "Ponte nelle Alpi",
                "addr:housenumber": "37",
                "addr:postcode": "32014",
                "addr:street": "Viale Dolomiti",
                "brand": "Decathlon",
                "brand:wikidata": "Q509349",
                "brand:wikipedia": "en:Decathlon (retailer)",
                "name": "Decathlon",
                "opening_hours": "Mo-Su 09:00-19:30",
                "operator": "Decathlon",
                "phone": "+39 0437 1842007",
                "shop": "sports"
            }
        },
        {
            "type": "node",
            "id": 9100108917,
            "lat": 46.5507931,
            "lon": 12.4436928,
            "timestamp": "2025-10-27T10:04:33Z",
            "version": 4,
            "changeset": 173829715,
            "user": "szydzio",
            "uid": 2313574,
            "tags": {
                "addr:city": "Auronzo di Cadore",
                "addr:housenumber": "6",
                "addr:postcode": "32041",
                "addr:street": "Via Roma",
                "brand": "Spar",
                "brand:wikidata": "Q610492",
                "name": "Despar",
                "phone": "+39 04359495",
                "shop": "supermarket"
            }
        },
        {
            "type": "node",
            "id": 9482944523,
            "lat": 46.0171285,
            "lon": 11.9043698,
            "timestamp": "2025-10-23T18:40:24Z",
            "version": 3,
            "changeset": 173688065,
            "user": "btcitnet",
            "uid": 22525435,
            "tags": {
                "addr:city": "Villaga",
                "addr:housenumber": "32",
                "addr:postcode": "32032",
                "addr:street": "Via 31 Ottobre",
                "brand": "Bottega Verde",
                "brand:wikidata": "Q894870",
                "name": "Bottega Verde",
                "phone": "+39 04391910324",
                "shop": "cosmetics"
            }
        },
        {
            "type": "node",
            "id": 9721332815,
            "lat": 45.9500323,
            "lon": 12.4836628,
            "timestamp": "2022-05-06T19:42:09Z",
            "version": 1,
            "changeset": 120644902,
            "user": "tiziodcaio",
            "uid": 12266546,
            "tags": {
                "brand": "Expert",
                "brand:wikidata": "Q680990",
                "name": "Expert",
                "shop": "electronics"
            }
        },
        {
            "type": "node",
            "id": 10077434567,
            "lat": 45.774883,
            "lon": 12.5926167,
            "timestamp": "2025-01-03T16:59:50Z",
            "version": 2,
            "changeset": 160957872,
            "user": "mpbin",
            "uid": 21850090,
            "tags": {
                "addr:city": "Motta di Livenza",
                "addr:housenumber": "11",
                "addr:postcode": "31045",
                "addr:street": "Via Milano",
                "brand": "OVS",
                "brand:wikidata": "Q2042514",
                "name": "OVS",
                "operator": "OVS",
                "shop": "clothes"
            }
        },
        {
            "type": "node",
            "id": 10077434569,
            "lat": 45.7750048,
            "lon": 12.5917277,
            "timestamp": "2022-10-05T13:10:06Z",
            "version": 1,
            "changeset": 127046760,
            "user": "Emanuelex",
            "uid": 17047428,
            "tags": {
                "addr:housenumber": "6",
                "addr:street": "Via Milano",
                "brand": "Expert",
                "brand:wikidata": "Q680990",
                "name": "Expert",
                "operator": "Expert - Faccini Elettrodomestici",
                "shop": "electronics"
            }
        },
        {
            "type": "node",
            "id": 10275916796,
            "lat": 46.4230476,
            "lon": 12.3589338,
            "timestamp": "2025-01-17T19:49:23Z",
            "version": 4,
            "changeset": 161468628,
            "user": "szydzio-imports",
            "uid": 10284193,
            "tags": {
                "addr:city": "Pieve di Cadore",
                "addr:postcode": "32044",
                "addr:street": "Via Ferdinando Coletti",
                "check_date": "2024-11-25",
                "check_date:currency:XBT": "2024-11-25",
                "contact:instagram": "https://www.instagram.com/larixstudio/",
                "contact:twitter": "@enricotabacchi",
                "craft": "photographer",
                "currency:XBT": "yes",
                "description": "Photographer",
                "email": "info@larixstudio.com",
                "name": "Larix Studio",
                "payment:lightning": "yes",
                "payment:lightning_contactless": "no",
                "payment:onchain": "yes",
                "phone": "+39 3407709693",
                "website": "https://larixstudio.com"
            }
        },
        {
            "type": "node",
            "id": 10544354940,
            "lat": 45.8790278,
            "lon": 12.3154332,
            "timestamp": "2025-10-16T09:25:30Z",
            "version": 4,
            "changeset": 173355790,
            "user": "btcitnet",
            "uid": 22525435,
            "tags": {
                "addr:city": "Conegliano",
                "addr:postcode": "31015",
                "addr:street": "Via San Giuseppe",
                "brand": "Calzedonia",
                "brand:wikidata": "Q1027874",
                "name": "Calzedonia",
                "shop": "clothes",
                "wheelchair": "yes"
            }
        },
        {
            "type": "node",
            "id": 10560564124,
            "lat": 45.88557,
            "lon": 12.2985328,
            "timestamp": "2023-01-17T00:41:38Z",
            "version": 1,
            "changeset": 131357573,
            "user": "ezio_m",
            "uid": 2795300,
            "tags": {
                "brand": "Intimissimi",
                "brand:wikidata": "Q305404",
                "clothes": "underwear",
                "name": "Intimissimi",
                "shop": "clothes"
            }
        },
        {
            "type": "node",
            "id": 10560584773,
            "lat": 45.8860237,
            "lon": 12.2977309,
            "timestamp": "2025-10-08T09:49:36Z",
            "version": 3,
            "changeset": 172994517,
            "user": "\u0110uro Ji\u0159\u00ed",
            "uid": 14617702,
            "tags": {
                "brand": "United Colors of Benetton",
                "brand:wikidata": "Q817139",
                "check_date": "2025-10-08",
                "name": "United Colors of Benetton",
                "shop": "clothes",
                "short_name": "Benetton",
                "wheelchair": "yes"
            }
        },
        {
            "type": "node",
            "id": 10560584774,
            "lat": 45.8857392,
            "lon": 12.2964772,
            "timestamp": "2025-10-08T09:51:13Z",
            "version": 3,
            "changeset": 172994631,
            "user": "\u0110uro Ji\u0159\u00ed",
            "uid": 14617702,
            "tags": {
                "brand": "United Colors of Benetton",
                "brand:wikidata": "Q817139",
                "check_date": "2025-10-08",
                "name": "United Colors of Benetton",
                "shop": "clothes",
                "short_name": "Benetton"
            }
        },
        {
            "type": "node",
            "id": 10718692223,
            "lat": 45.9584492,
            "lon": 12.6586746,
            "timestamp": "2024-02-19T21:10:46Z",
            "version": 2,
            "changeset": 147668334,
            "user": "Chiarant",
            "uid": 18452174,
            "tags": {
                "addr:city": "Pordenone",
                "addr:housenumber": "29",
                "addr:postcode": "33170",
                "addr:street": "Piazzale Venti Settembre",
                "check_date": "2024-02-19",
                "currency:XBT": "yes",
                "email": "info@valbershop.it",
                "name": "Valber Shop - Only Pordenone",
                "phone": "+39 0434 177 7825",
                "shop": "clothes",
                "website": "https://www.valbershop.it/"
            }
        },
        {
            "type": "node",
            "id": 10875761582,
            "lat": 45.8852257,
            "lon": 12.2950198,
            "timestamp": "2025-10-08T09:53:49Z",
            "version": 3,
            "changeset": 172994631,
            "user": "\u0110uro Ji\u0159\u00ed",
            "uid": 14617702,
            "tags": {
                "brand": "Mondadori",
                "brand:wikidata": "Q85355",
                "name": "Mondadori",
                "shop": "books"
            }
        },
        {
            "type": "node",
            "id": 11080635396,
            "lat": 45.9639713,
            "lon": 12.273031,
            "timestamp": "2025-10-15T18:25:24Z",
            "version": 5,
            "changeset": 173333117,
            "user": "confusedbuffalo",
            "uid": 242345,
            "tags": {
                "addr:city": "Cozzuolo, Vittorio Veneto",
                "addr:housenumber": "13",
                "addr:postcode": "31020",
                "addr:street": "Via San Mor",
                "amenity": "restaurant",
                "check_date:currency:XBT": "2024-12-20",
                "cuisine": "regional;italian",
                "currency:XBT": "yes",
                "diet:healthy": "yes",
                "diet:local": "yes",
                "diet:meat": "yes",
                "diet:vegetarian": "yes",
                "internet_access": "wlan",
                "name": "Agriturismo Le Colline",
                "payment:lightning": "yes",
                "payment:onchain": "yes",
                "phone": "+39 0438 560282",
                "website": "lecollinecozzuolo.it"
            }
        },
        {
            "type": "node",
            "id": 11175545278,
            "lat": 46.5842466,
            "lon": 12.2536726,
            "timestamp": "2023-09-07T22:26:33Z",
            "version": 1,
            "changeset": 140960476,
            "user": "Friendly_Ghost",
            "uid": 10875409,
            "tags": {
                "brand": "Spar",
                "brand:wikidata": "Q610492",
                "name": "Spar",
                "shop": "supermarket"
            }
        },
        {
            "type": "node",
            "id": 11882067677,
            "lat": 46.1037235,
            "lon": 12.0920266,
            "timestamp": "2024-05-07T14:45:47Z",
            "version": 2,
            "changeset": 151014687,
            "user": "FinixFighter",
            "uid": 10477933,
            "tags": {
                "addr:city": "Sedico",
                "addr:housenumber": "68",
                "addr:postcode": "32036",
                "addr:street": "Via Feltre",
                "brand": "Upim",
                "brand:wikidata": "Q1414836",
                "contact:facebook": "UpimItalia",
                "contact:instagram": "upim_official",
                "contact:tiktok": "@upim_official",
                "name": "Upim",
                "opening_hours": "Mo-Sa 8:30-12:30,15:30-19:30",
                "payment:cards": "yes",
                "payment:cash": "yes",
                "phone": "+39 0437 852456",
                "shop": "department_store",
                "website": "https://stores.upim.com/it/italia/veneto/belluno/sedico"
            }
        },
        {
            "type": "node",
            "id": 11980863518,
            "lat": 45.9058678,
            "lon": 12.3362754,
            "timestamp": "2024-06-14T13:29:12Z",
            "version": 1,
            "changeset": 152679049,
            "user": "Rockedf",
            "uid": 7522075,
            "tags": {
                "addr:city": "San Fior",
                "addr:housenumber": "86",
                "addr:postcode": "31020",
                "addr:street": "Via Nazionale",
                "amenity": "car_wash",
                "check_date": "2024-06-14",
                "currency:XBT": "yes",
                "name": "Ip San Fior Autolavaggio e Noleggio",
                "payment:lightning": "yes",
                "payment:lightning_contactless": "no",
                "payment:onchain": "yes",
                "phone": "+39 37 6176 3526"
            }
        },
        {
            "type": "node",
            "id": 11980916898,
            "lat": 46.0301992,
            "lon": 12.5164386,
            "timestamp": "2024-06-14T14:15:47Z",
            "version": 2,
            "changeset": 152681319,
            "user": "Maarmolada Art",
            "uid": 21657162,
            "tags": {
                "addr:city": "Polcenigo",
                "addr:housenumber": "17",
                "addr:postcode": "33070",
                "addr:street": "Via Pizzoch",
                "currency:XBT": "yes",
                "name": "Maarmolada Art",
                "opening_hours": "Mo-Su 10:00-22:00",
                "payment:contactless": "no",
                "payment:lightning": "yes",
                "payment:onchain": "no",
                "survey:date": "2024-01-01",
                "tourism": "gallery",
                "website": "https://linktr.ee/Ma.armoladaArt?fbclid=PAZXh0bgNhZW0CMTEAAab21UrFK8GPO9qQpBG1sLHqZAghQhylICmYogHy_rvxFkkjjHose8qtG74_aem_ZmFrZWR1bW15MTZieXRlcw"
            }
        },
        {
            "type": "node",
            "id": 12112513857,
            "lat": 45.8807177,
            "lon": 12.7114436,
            "timestamp": "2025-01-03T14:30:39Z",
            "version": 2,
            "changeset": 160951824,
            "user": "mpbin",
            "uid": 21850090,
            "tags": {
                "addr:city": "Azzano Decimo",
                "addr:housenumber": "33",
                "addr:postcode": "33082",
                "addr:street": "Viale Venticinque Aprile",
                "brand": "OVS",
                "brand:wikidata": "Q2042514",
                "name": "OVS",
                "operator": "OVS",
                "phone": "+39 0434 043814",
                "shop": "clothes"
            }
        },
        {
            "type": "node",
            "id": 12475760667,
            "lat": 45.8930405,
            "lon": 12.3236976,
            "timestamp": "2025-10-06T13:16:07Z",
            "version": 4,
            "changeset": 172913955,
            "user": "Comino",
            "uid": 6794624,
            "tags": {
                "addr:city": "Conegliano",
                "addr:housenumber": "159",
                "addr:postcode": "31015",
                "addr:street": "Via Maggiore Piovesana Giovanni",
                "amenity": "dentist",
                "check_date": "2025-01-06",
                "contact:facebook": "https://www.facebook.com/StudioDentisticoConegliano/",
                "currency:XBT": "yes",
                "healthcare": "dentist",
                "name": "Studio Dentistico Marin",
                "opening_hours": "Mo-We 09:00-16:00; Th 09:00-12:45,15:00-19:00",
                "payment:cash": "yes",
                "payment:credit_cards": "yes",
                "payment:lightning": "yes",
                "payment:lightning_contactless": "no",
                "payment:onchain": "yes",
                "phone": "+39 04 3841 5356",
                "website": "https://dentistaconegliano.it/"
            }
        },
        {
            "type": "node",
            "id": 12487023765,
            "lat": 46.4424371,
            "lon": 12.3825641,
            "timestamp": "2025-01-09T18:37:13Z",
            "version": 1,
            "changeset": 161180730,
            "user": "skizz98",
            "uid": 13920670,
            "tags": {
                "amenity": "fuel",
                "brand": "Tamoil",
                "brand:wikidata": "Q706793",
                "name": "Tamoil"
            }
        },
        {
            "type": "node",
            "id": 12613934712,
            "lat": 45.8370974,
            "lon": 12.4010158,
            "timestamp": "2025-02-23T22:50:17Z",
            "version": 1,
            "changeset": 162871398,
            "user": "Rockedf",
            "uid": 7522075,
            "tags": {
                "addr:city": "Visn\u00e0 TV",
                "addr:housenumber": "80",
                "addr:postcode": "31028",
                "addr:street": "Via Armando Diaz",
                "check_date": "2025-02-23",
                "currency:XBT": "yes",
                "name": "House Service Italy",
                "office": "construction_company",
                "opening_hours": "Mo-Fr 08:00-18:00",
                "payment:lightning": "yes",
                "payment:lightning_contactless": "yes",
                "payment:onchain": "yes",
                "phone": "+39 392 9173243",
                "website": "https://www.linkedin.com/in/daniele-momi-849073102/"
            }
        },
        {
            "type": "node",
            "id": 12633799717,
            "lat": 45.8649291,
            "lon": 12.110262,
            "timestamp": "2025-03-03T18:10:27Z",
            "version": 1,
            "changeset": 163172633,
            "user": "Rockedf",
            "uid": 7522075,
            "tags": {
                "addr:city": "Moriago della Battaglia TV",
                "addr:housenumber": "9",
                "addr:postcode": "31010",
                "addr:street": "Via Brigata Mantova",
                "check_date": "2025-03-03",
                "contact:email": "info@tecnotendasrl.it",
                "contact:facebook": "https://www.facebook.com/tecnotendavendramini/",
                "currency:XBT": "yes",
                "name": "Tecnotenda Contract - Tende e Tendaggi",
                "opening_hours": "Mo-Fr 09:00-18:00; Sa 09:00-12:00",
                "payment:lightning": "yes",
                "payment:lightning_contactless": "yes",
                "payment:onchain": "yes",
                "phone": "+39 0438 892610",
                "shop": "yes",
                "website": "https://www.tecnotendasrl.com/",
                "wheelchair": "yes"
            }
        },
        {
            "type": "node",
            "id": 12814434030,
            "lat": 46.1778131,
            "lon": 12.5225404,
            "timestamp": "2025-06-01T10:15:40Z",
            "version": 4,
            "changeset": 167043324,
            "user": "Comino",
            "uid": 6794624,
            "tags": {
                "addr:city": "Barcis",
                "addr:housenumber": "10",
                "addr:postcode": "33080",
                "addr:street": "Via Pentina",
                "check_date": "2025-05-17",
                "check_date:currency:XBT": "2025-06-01",
                "currency:XBT": "yes",
                "email": "labrombela@proton.me",
                "guest_house": "bed_and_breakfast",
                "name": "La Brombela",
                "payment:lightning": "yes",
                "payment:lightning_contactless": "no",
                "payment:onchain": "yes",
                "phone": "+39 335 5600 181",
                "tourism": "guest_house",
                "website": "https://nl.airbnb.com/rooms/1125299440455924909?_set_bev_on_new_domain=1747474468_EANWM1OGVjMzhjMD"
            }
        },
        {
            "type": "node",
            "id": 12840023166,
            "lat": 46.1387699,
            "lon": 12.2069874,
            "timestamp": "2025-05-15T13:12:20Z",
            "version": 1,
            "changeset": 166304488,
            "user": "Rockedf",
            "uid": 7522075,
            "tags": {
                "addr:city": "Belluno",
                "addr:housenumber": "58",
                "addr:postcode": "32100",
                "addr:street": "Via Feltre",
                "check_date": "2025-05-15",
                "contact:email": "info@naturopatiazerbio.it",
                "contact:facebook": "https://www.facebook.com/people/Naturopatia-Zerbio/61552161756807/",
                "contact:instagram": "https://www.instagram.com/naturopatia.zerbio/",
                "contact:linkedin": "https://www.linkedin.com/company/100303714/admin/feed/posts/",
                "currency:XBT": "yes",
                "name": "Naturopatia Zerbio Snc",
                "opening_hours": "Mo-Fr 09:15-12:45,16:00-19:15; Sa 09:15-12:45",
                "payment:lightning": "yes",
                "payment:lightning_contactless": "no",
                "payment:onchain": "no",
                "phone": "+39 37 1164 2497",
                "shop": "yes",
                "website": "https://www.naturopatiazerbio.com/"
            }
        },
        {
            "type": "node",
            "id": 12857856646,
            "lat": 46.5381795,
            "lon": 12.1349008,
            "timestamp": "2025-05-24T16:39:42Z",
            "version": 4,
            "changeset": 166705273,
            "user": "mueschel",
            "uid": 616774,
            "tags": {
                "addr:city": "Cortina d'Ampezzo",
                "addr:housenumber": "11",
                "addr:street": "Via Cesare Battisti",
                "branch": "LE ECCELLENZE DI ESSELUNGA CORTINA",
                "brand": "Esselunga",
                "brand:wikidata": "Q1059636",
                "name": "Esselunga",
                "shop": "supermarket"
            }
        },
        {
            "type": "node",
            "id": 12993310645,
            "lat": 45.981999,
            "lon": 12.3153497,
            "timestamp": "2025-10-07T06:19:38Z",
            "version": 3,
            "changeset": 172942939,
            "user": "btcitnet",
            "uid": 22525435,
            "tags": {
                "addr:city": "Vittorio Veneto",
                "addr:housenumber": "37",
                "addr:postcode": "31029",
                "addr:street": "Via Luigino de Nadal",
                "brand": "OVS",
                "brand:wikidata": "Q2042514",
                "name": "OVS",
                "shop": "clothes"
            }
        },
        {
            "type": "node",
            "id": 13005157693,
            "lat": 45.7821631,
            "lon": 12.4944261,
            "timestamp": "2025-10-07T06:21:19Z",
            "version": 2,
            "changeset": 172942984,
            "user": "btcitnet",
            "uid": 22525435,
            "tags": {
                "addr:city": "Oderzo",
                "addr:housenumber": "I,8",
                "addr:postcode": "31046",
                "addr:street": "Via Umberto I",
                "brand": "Intimissimi",
                "brand:wikidata": "Q305404",
                "clothes": "underwear",
                "name": "Intimissimi",
                "shop": "clothes"
            }
        },
        {
            "type": "node",
            "id": 13005213709,
            "lat": 45.7823309,
            "lon": 12.4943179,
            "timestamp": "2025-10-07T06:22:00Z",
            "version": 2,
            "changeset": 172943005,
            "user": "btcitnet",
            "uid": 22525435,
            "tags": {
                "addr:city": "Oderzo",
                "addr:housenumber": "I,5",
                "addr:postcode": "31046",
                "addr:street": "Via Umberto I",
                "brand": "Calzedonia",
                "brand:wikidata": "Q1027874",
                "name": "Calzedonia",
                "shop": "clothes"
            }
        },
        {
            "type": "node",
            "id": 13068257816,
            "lat": 45.988082,
            "lon": 12.3116193,
            "timestamp": "2025-10-08T19:38:16Z",
            "version": 2,
            "changeset": 173020742,
            "user": "btcitnet",
            "uid": 22525435,
            "tags": {
                "addr:city": "Vittorio Veneto",
                "addr:housenumber": "86",
                "addr:postcode": "31029",
                "addr:street": "Via Dalmazia",
                "brand": "Expert",
                "brand:wikidata": "Q680990",
                "name": "Expert",
                "shop": "electronics"
            }
        },
        {
            "type": "node",
            "id": 13089228522,
            "lat": 45.7912538,
            "lon": 12.4898431,
            "timestamp": "2025-10-08T19:34:49Z",
            "version": 2,
            "changeset": 173020636,
            "user": "btcitnet",
            "uid": 22525435,
            "tags": {
                "addr:city": "Oderzo",
                "addr:postcode": "31046",
                "addr:street": "Via Giovanni Pezzulo",
                "brand": "OVS",
                "brand:wikidata": "Q2042514",
                "clothes": "children;women;men;socks;underwear",
                "name": "OVS",
                "payment:cash": "yes",
                "payment:contactless": "yes",
                "payment:credit_cards": "yes",
                "shop": "clothes",
                "stroller": "yes"
            }
        },
        {
            "type": "node",
            "id": 13200594548,
            "lat": 45.823049,
            "lon": 12.2534664,
            "timestamp": "2025-10-10T12:07:52Z",
            "version": 2,
            "changeset": 173091425,
            "user": "Comino",
            "uid": 6794624,
            "tags": {
                "addr:city": "Ponte della Priula",
                "addr:housenumber": "71",
                "addr:postcode": "31010",
                "addr:street": "Via Quattro Novembre",
                "addr:unit": "b",
                "check_date": "2025-10-07",
                "check_date:currency:XBT": "2025-10-07",
                "contact:email": "m.buzzaccaro@yahoo.it",
                "contact:facebook": "https://www.facebook.com/p/Il-Chicco-di-Grano-100057035816940/",
                "contact:instagram": "il_chicco_di_grano_pontepriula",
                "currency:XBT": "yes",
                "name": "Il Chicco di Grano",
                "opening_hours": "Mo-Fr 06:30-16:30; Sa 06:30-13:00",
                "payment:lightning": "yes",
                "payment:lightning_contactless": "yes",
                "payment:onchain": "yes",
                "phone": "+39 351 742 2948",
                "shop": "bakery"
            }
        },
        {
            "type": "node",
            "id": 13267121902,
            "lat": 45.7040901,
            "lon": 12.2197943,
            "timestamp": "2025-11-02T15:47:01Z",
            "version": 3,
            "changeset": 174109331,
            "user": "Comino",
            "uid": 6794624,
            "tags": {
                "addr:city": "Ponzano Veneto",
                "addr:housenumber": "1/A",
                "addr:postcode": "31050",
                "addr:street": "Via Piave",
                "currency:EUR": "yes",
                "currency:XBT": "yes",
                "fee": "yes",
                "leisure": "fitness_centre",
                "name": "Postura",
                "opening_hours": "Mo-Fr 08:30-20:00",
                "payment:cash": "yes",
                "payment:lightning": "yes",
                "payment:lightning_contactless": "no",
                "payment:onchain": "yes",
                "phone": "+39 34 7689 7473",
                "sport": "ginnastica_posturale",
                "survey:date": "2025-11-01"
            }
        },
        {
            "type": "way",
            "id": 36053469,
            "timestamp": "2023-11-13T08:06:55Z",
            "version": 5,
            "changeset": 143959231,
            "user": "LVe182",
            "uid": 20584489,
            "nodes": [
                421253864,
                421253865,
                421253866,
                421253867,
                421253868,
                421253869,
                421253870,
                421253871,
                421253864
            ],
            "tags": {
                "amenity": "supermarket",
                "brand": "Conad City",
                "brand:wikidata": "Q57543102",
                "building": "retail",
                "height": "5 m",
                "it:fvg:ctrn:code": "4AED",
                "it:fvg:ctrn:revision": "000",
                "name": "Conad City",
                "operator": "Conad",
                "shop": "supermarket"
            }
        },
        {
            "type": "way",
            "id": 36059728,
            "timestamp": "2024-08-07T16:31:21Z",
            "version": 9,
            "changeset": 154944595,
            "user": "mbethke",
            "uid": 248338,
            "nodes": [
                421307137,
                421307138,
                421307139,
                421307140,
                421307141,
                421307142,
                421307137
            ],
            "tags": {
                "brand": "Conad",
                "brand:wikidata": "Q639075",
                "building": "retail",
                "building:levels": "1",
                "height": "5 m",
                "it:fvg:ctrn:code": "4AED",
                "it:fvg:ctrn:revision": "000",
                "name": "Conad",
                "opening_hours": "Mo-Fr 08:00-20:00; Sa 08:30-13:00",
                "roof:levels": "0",
                "roof:shape": "flat",
                "shop": "supermarket"
            }
        },
        {
            "type": "way",
            "id": 36216363,
            "timestamp": "2025-10-27T18:40:51Z",
            "version": 4,
            "changeset": 173852561,
            "user": "btcitnet",
            "uid": 22525435,
            "nodes": [
                422709259,
                422709260,
                422709261,
                422709262,
                422709263,
                422709264,
                422709265,
                422709266,
                422709259
            ],
            "tags": {
                "addr:city": "Pordenone",
                "addr:housenumber": "62",
                "addr:postcode": "33170",
                "addr:street": "Viale Michelangelo Grigoletti",
                "brand": "Conad",
                "brand:wikidata": "Q639075",
                "building": "yes",
                "height": "6 m",
                "it:fvg:ctrn:code": "4AED",
                "it:fvg:ctrn:revision": "1AM",
                "name": "Conad",
                "shop": "supermarket"
            }
        },
        {
            "type": "way",
            "id": 36340068,
            "timestamp": "2025-10-27T18:43:11Z",
            "version": 4,
            "changeset": 173852636,
            "user": "btcitnet",
            "uid": 22525435,
            "nodes": [
                423862171,
                423862172,
                423862173,
                423862174,
                423862175,
                423862176,
                423862177,
                423862178,
                423862179,
                423862180,
                423862181,
                423862182,
                423862183,
                423862184,
                423862185,
                423862186,
                423862171
            ],
            "tags": {
                "addr:city": "Azzano Decimo",
                "addr:housenumber": "35",
                "addr:postcode": "33082",
                "addr:street": "Viale Venticinque Aprile",
                "brand": "Spar",
                "brand:wikidata": "Q610492",
                "building": "yes",
                "height": "7 m",
                "it:fvg:ctrn:code": "4AED",
                "it:fvg:ctrn:revision": "1A0",
                "name": "Despar",
                "shop": "supermarket"
            }
        },
        {
            "type": "way",
            "id": 36427080,
            "timestamp": "2023-08-02T13:36:04Z",
            "version": 12,
            "changeset": 139348493,
            "user": "hobbie",
            "uid": 281699,
            "nodes": [
                424967468,
                11083681692,
                424747168,
                424747169,
                424747170,
                424747171,
                424747172,
                424747173,
                11083681690,
                11083681691,
                424747174,
                11083681689,
                11083681688,
                424747175,
                424747176,
                424747177,
                424747178,
                424747179,
                424747181,
                5200865541,
                424967469,
                424967468
            ],
            "tags": {
                "addr:city": "Porcia",
                "addr:housenumber": "52",
                "addr:postcode": "33080",
                "addr:street": "Via Roveredo",
                "brand": "Conad",
                "brand:wikidata": "Q639075",
                "brand:wikipedia": "it:Conad",
                "building": "retail",
                "height": "11 m",
                "it:fvg:ctrn:code": "4AIN",
                "it:fvg:ctrn:revision": "1A0",
                "layer": "1",
                "name": "Conad",
                "opening_hours": "Mo-Sa 08:30-20:00; Su 08:30-20:00",
                "operator": "Conad",
                "payment:bancomat": "yes",
                "payment:cash": "yes",
                "payment:credit_cards": "yes",
                "phone": "+39 0434 593257",
                "shop": "supermarket",
                "website": "https://www.conad.it/ricerca-negozi/negozio.008840.html"
            }
        },
        {
            "type": "way",
            "id": 144788543,
            "timestamp": "2025-06-04T19:56:46Z",
            "version": 7,
            "changeset": 167194546,
            "user": "\u0110uro Ji\u0159\u00ed",
            "uid": 14617702,
            "nodes": [
                1582924005,
                1582924001,
                1582924023,
                1582924030,
                1582924015,
                1582924016,
                1582924003,
                1582923999,
                1582924005
            ],
            "tags": {
                "addr:city": "Fiume Veneto",
                "addr:housenumber": "37",
                "addr:postcode": "33080",
                "addr:street": "Via Maestri del Lavoro",
                "brand": "Decathlon",
                "brand:wikidata": "Q509349",
                "brand:wikipedia": "en:Decathlon Group",
                "building": "yes",
                "check_date": "2025-06-04",
                "contact:phone": "+39 0434 185 5238",
                "contact:website": "https://www.decathlon.it/",
                "height": "9 m",
                "name": "Decathlon",
                "opening_hours": "Mo-Su 09:00-20:00",
                "service:bicycle:repair": "yes",
                "service:bicycle:retail": "yes",
                "shop": "sports",
                "wheelchair": "yes"
            }
        },
        {
            "type": "way",
            "id": 150842317,
            "timestamp": "2025-10-25T15:36:22Z",
            "version": 6,
            "changeset": 173761471,
            "user": "btcitnet",
            "uid": 22525435,
            "nodes": [
                1637111452,
                1637111415,
                1637111432,
                1637111454,
                1637111453,
                1637111457,
                1637111451,
                1637111461,
                1637111452
            ],
            "tags": {
                "addr:city": "Conegliano",
                "addr:hamlet": "Santa Rosa",
                "addr:housenumber": "23",
                "addr:postcode": "31015",
                "addr:street": "Via San Giuseppe",
                "brand": "Trony",
                "brand:wikidata": "Q3999692",
                "building": "retail",
                "name": "Trony",
                "operator": "Trony",
                "shop": "electronics"
            }
        },
        {
            "type": "way",
            "id": 175238205,
            "timestamp": "2023-02-20T23:50:30Z",
            "version": 3,
            "changeset": 132812640,
            "user": "itsAlisaa",
            "uid": 17825286,
            "nodes": [
                1858672510,
                1858672017,
                1858671941,
                1858671873,
                10681998144,
                1858672434,
                1858672510
            ],
            "tags": {
                "brand": "Conad",
                "brand:wikidata": "Q639075",
                "building": "industrial",
                "name": "Conad",
                "shop": "supermarket"
            }
        },
        {
            "type": "way",
            "id": 183323616,
            "timestamp": "2022-06-01T18:49:06Z",
            "version": 4,
            "changeset": 121823726,
            "user": "Flight777",
            "uid": 9925732,
            "nodes": [
                1936922445,
                1403161166,
                1936922439,
                1936922455,
                1936922432,
                1936922448,
                1936922452,
                1936922435,
                1936922426,
                1936922429,
                1936922442,
                1936922421,
                1936922445
            ],
            "tags": {
                "brand": "Spar",
                "brand:wikidata": "Q610492",
                "building": "retail",
                "name": "Despar",
                "shop": "supermarket"
            }
        },
        {
            "type": "way",
            "id": 202008974,
            "timestamp": "2025-07-25T11:31:28Z",
            "version": 7,
            "changeset": 169449098,
            "user": "szydzio",
            "uid": 2313574,
            "nodes": [
                2119945294,
                2119945235,
                2119945232,
                11159639000,
                2119945187,
                2119945183,
                2119945198,
                2119945282,
                2119945287,
                2119945290,
                2119945294
            ],
            "tags": {
                "brand": "Conad City",
                "brand:wikidata": "Q57543102",
                "building": "commercial",
                "name": "Conad City",
                "opening_hours": "Mo-Sa 08:00-19:30; Su 08:00-19:00",
                "operator": "Conad City",
                "outdoor_seating": "no",
                "payment:cash": "yes",
                "payment:debit_cards": "yes",
                "phone": "+39 0436 209117",
                "shop": "supermarket",
                "website": "https://www.conad.it/ricerca-negozi/conad-city-corso-italia-64-32046-san-vito-di-cadore--009782"
            }
        },
        {
            "type": "way",
            "id": 212100702,
            "timestamp": "2025-10-31T17:31:37Z",
            "version": 8,
            "changeset": 174031638,
            "user": "btcitnet",
            "uid": 22525435,
            "nodes": [
                2219919414,
                2219919432,
                13136943427,
                13136943428,
                13136943431,
                2219919453,
                2219919426,
                2219919410,
                13136943429,
                13136943430,
                2219919414
            ],
            "tags": {
                "addr:city": "Santa Giustina",
                "addr:postcode": "32035",
                "addr:street": "Viale dei Tigli",
                "amenity": "fuel",
                "brand": "Tamoil",
                "brand:wikidata": "Q706793",
                "building": "yes",
                "fuel:lpg": "yes",
                "full_service:conditional": "7:30-12:30, 14:30-18:25",
                "layer": "1",
                "name": "Tamoil"
            }
        },
        {
            "type": "way",
            "id": 263311537,
            "timestamp": "2024-10-03T10:34:39Z",
            "version": 2,
            "changeset": 157412100,
            "user": "Flight777",
            "uid": 9925732,
            "nodes": [
                2689373799,
                2689373800,
                2689373797,
                2689373795,
                2689373799
            ],
            "tags": {
                "brand": "Spar",
                "brand:wikidata": "Q610492",
                "building": "commercial",
                "name": "Despar",
                "shop": "supermarket"
            }
        },
        {
            "type": "way",
            "id": 273146964,
            "timestamp": "2025-08-28T06:06:02Z",
            "version": 5,
            "changeset": 171114668,
            "user": "marang\u00f3n",
            "uid": 20939356,
            "nodes": [
                2780337806,
                2780337807,
                2780337805,
                2780337802,
                2780337800,
                2780337804,
                2780337806
            ],
            "tags": {
                "amenity": "fuel",
                "brand": "Tamoil",
                "brand:wikidata": "Q706793",
                "building": "roof",
                "layer": "1",
                "name": "Tamoil",
                "operator": "GEFF S.R.L.",
                "ref:mise": "60439",
                "self_service": "yes",
                "source:date": "2018-04-16"
            }
        },
        {
            "type": "way",
            "id": 767952398,
            "timestamp": "2024-05-26T16:22:20Z",
            "version": 6,
            "changeset": 151859931,
            "user": "ezio_m",
            "uid": 2795300,
            "nodes": [
                6535254066,
                6535254065,
                11935207898,
                11935207902,
                11935207901,
                11935207899,
                11935207900,
                11209253064,
                7170244168,
                7170241731,
                6535254066
            ],
            "tags": {
                "amenity": "fuel",
                "brand": "Tamoil",
                "brand:wikidata": "Q706793",
                "fuel:lpg": "no",
                "name": "Tamoil",
                "operator": "T.D.M. S.R.L.",
                "ref:mise": "39517"
            }
        },
        {
            "type": "way",
            "id": 857912579,
            "timestamp": "2022-06-10T09:26:37Z",
            "version": 2,
            "changeset": 122201164,
            "user": "Cascafico",
            "uid": 361003,
            "nodes": [
                7998116776,
                7159512422,
                7159512423,
                7998116775,
                7998116776
            ],
            "tags": {
                "amenity": "fuel",
                "brand": "Tamoil",
                "brand:wikidata": "Q706793",
                "brand:wikipedia": "en:Tamoil",
                "fuel:lpg": "no",
                "name": "Tamoil",
                "operator": "Braido Mario & C. S.N.C.",
                "ref:mise": "18248"
            }
        },
        {
            "type": "way",
            "id": 917574132,
            "timestamp": "2025-10-27T18:37:10Z",
            "version": 2,
            "changeset": 173852455,
            "user": "btcitnet",
            "uid": 22525435,
            "nodes": [
                8522140798,
                8522140799,
                8522140800,
                8522140801,
                8522140798
            ],
            "tags": {
                "addr:city": "Belluno",
                "addr:housenumber": "1",
                "addr:postcode": "32100",
                "addr:street": "Via Valerio da Pos",
                "brand": "Unieuro",
                "brand:wikidata": "Q4004687",
                "brand:wikipedia": "en:Unieuro",
                "building": "yes",
                "name": "Unieuro",
                "shop": "electronics"
            }
        },
        {
            "type": "way",
            "id": 1068443323,
            "timestamp": "2022-07-22T11:44:34Z",
            "version": 2,
            "changeset": 123935637,
            "user": "AlbyKitGally96",
            "uid": 12850933,
            "nodes": [
                2376625055,
                2376625100,
                9808210357,
                9808210356,
                2376625055
            ],
            "tags": {
                "amenity": "fuel",
                "brand": "Tamoil",
                "brand:wikidata": "Q706793",
                "brand:wikipedia": "es:Repsol",
                "layer": "1",
                "name": "Tamoil",
                "operator": "Repsol Italia S.p.A.",
                "ref:mise": "7067",
                "self_service": "yes"
            }
        },
        {
            "type": "way",
            "id": 1258219511,
            "timestamp": "2024-03-06T12:24:44Z",
            "version": 1,
            "changeset": 148292293,
            "user": "AlbyKitGally96",
            "uid": 12850933,
            "nodes": [
                11697286231,
                11697286232,
                11697286233,
                11697286234,
                11697286231
            ],
            "tags": {
                "amenity": "fuel",
                "brand": "Tamoil",
                "brand:wikidata": "Q706793",
                "name": "Tamoil"
            }
        },
        {
            "type": "way",
            "id": 1258219512,
            "timestamp": "2024-03-06T12:24:44Z",
            "version": 1,
            "changeset": 148292293,
            "user": "AlbyKitGally96",
            "uid": 12850933,
            "nodes": [
                11697286235,
                11697286236,
                11697286237,
                11697286238,
                11697286235
            ],
            "tags": {
                "amenity": "fuel",
                "brand": "Tamoil",
                "brand:wikidata": "Q706793",
                "name": "Tamoil"
            }
        }
    ],
    "telegram": [
        {
            "telegram": "b-veneto"
        },
        {
            "telegram": "ss-belluno"
        }
    ]
}