{
    "id": "sassari",
    "name": "Sassari",
    "lng": 40.718668,
    "lat": 8.566414,
    "idcomune": 40683,
    "poi": [
        {
            "type": "node",
            "id": 228748959,
            "lat": 40.718583,
            "lon": 8.557663,
            "timestamp": "2025-09-30T09:49:28Z",
            "version": 7,
            "changeset": 172651955,
            "user": "btcitnet",
            "uid": 22525435,
            "tags": {
                "addr:city": "Sassari",
                "addr:housenumber": "34/A",
                "addr:postcode": "07100",
                "addr:street": "Via Principessa Maria",
                "amenity": "fuel",
                "brand": "Q8",
                "brand:wikidata": "Q1634762",
                "fuel:diesel": "yes",
                "fuel:octane_95": "yes",
                "name": "Q8",
                "operator": "I.P. Service S.N.C. di Alessandro Idini e Francesco Pireddu",
                "ref:mise": "38220"
            }
        },
        {
            "type": "node",
            "id": 228749201,
            "lat": 40.7215358,
            "lon": 8.5653306,
            "timestamp": "2025-09-30T09:47:32Z",
            "version": 9,
            "changeset": 172651883,
            "user": "btcitnet",
            "uid": 22525435,
            "tags": {
                "addr:city": "Sassari",
                "addr:postcode": "07100",
                "addr:street": "Via Giorgio Asproni",
                "amenity": "fuel",
                "brand": "Tamoil",
                "brand:wikidata": "Q706793",
                "name": "TAMOIL",
                "operator": "Marceddu Andrea",
                "ref:mise": "19494"
            }
        },
        {
            "type": "node",
            "id": 793607390,
            "lat": 40.830098,
            "lon": 8.4140537,
            "timestamp": "2025-03-03T09:11:55Z",
            "version": 9,
            "changeset": 163151799,
            "user": "mlbiche",
            "uid": 21680427,
            "tags": {
                "addr:city": "Porto Torres",
                "addr:postcode": "07046",
                "addr:street": "Viale delle Vigne",
                "branch": "Superstore",
                "brand": "Conad",
                "brand:wikidata": "Q639075",
                "brand:wikipedia": "it:Conad",
                "name": "Conad",
                "opening_hours": "Mo-Sa 08:00-20:30; Su 08:00-13:00",
                "operator": "CONAD Soc. Coop.",
                "phone": "+39 079 502892",
                "shop": "supermarket",
                "website": "https://www.conad.it"
            }
        },
        {
            "type": "node",
            "id": 1167085561,
            "lat": 40.7292404,
            "lon": 8.8142202,
            "timestamp": "2025-10-08T18:49:17Z",
            "version": 4,
            "changeset": 173019073,
            "user": "btcitnet",
            "uid": 22525435,
            "tags": {
                "addr:city": "Chiaramonti",
                "addr:postcode": "07030",
                "amenity": "fuel",
                "brand": "Q8",
                "brand:wikidata": "Q1634762",
                "brand:wikipedia": "en:Kuwait Petroleum Corporation",
                "fuel:diesel": "yes",
                "fuel:octane_95": "yes",
                "name": "Q8",
                "operator": "Caffe' Rally di Luca Soddu",
                "ref:mise": "39784"
            }
        },
        {
            "type": "node",
            "id": 1482252702,
            "lat": 40.9040316,
            "lon": 8.6879711,
            "timestamp": "2021-11-10T16:10:22Z",
            "version": 4,
            "changeset": 113615263,
            "user": "Fabiano Peddis",
            "uid": 1096017,
            "tags": {
                "addr:city": "Castelsardo",
                "addr:housenumber": "29",
                "addr:postcode": "07031",
                "addr:street": "Corso Italia",
                "amenity": "fuel",
                "brand": "Q8",
                "brand:wikidata": "Q1634762",
                "brand:wikipedia": "en:Kuwait Petroleum Corporation",
                "fuel:diesel": "yes",
                "fuel:octane_95": "yes",
                "name": "Q8",
                "operator": "Car Service di Bitti Daniele e C. Snc",
                "ref:mise": "33769"
            }
        },
        {
            "type": "node",
            "id": 1885880892,
            "lat": 40.9272851,
            "lon": 8.8207023,
            "timestamp": "2025-10-08T18:50:18Z",
            "version": 5,
            "changeset": 173019114,
            "user": "btcitnet",
            "uid": 22525435,
            "tags": {
                "addr:city": "Valledoria",
                "addr:housenumber": "132",
                "addr:postcode": "07039",
                "addr:street": "Corso Europa",
                "amenity": "fuel",
                "automated": "yes",
                "brand": "Tamoil",
                "brand:wikidata": "Q706793",
                "fuel:diesel": "yes",
                "fuel:octane_95": "yes",
                "fuel_service": "full",
                "name": "Tamoil",
                "operator": "F.lli Pala S.A.S. di Salvatore Andrea Pala e C.",
                "ref:mise": "16014"
            }
        },
        {
            "type": "node",
            "id": 1931208573,
            "lat": 40.9124005,
            "lon": 8.715039,
            "timestamp": "2025-10-07T19:21:07Z",
            "version": 5,
            "changeset": 172974591,
            "user": "btcitnet",
            "uid": 22525435,
            "tags": {
                "addr:city": "Castelsardo",
                "addr:postcode": "07031",
                "addr:street": "Via Sedini",
                "brand": "Conad City",
                "brand:wikidata": "Q57543102",
                "name": "Conad City",
                "operator": "CONAD",
                "shop": "supermarket",
                "wheelchair": "yes"
            }
        },
        {
            "type": "node",
            "id": 1973685935,
            "lat": 40.800292,
            "lon": 8.5744971,
            "timestamp": "2024-05-03T16:00:35Z",
            "version": 5,
            "changeset": 150845042,
            "user": "DnaX",
            "uid": 69259,
            "tags": {
                "addr:city": "Sorso",
                "addr:street": "Viale Marina",
                "brand": "Conad",
                "brand:wikidata": "Q639075",
                "name": "Conad",
                "shop": "supermarket"
            }
        },
        {
            "type": "node",
            "id": 2063363742,
            "lat": 40.7195794,
            "lon": 8.578241,
            "timestamp": "2025-11-25T14:50:29Z",
            "version": 6,
            "changeset": 175114405,
            "user": "aboc",
            "uid": 21696131,
            "tags": {
                "addr:city": "Sassari",
                "addr:housenumber": "1",
                "addr:postcode": "07100",
                "addr:street": "Via Antonio Gramsci",
                "brand": "Conad",
                "brand:wikidata": "Q639075",
                "brand:wikipedia": "it:Conad",
                "name": "Conad",
                "opening_hours": "Mo-Sa 08:30-21:00; Su 09:00-20:30",
                "operator": "Conad",
                "payment:bancomat": "yes",
                "payment:cash": "yes",
                "payment:credit_cards": "yes",
                "phone": "+39 079 274495",
                "shop": "supermarket",
                "website": "https://www.conad.it/ricerca-negozi/negozio.007879.html"
            }
        },
        {
            "type": "node",
            "id": 2197936303,
            "lat": 40.7415648,
            "lon": 8.6738719,
            "timestamp": "2025-10-08T18:51:30Z",
            "version": 4,
            "changeset": 173019149,
            "user": "btcitnet",
            "uid": 22525435,
            "tags": {
                "addr:city": "Osilo",
                "addr:housenumber": "3",
                "addr:postcode": "07033",
                "addr:street": "Piazza San Valentino",
                "amenity": "fuel",
                "brand": "Q8",
                "brand:wikidata": "Q1634762",
                "brand:wikipedia": "en:Kuwait Petroleum Corporation",
                "fuel:diesel": "yes",
                "name": "Q8",
                "operator": "Casula Giovanni Gavino",
                "ref:mise": "33686"
            }
        },
        {
            "type": "node",
            "id": 2273250354,
            "lat": 40.7276099,
            "lon": 8.5478278,
            "timestamp": "2024-12-10T14:42:23Z",
            "version": 10,
            "changeset": 160132284,
            "user": "damianeue",
            "uid": 10124288,
            "tags": {
                "addr:city": "Sassari",
                "addr:housenumber": "1",
                "addr:street": "Via Caniga",
                "brand": "Carrefour",
                "brand:wikidata": "Q217599",
                "name": "Carrefour",
                "name:en": "Carrefour",
                "opening_hours": "Mo-Su 08:00-00:00",
                "shop": "supermarket",
                "website": "https://www.carrefour.it"
            }
        },
        {
            "type": "node",
            "id": 2275205415,
            "lat": 40.7208757,
            "lon": 8.5585986,
            "timestamp": "2025-10-04T09:17:13Z",
            "version": 4,
            "changeset": 172822261,
            "user": "btcitnet",
            "uid": 22525435,
            "tags": {
                "addr:city": "Sassari",
                "addr:housenumber": "18",
                "addr:postcode": "07100",
                "addr:street": "Viale Italia",
                "brand": "Upim",
                "brand:wikidata": "Q1414836",
                "name": "Upim",
                "shop": "department_store"
            }
        },
        {
            "type": "node",
            "id": 2278971102,
            "lat": 40.7374111,
            "lon": 8.5359587,
            "timestamp": "2020-10-07T18:24:32Z",
            "version": 7,
            "changeset": 92127607,
            "user": "mascalzone67",
            "uid": 1861652,
            "tags": {
                "addr:city": "Sassari",
                "addr:postcode": "07100",
                "addr:street": "Via Porto Torres",
                "brand": "Conad",
                "brand:wikidata": "Q639075",
                "brand:wikipedia": "it:Conad",
                "name": "Conad",
                "operator": "Conad",
                "payment:bancomat": "yes",
                "payment:cash": "yes",
                "payment:credit_cards": "yes",
                "shop": "supermarket",
                "start_date": "2020-10-08",
                "toilets": "yes",
                "website": "https://www.conad.it/ricerca-negozi/negozio.010113.html"
            }
        },
        {
            "type": "node",
            "id": 2394782793,
            "lat": 40.7181584,
            "lon": 8.5614667,
            "timestamp": "2025-10-04T09:18:31Z",
            "version": 5,
            "changeset": 172822292,
            "user": "btcitnet",
            "uid": 22525435,
            "tags": {
                "addr:city": "Sassari",
                "addr:housenumber": "4",
                "addr:postcode": "07100",
                "addr:street": "Via Napoli",
                "amenity": "fuel",
                "brand": "Q8",
                "brand:wikidata": "Q1634762",
                "fuel:diesel": "yes",
                "fuel:octane_95": "yes",
                "name": "Q8",
                "operator": "Nuvoli Paolo",
                "ref:mise": "37642"
            }
        },
        {
            "type": "node",
            "id": 2416144739,
            "lat": 40.7450423,
            "lon": 8.5556709,
            "timestamp": "2024-03-20T11:29:42Z",
            "version": 3,
            "changeset": 148907218,
            "user": "Flynn_",
            "uid": 21081459,
            "tags": {
                "addr:city": "Sassari",
                "addr:housenumber": "8",
                "addr:street": "Via Cristoforo Colombo",
                "brand": "Conad City",
                "brand:wikidata": "Q57543102",
                "name": "Conad City",
                "shop": "supermarket"
            }
        },
        {
            "type": "node",
            "id": 2774886221,
            "lat": 40.2755854,
            "lon": 8.5501303,
            "timestamp": "2025-10-04T09:19:24Z",
            "version": 6,
            "changeset": 172822318,
            "user": "btcitnet",
            "uid": 22525435,
            "tags": {
                "addr:city": "Suni",
                "addr:housenumber": "KM. 72+926",
                "addr:postcode": "08010",
                "addr:street": "Strada Statale 292 Nord Occidentale Sarda",
                "amenity": "fuel",
                "brand": "Tamoil",
                "brand:wikidata": "Q706793",
                "brand:wikipedia": "en:Tamoil",
                "fuel:diesel": "yes",
                "fuel:octane_95": "yes",
                "name": "Tamoil",
                "operator": "Carta Maria Grazia",
                "ref:mise": "31475"
            }
        },
        {
            "type": "node",
            "id": 3057815551,
            "lat": 40.7118496,
            "lon": 8.55035,
            "timestamp": "2021-08-01T17:12:27Z",
            "version": 6,
            "changeset": 108981735,
            "user": "_Atlas_",
            "uid": 1308756,
            "tags": {
                "addr:city": "Sassari",
                "addr:postcode": "07100",
                "addr:street": "Via Budapest",
                "brand": "Conad",
                "brand:wikidata": "Q639075",
                "brand:wikipedia": "it:Conad",
                "name": "Conad",
                "opening_hours": "Mo-Sa 08:00-21:00; Su 08:30-13:30,17:00-20:30",
                "payment:bancomat": "yes",
                "payment:cash": "yes",
                "payment:coins": "yes",
                "payment:credit_cards": "yes",
                "payment:debit_cards": "yes",
                "phone": "+39 079 212420",
                "shop": "supermarket",
                "website": "https://www.conad.it/ricerca-negozi/negozio.008099.html"
            }
        },
        {
            "type": "node",
            "id": 4209731935,
            "lat": 40.7489199,
            "lon": 8.5141185,
            "timestamp": "2023-11-15T20:01:24Z",
            "version": 5,
            "changeset": 144067022,
            "user": "toponomastica_comune_arenzano",
            "uid": 14257573,
            "tags": {
                "addr:city": "Sassari",
                "addr:housenumber": "10c",
                "addr:postcode": "07100",
                "addr:street": "Via Pietro Camboni",
                "brand": "Conad",
                "brand:wikidata": "Q639075",
                "name": "Conad",
                "opening_hours": "Mo-Sa 07:30-20:30, Su, PH 08:30-13:30",
                "operator": "Conad",
                "payment:bancomat": "yes",
                "payment:cash": "yes",
                "payment:credit_cards": "yes",
                "phone": "+39 079 3027095",
                "shop": "supermarket",
                "source": "https://www.gdonews.it/2023/03/29/a-sassari-inaugura-il-nuovo-conad-di-via-pietro-camboni/",
                "start_date": "2023-03-30"
            }
        },
        {
            "type": "node",
            "id": 4209862289,
            "lat": 40.5697514,
            "lon": 8.3212406,
            "timestamp": "2024-03-15T19:34:22Z",
            "version": 5,
            "changeset": 148704733,
            "user": "Flynn_",
            "uid": 21081459,
            "tags": {
                "addr:city": "Alghero",
                "addr:street": "Via Don Giovanni Minzoni",
                "brand": "Conad",
                "brand:wikidata": "Q639075",
                "name": "Conad",
                "shop": "supermarket"
            }
        },
        {
            "type": "node",
            "id": 4419249248,
            "lat": 40.7275617,
            "lon": 8.5482208,
            "timestamp": "2023-06-24T18:33:05Z",
            "version": 6,
            "changeset": 137731255,
            "user": "Linfindel",
            "uid": 12507004,
            "tags": {
                "addr:city": "Sassari",
                "addr:housenumber": "1",
                "addr:postcode": "07100",
                "addr:street": "Via Caniga",
                "brand": "Decathlon",
                "brand:wikidata": "Q509349",
                "name": "Decathlon",
                "operator": "Decathlon",
                "shop": "sports"
            }
        },
        {
            "type": "node",
            "id": 4473478475,
            "lat": 40.5497688,
            "lon": 8.3266538,
            "timestamp": "2024-04-24T10:50:17Z",
            "version": 4,
            "changeset": 150439447,
            "user": "ivanbranco",
            "uid": 11220113,
            "tags": {
                "addr:city": "Alghero",
                "addr:housenumber": "13",
                "addr:postcode": "07041",
                "addr:street": "Via Enrico Berlinguer",
                "brand": "Conad",
                "brand:wikidata": "Q639075",
                "name": "Conad",
                "shop": "supermarket",
                "website": "https://www.conad.it/conad/home/puntivendita/dettaglio.html?idPdv=5428"
            }
        },
        {
            "type": "node",
            "id": 4473542012,
            "lat": 40.5708478,
            "lon": 8.3213695,
            "timestamp": "2024-03-15T19:34:22Z",
            "version": 4,
            "changeset": 148704733,
            "user": "Flynn_",
            "uid": 21081459,
            "tags": {
                "addr:city": "Alghero",
                "addr:housenumber": "46",
                "addr:postcode": "07041",
                "addr:street": "Via Don Giovanni Minzoni",
                "brand": "Upim",
                "brand:wikidata": "Q1414836",
                "name": "Upim",
                "shop": "department_store"
            }
        },
        {
            "type": "node",
            "id": 5219586849,
            "lat": 40.7124005,
            "lon": 8.5448997,
            "timestamp": "2025-10-03T10:44:37Z",
            "version": 6,
            "changeset": 172784601,
            "user": "btcitnet",
            "uid": 22525435,
            "tags": {
                "addr:city": "Sassari",
                "addr:postcode": "07100",
                "addr:street": "Strada Statale 131 Carlo Felice",
                "amenity": "fuel",
                "brand": "Q8",
                "brand:wikidata": "Q1634762",
                "brand:wikipedia": "en:Kuwait Petroleum Corporation",
                "fuel:diesel": "yes",
                "fuel:lpg": "yes",
                "fuel:octane_95": "yes",
                "name": "Q8",
                "operator": "Servizi & Gestioni Italia S.R.L.",
                "ref:mise": "19937"
            }
        },
        {
            "type": "node",
            "id": 5416218587,
            "lat": 40.6611817,
            "lon": 8.7246975,
            "timestamp": "2025-10-03T10:45:48Z",
            "version": 4,
            "changeset": 172784646,
            "user": "btcitnet",
            "uid": 22525435,
            "tags": {
                "addr:city": "Ploaghe",
                "addr:housenumber": "KM. 3+700",
                "addr:postcode": "07017",
                "addr:street": "Strada Provinciale 68 Codrongianos - Ploaghe - Chiaramonti",
                "amenity": "fuel",
                "brand": "Tamoil",
                "brand:wikidata": "Q706793",
                "fuel:diesel": "yes",
                "fuel:octane_95": "yes",
                "name": "Tamoil",
                "operator": "T.D.M. S.R.L.",
                "ref:mise": "30824"
            }
        },
        {
            "type": "node",
            "id": 6327512622,
            "lat": 40.7384615,
            "lon": 8.5353785,
            "timestamp": "2025-10-08T18:52:43Z",
            "version": 3,
            "changeset": 173019198,
            "user": "btcitnet",
            "uid": 22525435,
            "tags": {
                "addr:city": "Sassari",
                "addr:postcode": "07100",
                "addr:street": "Viale Porto Torres",
                "brand": "H&M",
                "brand:wikidata": "Q188326",
                "name": "H&M",
                "shop": "clothes"
            }
        },
        {
            "type": "node",
            "id": 8118353721,
            "lat": 40.7264319,
            "lon": 8.5620608,
            "timestamp": "2024-09-24T16:01:05Z",
            "version": 4,
            "changeset": 157046681,
            "user": "aboc",
            "uid": 21696131,
            "tags": {
                "addr:city": "Sassari",
                "addr:housenumber": "1a",
                "addr:postcode": "07100",
                "addr:street": "Via Luigi Luzzatti",
                "brand": "Tezenis",
                "brand:wikidata": "Q28056374",
                "clothes": "women;underwear;swimwear;men;children",
                "name": "Tezenis",
                "shop": "clothes"
            }
        },
        {
            "type": "node",
            "id": 8118353723,
            "lat": 40.7264224,
            "lon": 8.5618374,
            "timestamp": "2025-04-20T20:51:50Z",
            "version": 3,
            "changeset": 165212046,
            "user": "btcitnet",
            "uid": 22525435,
            "tags": {
                "addr:city": "Sassari",
                "addr:housenumber": "4a",
                "addr:postcode": "07100",
                "addr:street": "Via Luigi Luzzatti",
                "brand": "Calzedonia",
                "brand:wikidata": "Q1027874",
                "brand:wikipedia": "en:Calzedonia",
                "name": "Calzedonia",
                "operator": "Calzedonia",
                "shop": "clothes"
            }
        },
        {
            "type": "node",
            "id": 8118353729,
            "lat": 40.7266569,
            "lon": 8.5615303,
            "timestamp": "2025-04-21T08:12:20Z",
            "version": 2,
            "changeset": 165225210,
            "user": "btcitnet",
            "uid": 22525435,
            "tags": {
                "addr:city": "Sassari",
                "addr:housenumber": "9",
                "addr:postcode": "07100",
                "addr:street": "Via Luigi Luzzatti",
                "brand": "Intimissimi",
                "brand:wikidata": "Q305404",
                "brand:wikipedia": "en:Intimissimi",
                "clothes": "underwear",
                "name": "Intimissimi",
                "operator": "Intimissimi",
                "shop": "clothes"
            }
        },
        {
            "type": "node",
            "id": 8118353738,
            "lat": 40.7269293,
            "lon": 8.5622452,
            "timestamp": "2020-11-14T11:34:17Z",
            "version": 1,
            "changeset": 94102657,
            "user": "Molko",
            "uid": 251688,
            "tags": {
                "addr:city": "Sassari",
                "addr:housenumber": "17",
                "addr:postcode": "07100",
                "addr:street": "Largo Felice Cavallotti",
                "brand": "Mondadori",
                "brand:wikidata": "Q85355",
                "brand:wikipedia": "en:Arnoldo Mondadori Editore",
                "name": "Mondadori",
                "shop": "books"
            }
        },
        {
            "type": "node",
            "id": 9073897017,
            "lat": 40.5566402,
            "lon": 8.3158056,
            "timestamp": "2025-10-08T18:53:27Z",
            "version": 3,
            "changeset": 173019219,
            "user": "btcitnet",
            "uid": 22525435,
            "tags": {
                "addr:city": "Alghero",
                "addr:postcode": "07041",
                "addr:street": "Piazza Vincenzo Sulis",
                "brand": "OVS",
                "brand:wikidata": "Q2042514",
                "name": "OVS",
                "shop": "clothes"
            }
        },
        {
            "type": "node",
            "id": 9877578139,
            "lat": 40.5870649,
            "lon": 9.0013852,
            "timestamp": "2025-10-05T08:48:41Z",
            "version": 3,
            "changeset": 172858555,
            "user": "btcitnet",
            "uid": 22525435,
            "tags": {
                "addr:city": "Ozieri",
                "addr:housenumber": "2",
                "addr:postcode": "07014",
                "addr:street": "Via Vittorio Veneto",
                "amenity": "fuel",
                "brand": "Tamoil",
                "brand:wikidata": "Q706793",
                "fuel:diesel": "yes",
                "fuel:octane_95": "yes",
                "name": "Tamoil",
                "operator": "Tamoil Sanna Mariarosa",
                "ref:mise": "16288",
                "source": "MISE - Ministero Sviluppo Economico"
            }
        },
        {
            "type": "node",
            "id": 9930307175,
            "lat": 40.2951116,
            "lon": 8.5056193,
            "timestamp": "2025-10-10T12:54:59Z",
            "version": 4,
            "changeset": 173093695,
            "user": "Rockedf",
            "uid": 7522075,
            "tags": {
                "addr:city": "Bosa",
                "addr:housenumber": "1A",
                "addr:postcode": "08013",
                "addr:street": "Corso Vittorio Emanuele Secondo",
                "amenity": "restaurant",
                "check_date:currency:XBT": "2025-07-17",
                "contact:facebook": "https://www.facebook.com/people/Civicouno/100054601592784/",
                "cuisine": "pizza",
                "currency:XBT": "yes",
                "name": "Civico Uno Bosa",
                "payment:blink": "yes",
                "payment:lightning": "yes",
                "payment:lightning_contactless": "yes",
                "payment:onchain": "yes",
                "phone": "+39 0785 218414"
            }
        },
        {
            "type": "node",
            "id": 10262476930,
            "lat": 40.7226408,
            "lon": 9.1064746,
            "timestamp": "2022-12-14T13:26:10Z",
            "version": 1,
            "changeset": 130076106,
            "user": "BSN21M",
            "uid": 17441326,
            "tags": {
                "addr:city": "Oschiri",
                "addr:housenumber": "11",
                "addr:postcode": "07027",
                "addr:street": "Via Filippo Turati",
                "check_date:currency:XBT": "2022-12-14",
                "contact:twitter": "https://twitter.com/AntoniBatzu",
                "craft": "pottery",
                "currency:XBT": "yes",
                "description": "Art, Pottery, Ceramics",
                "email": "info@comefareceramica.com",
                "name": "Antonio Batzu Ceramiche Artistiche",
                "opening_hours": "Mo-Fr 08:00-19:00",
                "payment:lightning": "yes",
                "payment:lightning_contactless": "no",
                "payment:onchain": "yes",
                "phone": "+39 331 5412413",
                "website": "https://www.comefareceramica.com"
            }
        },
        {
            "type": "node",
            "id": 10316720830,
            "lat": 40.2915043,
            "lon": 8.5025405,
            "timestamp": "2025-10-08T18:54:35Z",
            "version": 3,
            "changeset": 173019256,
            "user": "btcitnet",
            "uid": 22525435,
            "tags": {
                "addr:city": "Bosa",
                "brand": "OVS",
                "brand:wikidata": "Q2042514",
                "clothes": "costumes;denim;men;swimwear;underwear;women",
                "name": "OVS",
                "shop": "clothes"
            }
        },
        {
            "type": "node",
            "id": 10887466088,
            "lat": 40.5874384,
            "lon": 9.002794,
            "timestamp": "2025-01-03T14:26:44Z",
            "version": 2,
            "changeset": 160951655,
            "user": "mpbin",
            "uid": 21850090,
            "tags": {
                "addr:city": "Otieri/Ozieri",
                "addr:housenumber": "4",
                "addr:postcode": "07014",
                "addr:street": "Via Alcide De Gasperi",
                "alt_name": "OVS I.M.C srl",
                "brand": "OVS",
                "brand:wikidata": "Q2042514",
                "name": "OVS",
                "opening_hours": "Mo-Sa 09:00-13:00,16:00-19:30",
                "operator": "OVS",
                "phone": "+39 079 786009",
                "shop": "clothes",
                "website": "https://stores.ovs.it/it/italia/sardegna/sassari/ovs-ozieri"
            }
        },
        {
            "type": "node",
            "id": 11241166641,
            "lat": 40.5587924,
            "lon": 8.3140645,
            "timestamp": "2025-10-08T18:55:29Z",
            "version": 5,
            "changeset": 173019284,
            "user": "btcitnet",
            "uid": 22525435,
            "tags": {
                "addr:city": "Alghero",
                "addr:housenumber": "1-2-3A",
                "addr:postcode": "07041",
                "addr:street": "Piazza Municipio",
                "brand": "Tezenis",
                "brand:wikidata": "Q28056374",
                "check_date": "2024-09-14",
                "clothes": "women;underwear;swimwear;men;children",
                "name": "Tezenis",
                "shop": "clothes"
            }
        },
        {
            "type": "node",
            "id": 11241167040,
            "lat": 40.5588771,
            "lon": 8.313566,
            "timestamp": "2025-09-14T09:38:09Z",
            "version": 4,
            "changeset": 171907709,
            "user": "dan980",
            "uid": 1240942,
            "tags": {
                "addr:city": "Alghero",
                "addr:postcode": "07041",
                "addr:street": "Via Carlo Alberto di Savoia",
                "brand": "Intimissimi",
                "brand:wikidata": "Q305404",
                "clothes": "underwear",
                "name": "Intimissimi",
                "operator": "Intimissimi",
                "shop": "clothes"
            }
        },
        {
            "type": "node",
            "id": 13011436267,
            "lat": 40.7132939,
            "lon": 8.5564704,
            "timestamp": "2025-07-19T10:35:24Z",
            "version": 1,
            "changeset": 169145576,
            "user": "Comino",
            "uid": 6794624,
            "tags": {
                "addr:city": "Sassari",
                "addr:housenumber": "54",
                "addr:postcode": "07100",
                "addr:street": "Via Fondazione Rockefeller",
                "check_date": "2025-07-19",
                "check_date:currency:XBT": "2025-07-19",
                "contact:facebook": "manahubss",
                "contact:instagram": "manahubss",
                "currency:XBT": "yes",
                "email": "info@manahub.it",
                "name": "Mana Hub",
                "office": "research",
                "payment:lightning": "yes",
                "payment:lightning_contactless": "yes",
                "payment:onchain": "yes",
                "phone": "+39 339 286 6198",
                "website": "https://manahub.it/"
            }
        },
        {
            "type": "node",
            "id": 13232816739,
            "lat": 40.5781202,
            "lon": 8.3212233,
            "timestamp": "2025-10-21T07:36:48Z",
            "version": 4,
            "changeset": 173568128,
            "user": "Heart of Sardinia",
            "uid": 23396275,
            "tags": {
                "addr:city": "Alghero",
                "addr:housenumber": "8",
                "addr:postcode": "07041",
                "addr:street": "Via Tiziano Vecellio",
                "air_conditioning": "yes",
                "currency:XBT": "yes",
                "email": "heartofsardinia@outlook.com",
                "guest_house": "apartment",
                "internet_access": "wlan",
                "internet_access:fee": "customers",
                "name": "Heart of Sardinia",
                "operator": "Antonio",
                "payment:lightning": "yes",
                "payment:lightning_contactless": "yes",
                "phone": "+44 7488911525",
                "rooms": "2",
                "tourism": "guest_house",
                "website": "https://www.airbnb.it/rooms/865638294258665345?source_impression_id=p3_1760448465_P3vvrcw4RI5s_6jQ"
            }
        },
        {
            "type": "way",
            "id": 279269098,
            "timestamp": "2024-11-09T18:10:08Z",
            "version": 5,
            "changeset": 158944483,
            "user": "aboc",
            "uid": 21696131,
            "nodes": [
                2314320415,
                9978671265,
                9978671264,
                9978671263,
                2834883542,
                2834883478,
                2834883563,
                2834884213,
                2314320415
            ],
            "tags": {
                "addr:city": "Alghero",
                "addr:street": "Via Giuseppe Mazzini",
                "brand": "Conad",
                "brand:wikidata": "Q639075",
                "building": "retail",
                "name": "Conad",
                "opening_hours": "Mo-Su 08:00-21:00",
                "operator": "CONAD Soc. Coop.",
                "shop": "supermarket"
            }
        },
        {
            "type": "way",
            "id": 279272456,
            "timestamp": "2025-10-08T18:56:17Z",
            "version": 3,
            "changeset": 173019313,
            "user": "btcitnet",
            "uid": 22525435,
            "nodes": [
                2834893317,
                2834893166,
                2834893183,
                2834893124,
                2834893508,
                2834893550,
                2834893567,
                2834893921,
                2834893317
            ],
            "tags": {
                "addr:city": "Alghero",
                "addr:postcode": "07041",
                "brand": "Trony",
                "brand:wikidata": "Q3999692",
                "building": "yes",
                "name": "Trony",
                "shop": "electronics"
            }
        },
        {
            "type": "way",
            "id": 285942769,
            "timestamp": "2025-10-10T11:09:13Z",
            "version": 5,
            "changeset": 173088935,
            "user": "btcitnet",
            "uid": 22525435,
            "nodes": [
                2895834758,
                2895834606,
                2895834610,
                2895834703,
                2895834702,
                2895834766,
                2895834758
            ],
            "tags": {
                "addr:city": "Sassari",
                "brand": "Mondo Convenienza",
                "brand:wikidata": "Q55830962",
                "building": "industrial",
                "check_date:currency:XBT": "2023-07-31",
                "currency:XBT": "yes",
                "name": "Mondo Convenienza",
                "shop": "furniture"
            }
        },
        {
            "type": "way",
            "id": 304093022,
            "timestamp": "2022-04-21T09:46:23Z",
            "version": 6,
            "changeset": 119991966,
            "user": "Fabiano Peddis",
            "uid": 1096017,
            "nodes": [
                3086105639,
                3086105640,
                228271117,
                3086105641,
                3086105639
            ],
            "tags": {
                "amenity": "fuel",
                "brand": "Tamoil",
                "brand:wikidata": "Q706793",
                "brand:wikipedia": "en:Tamoil",
                "building": "roof",
                "fuel:diesel": "yes",
                "fuel:lpg": "yes",
                "fuel:octane_95": "yes",
                "layer": "1",
                "name": "Tamoil",
                "operator": "Centro Tamoil di Zidda Alessandro",
                "ref:mise": "30778"
            }
        },
        {
            "type": "way",
            "id": 548950934,
            "timestamp": "2022-10-08T14:13:38Z",
            "version": 4,
            "changeset": 127204301,
            "user": "\u3071 \u3061\u3083\u306b",
            "uid": 16256289,
            "nodes": [
                5302952476,
                5302952475,
                5302952474,
                5302952473,
                5302952476
            ],
            "tags": {
                "amenity": "fuel",
                "brand": "Tamoil",
                "brand:wikidata": "Q706793",
                "building": "roof",
                "fuel:diesel": "yes",
                "fuel:octane_95": "yes",
                "layer": "1",
                "name": "Tamoil",
                "operator": "Chesseddu Antonio",
                "ref:mise": "17125"
            }
        },
        {
            "type": "way",
            "id": 548950938,
            "timestamp": "2022-10-08T14:13:38Z",
            "version": 4,
            "changeset": 127204301,
            "user": "\u3071 \u3061\u3083\u306b",
            "uid": 16256289,
            "nodes": [
                5302952493,
                5302952492,
                5302952491,
                5302952490,
                5302952493
            ],
            "tags": {
                "amenity": "fuel",
                "brand": "Q8",
                "brand:wikidata": "Q1634762",
                "building": "roof",
                "fuel:diesel": "yes",
                "fuel:octane_95": "yes",
                "layer": "1",
                "name": "Q8",
                "operator": "Fratelli Soro S.N.C.di Soro Giuseppe & C. Che Puo' Agire Sotto La sigla Fratelli Soro Snc",
                "ref:mise": "26778"
            }
        },
        {
            "type": "way",
            "id": 560282877,
            "timestamp": "2022-08-30T20:59:43Z",
            "version": 4,
            "changeset": 125587109,
            "user": "\u3071 \u3061\u3083\u306b",
            "uid": 16256289,
            "nodes": [
                5403241743,
                5403241741,
                3057815619,
                5403241742,
                5403241743
            ],
            "tags": {
                "amenity": "fuel",
                "brand": "Q8",
                "brand:wikidata": "Q1634762",
                "building": "roof",
                "fuel:diesel": "yes",
                "fuel:octane_95": "yes",
                "layer": "1",
                "name": "Q8",
                "operator": "Irventi S.N.C. di Leonardo Ruda e Caterina Ruda",
                "ref:mise": "25499"
            }
        },
        {
            "type": "way",
            "id": 1017462088,
            "timestamp": "2025-10-25T17:22:41Z",
            "version": 3,
            "changeset": 173765889,
            "user": "btcitnet",
            "uid": 22525435,
            "nodes": [
                9384579408,
                9384579409,
                9815789349,
                9384579410,
                9384579411,
                9384579408
            ],
            "tags": {
                "addr:postcode": "07044",
                "addr:street": "Via Sassari",
                "addr:village": "Ittiri",
                "amenity": "fuel",
                "brand": "Tamoil",
                "brand:wikidata": "Q706793",
                "brand:wikipedia": "en:Tamoil",
                "name": "Tamoil"
            }
        },
        {
            "type": "way",
            "id": 1306743178,
            "timestamp": "2025-10-10T11:09:55Z",
            "version": 2,
            "changeset": 173088962,
            "user": "btcitnet",
            "uid": 22525435,
            "nodes": [
                12101934302,
                12101934303,
                12101934304,
                12101934305,
                12101934306,
                12101934307,
                12101934308,
                12101934309,
                12101934302
            ],
            "tags": {
                "addr:city": "Sassari",
                "amenity": "fuel",
                "area": "yes",
                "automated": "yes",
                "brand": "Tamoil",
                "brand:wikidata": "Q706793",
                "compressed_air": "yes",
                "fuel:diesel": "yes",
                "fuel:octane_95": "yes",
                "fuel_service": "full",
                "landuse": "retail",
                "name": "Tamoil",
                "operator": "Centro Tamoil di Zidda Alessandro",
                "ref:mise": "17491"
            }
        },
        {
            "type": "way",
            "id": 1453594670,
            "timestamp": "2025-11-25T14:50:29Z",
            "version": 1,
            "changeset": 175114405,
            "user": "aboc",
            "uid": 21696131,
            "nodes": [
                4476196799,
                13330568443,
                13330568445,
                13330568446,
                13330568444,
                2275098930,
                2422700660,
                2275098933,
                2275098935,
                2275098928,
                2422385688,
                13330568527,
                4476196799
            ],
            "tags": {
                "addr:city": "Sassari",
                "addr:housenumber": "2",
                "addr:postcode": "07100",
                "addr:street": "Via Nenni",
                "check_date": "2024-03-12",
                "contact:facebook": "https://www.facebook.com/hotelmarini",
                "currency:XBT": "yes",
                "description": "Hote, ristorante, centro congressi, parcheggio.",
                "email": "info@hotelmarini.com",
                "name": "Hotel Marini",
                "phone": "+39 079 277282",
                "tourism": "hotel",
                "website": "http://www.hotelmarini.com"
            }
        }
    ],
    "telegram": [
        {
            "telegram": "b-sardegna"
        }
    ]
}