{
    "id": "trieste",
    "name": "Trieste",
    "lng": 45.6460821,
    "lat": 13.7769859,
    "idcomune": 179180,
    "poi": [
        {
            "type": "node",
            "id": 227707967,
            "lat": 45.9567353,
            "lon": 13.4662431,
            "timestamp": "2025-09-30T11:04:18Z",
            "version": 11,
            "changeset": 172655083,
            "user": "btcitnet",
            "uid": 22525435,
            "tags": {
                "addr:city": "Cormons",
                "addr:postcode": "34071",
                "addr:street": "Viale Venezia Giulia",
                "amenity": "fuel",
                "brand": "Q8",
                "brand:wikidata": "Q1634762",
                "fuel:diesel": "yes",
                "fuel:octane_100": "yes",
                "fuel:octane_95": "yes",
                "name": "Q8",
                "operator": "Servizi & Gestioni Italia S.R.L.",
                "ref:mise": "11611"
            }
        },
        {
            "type": "node",
            "id": 228297663,
            "lat": 45.6816568,
            "lon": 13.417065,
            "timestamp": "2025-10-15T18:56:06Z",
            "version": 17,
            "changeset": 173334217,
            "user": "\u0110uro Ji\u0159\u00ed",
            "uid": 14617702,
            "tags": {
                "addr:city": "Grado",
                "addr:postcode": "34073",
                "addr:street": "Via Monfalcone",
                "amenity": "fuel",
                "brand": "Q8",
                "brand:wikidata": "Q1634762",
                "brand:wikipedia": "en:Kuwait Petroleum Corporation",
                "changing_table": "no",
                "check_date": "2025-10-15",
                "compressed_air": "yes",
                "fuel:diesel": "yes",
                "fuel:octane_95": "yes",
                "name": "Q8",
                "opening_hours": "24/7",
                "operator": "Servizi & Gestioni Italia S.R.L.",
                "ref:mise": "23873",
                "self_service": "yes",
                "valves": "schrader",
                "wheelchair": "yes"
            }
        },
        {
            "type": "node",
            "id": 269056028,
            "lat": 45.6669666,
            "lon": 13.7712051,
            "timestamp": "2025-09-30T11:06:55Z",
            "version": 8,
            "changeset": 172655192,
            "user": "btcitnet",
            "uid": 22525435,
            "tags": {
                "addr:city": "Trieste",
                "addr:housenumber": "4/c",
                "addr:postcode": "34135",
                "addr:street": "Via Montorsino",
                "brand": "Conad City",
                "brand:wikidata": "Q57543102",
                "name": "Conad City",
                "opening_hours": "Mo-Sa 07:30-20:00; PH off",
                "shop": "supermarket"
            }
        },
        {
            "type": "node",
            "id": 277577258,
            "lat": 45.6410281,
            "lon": 13.7621303,
            "timestamp": "2025-10-02T06:44:41Z",
            "version": 4,
            "changeset": 172734141,
            "user": "btcitnet",
            "uid": 22525435,
            "tags": {
                "addr:city": "Trieste",
                "addr:housenumber": "26/3",
                "addr:postcode": "34143",
                "addr:street": "Via Vittorio Locchi",
                "brand": "Conad City",
                "brand:wikidata": "Q57543102",
                "name": "Conad City",
                "shop": "supermarket"
            }
        },
        {
            "type": "node",
            "id": 298373862,
            "lat": 45.6495421,
            "lon": 13.7676496,
            "timestamp": "2024-07-17T14:57:58Z",
            "version": 12,
            "changeset": 154062586,
            "user": "macieyw",
            "uid": 19536390,
            "tags": {
                "addr:city": "Trieste",
                "addr:housenumber": "3a",
                "addr:postcode": "34121",
                "addr:street": "Piazza Unit\u00e0 d'Italia",
                "brand": "Spar",
                "brand:wikidata": "Q610492",
                "brand:wikipedia": "en:SPAR (retailer)",
                "fax": "+39 040 3472677",
                "name": "Despar",
                "opening_hours": "Mo-Sa 08:00-20:00; PH off; Su 09:00-19:00",
                "operator": "Aspiag Service S.r.l.",
                "phone": "+39 040 631064",
                "shop": "supermarket",
                "website": "https://www.despar.it/it/punto-vendita-despar/812/trieste/",
                "wheelchair": "yes"
            }
        },
        {
            "type": "node",
            "id": 599041721,
            "lat": 45.7070495,
            "lon": 13.8624686,
            "timestamp": "2025-10-04T18:25:16Z",
            "version": 11,
            "changeset": 172841856,
            "user": "btcitnet",
            "uid": 22525435,
            "tags": {
                "addr:city": "Se\u017eana",
                "addr:housenumber": "5",
                "addr:postcode": "6210",
                "addr:street": "Cesta na Lenivec",
                "brand": "Spar",
                "brand:wikidata": "Q610492",
                "name": "Spar",
                "opening_hours": "Mo-Sa 08:00-20:00",
                "operator": "Spar Slovenija d.o.o.",
                "phone": "+386 5 7300182",
                "shop": "supermarket",
                "website": "https://www.spar.si/",
                "wheelchair": "yes"
            }
        },
        {
            "type": "node",
            "id": 798808119,
            "lat": 45.6588911,
            "lon": 13.7904933,
            "timestamp": "2024-07-09T07:34:49Z",
            "version": 6,
            "changeset": 153732140,
            "user": "paulbrunner",
            "uid": 15541433,
            "tags": {
                "addr:city": "Trieste",
                "addr:housenumber": "111",
                "addr:postcode": "34127",
                "addr:street": "Via Fabio Severo",
                "brand": "Spar",
                "brand:wikidata": "Q610492",
                "brand:wikipedia": "en:SPAR (retailer)",
                "check_date": "2024-07-09",
                "name": "Despar",
                "opening_hours": "Mo-Sa 08:00-20:00; Su 08:30-13:00",
                "shop": "supermarket"
            }
        },
        {
            "type": "node",
            "id": 854384827,
            "lat": 45.6545923,
            "lon": 13.800988,
            "timestamp": "2025-10-04T18:26:07Z",
            "version": 4,
            "changeset": 172841880,
            "user": "btcitnet",
            "uid": 22525435,
            "tags": {
                "addr:city": "Trieste",
                "addr:housenumber": "14",
                "addr:postcode": "34128",
                "addr:street": "Via del Donatello",
                "brand": "Spar",
                "brand:wikidata": "Q610492",
                "brand:wikipedia": "en:SPAR (retailer)",
                "name": "Despar",
                "shop": "supermarket"
            }
        },
        {
            "type": "node",
            "id": 854478781,
            "lat": 45.6554241,
            "lon": 13.802841,
            "timestamp": "2025-10-04T18:27:00Z",
            "version": 4,
            "changeset": 172841919,
            "user": "btcitnet",
            "uid": 22525435,
            "tags": {
                "addr:city": "Trieste",
                "addr:housenumber": "19",
                "addr:postcode": "34123",
                "addr:street": "Viale Raffaello Sanzio",
                "brand": "Spar",
                "brand:wikidata": "Q610492",
                "brand:wikipedia": "en:SPAR (retailer)",
                "name": "Despar",
                "shop": "supermarket"
            }
        },
        {
            "type": "node",
            "id": 973494349,
            "lat": 45.6144709,
            "lon": 13.8246522,
            "timestamp": "2024-10-01T07:01:33Z",
            "version": 7,
            "changeset": 157324123,
            "user": "Flight777",
            "uid": 9925732,
            "tags": {
                "addr:city": "Trieste",
                "addr:housenumber": "7",
                "addr:postcode": "34147",
                "addr:street": "Via Edgardo Morpurgo",
                "branch": "Supermercato",
                "brand": "Conad",
                "brand:wikidata": "Q639075",
                "fax": "+39 040 8324861",
                "name": "Conad",
                "opening_hours": "Mo-Sa 07:30-20:00, Su 08:30-20:00; PH off",
                "operator": "Commercianti Indipendenti Associati Soc. Coop.",
                "phone": "+39 040 281173",
                "ref:vatin": "IT01269590327",
                "shop": "supermarket",
                "website": "https://www.conad.it/"
            }
        },
        {
            "type": "node",
            "id": 1115508564,
            "lat": 45.7505979,
            "lon": 13.6718323,
            "timestamp": "2024-11-03T18:55:38Z",
            "version": 9,
            "changeset": 158712557,
            "user": "mircozorzo",
            "uid": 224342,
            "tags": {
                "addr:city": "Duino Aurisina / Devin - Nabre\u017eina",
                "addr:housenumber": "106b",
                "addr:place": "Aurisina / Nabre\u017eina",
                "addr:postcode": "34011",
                "branch": "Market Kukanja",
                "brand": "Spar",
                "brand:wikidata": "Q610492",
                "email": "info@kukanja.it",
                "name": "Despar",
                "official_name": "Kukanja Pavel",
                "opening_hours": "Mo,We 08:00-13:00; Tu-Sa 08:00-13:00,16:00-19:00; PH off",
                "phone": "+39 040 200172",
                "ref:vatin": "IT01076570322",
                "shop": "supermarket",
                "website": "http://www.kukanja.it/"
            }
        },
        {
            "type": "node",
            "id": 1180457503,
            "lat": 45.6247689,
            "lon": 13.7920532,
            "timestamp": "2025-10-09T15:10:12Z",
            "version": 6,
            "changeset": 173056052,
            "user": "damjang",
            "uid": 97922,
            "tags": {
                "addr:city": "Trieste",
                "addr:housenumber": "6",
                "addr:postcode": "34146",
                "addr:street": "Via del Carpineto",
                "brand": "Spar",
                "brand:wikidata": "Q610492",
                "brand:wikipedia": "en:SPAR (retailer)",
                "fax": "+39 040 8332853",
                "name": "Despar",
                "operator": "DESPAR",
                "phone": "+39 040 380309",
                "shop": "supermarket",
                "website": "https://www.despar.it/it/punto-vendita-despar/950/trieste/",
                "wheelchair": "yes"
            }
        },
        {
            "type": "node",
            "id": 1561401046,
            "lat": 45.646771,
            "lon": 13.7865979,
            "timestamp": "2025-09-19T21:33:00Z",
            "version": 3,
            "changeset": 172182923,
            "user": "alessandrocarmeli",
            "uid": 12294600,
            "tags": {
                "addr:city": "Trieste",
                "addr:country": "IT",
                "addr:housenumber": "7",
                "addr:postcode": "34141",
                "addr:street": "Via dei Leo",
                "brand": "Spar",
                "brand:wikidata": "Q610492",
                "brand:wikipedia": "da:Eurospar",
                "fax": "+39 040 3728097",
                "name": "Eurospar",
                "official_name": "Aspiag Service S.r.l.",
                "opening_hours": "Mo-Sa 09:00-19:30; Su 09:00-13:00,16:00-19:00",
                "phone": "+39 040 3728025",
                "ref:vatin": "IT00882800212",
                "shop": "supermarket",
                "website": "http://www.edespar.it/"
            }
        },
        {
            "type": "node",
            "id": 1569158341,
            "lat": 45.6476628,
            "lon": 13.7796293,
            "timestamp": "2025-10-04T18:28:48Z",
            "version": 6,
            "changeset": 172841975,
            "user": "btcitnet",
            "uid": 22525435,
            "tags": {
                "addr:city": "Trieste",
                "addr:housenumber": "7",
                "addr:postcode": "34129",
                "addr:street": "Largo della Barriera Vecchia",
                "brand": "Spar",
                "brand:wikidata": "Q610492",
                "brand:wikipedia": "da:Eurospar",
                "name": "Eurospar",
                "shop": "supermarket"
            }
        },
        {
            "type": "node",
            "id": 1598955966,
            "lat": 45.6501189,
            "lon": 13.7701515,
            "timestamp": "2025-10-26T18:19:32Z",
            "version": 5,
            "changeset": 173807351,
            "user": "Aiman",
            "uid": 67550,
            "tags": {
                "addr:city": "Trieste",
                "addr:housenumber": "5",
                "addr:postcode": "34122",
                "addr:street": "Piazza della Borsa",
                "brand": "Calzedonia",
                "brand:wikidata": "Q1027874",
                "brand:wikipedia": "en:Calzedonia",
                "clothes": "underwear",
                "name": "Calzedonia",
                "shop": "clothes",
                "wheelchair": "limited"
            }
        },
        {
            "type": "node",
            "id": 1620381481,
            "lat": 45.6502474,
            "lon": 13.7748534,
            "timestamp": "2025-10-28T13:26:48Z",
            "version": 6,
            "changeset": 173883641,
            "user": "Aiman",
            "uid": 67550,
            "tags": {
                "addr:city": "Trieste",
                "addr:postcode": "34122",
                "addr:state": "36",
                "addr:street": "Via Giuseppe Mazzini",
                "brand": "La Feltrinelli",
                "brand:wikidata": "Q96311190",
                "kids_area": "yes",
                "level": "0",
                "name": "La Feltrinelli",
                "opening_hours": "Mo-Sa 09:30-19:30; Su 10:00-13:00,15:30-19:30; PH closed",
                "second_hand": "no",
                "shop": "books",
                "wheelchair": "yes"
            }
        },
        {
            "type": "node",
            "id": 1725617859,
            "lat": 45.7914486,
            "lon": 14.3636105,
            "timestamp": "2022-05-30T06:08:19Z",
            "version": 6,
            "changeset": 121692918,
            "user": "Flight777",
            "uid": 9925732,
            "tags": {
                "addr:city": "Cerknica",
                "addr:housenumber": "11",
                "addr:postcode": "1380",
                "addr:street": "Cesta na Jezero",
                "brand": "Spar",
                "brand:wikidata": "Q610492",
                "name": "Spar",
                "opening_hours": "Mo-Sa 07:00-20:00; Su 07:00-12:00",
                "shop": "supermarket"
            }
        },
        {
            "type": "node",
            "id": 1801570428,
            "lat": 45.6496534,
            "lon": 13.773408,
            "timestamp": "2025-10-02T10:30:19Z",
            "version": 5,
            "changeset": 172742706,
            "user": "btcitnet",
            "uid": 22525435,
            "tags": {
                "addr:city": "Trieste",
                "addr:housenumber": "11",
                "addr:postcode": "34122",
                "addr:street": "Corso Italia",
                "brand": "Intimissimi",
                "brand:wikidata": "Q305404",
                "brand:wikipedia": "en:Intimissimi",
                "clothes": "underwear",
                "name": "Intimissimi",
                "shop": "clothes"
            }
        },
        {
            "type": "node",
            "id": 2061434733,
            "lat": 45.5439948,
            "lon": 13.7414006,
            "timestamp": "2025-10-04T21:12:36Z",
            "version": 6,
            "changeset": 172846979,
            "user": "btcitnet",
            "uid": 22525435,
            "tags": {
                "addr:city": "Koper",
                "addr:housenumber": "3A",
                "addr:postcode": "6000",
                "addr:street": "Ankaranska cesta / Via Ancarano",
                "brand": "Spar",
                "brand:wikidata": "Q610492",
                "brand:wikipedia": "en:SPAR (retailer)",
                "name": "Spar",
                "shop": "supermarket",
                "wheelchair": "yes"
            }
        },
        {
            "type": "node",
            "id": 2213309239,
            "lat": 45.6521516,
            "lon": 13.7802433,
            "timestamp": "2025-01-03T15:54:41Z",
            "version": 6,
            "changeset": 160955299,
            "user": "mpbin",
            "uid": 21850090,
            "tags": {
                "addr:city": "Trieste",
                "addr:housenumber": "20",
                "addr:postcode": "34125",
                "addr:street": "Viale Venti Settembre",
                "brand": "OVS",
                "brand:wikidata": "Q2042514",
                "brand:wikipedia": "en:OVS (company)",
                "level": "0,1",
                "name": "OVS",
                "opening_hours": "Mo-Sa 09:30-20:00, Su 10:00-19:30; PH off",
                "operator": "OVS",
                "phone": "+39 040 361258",
                "ref:vatin": "IT04240010274",
                "shop": "clothes",
                "website": "https://negozi.ovs.it/"
            }
        },
        {
            "type": "node",
            "id": 2420102106,
            "lat": 45.2237545,
            "lon": 13.5974524,
            "timestamp": "2024-07-02T20:22:04Z",
            "version": 10,
            "changeset": 153475454,
            "user": "paulbrunner",
            "uid": 15541433,
            "tags": {
                "addr:city": "Pore\u010d",
                "addr:country": "HR",
                "addr:housenumber": "1a",
                "addr:postcode": "52440",
                "addr:street": "Rade Kon\u010dara",
                "brand": "Spar",
                "brand:wikidata": "Q610492",
                "brand:wikipedia": "en:SPAR (retailer)",
                "check_date": "2024-07-02",
                "name": "Spar",
                "opening_hours": "Mo-Sa 08:00-21:00; Su 08:00-18:00",
                "payment:american_express": "yes",
                "payment:cash": "yes",
                "payment:diners_club": "yes",
                "payment:maestro": "yes",
                "payment:mastercard": "yes",
                "payment:visa": "yes",
                "payment:visa_debit": "yes",
                "payment:visa_electron": "yes",
                "phone": "+385 52 427 757",
                "shop": "supermarket",
                "wheelchair": "yes"
            }
        },
        {
            "type": "node",
            "id": 2466490251,
            "lat": 45.9432347,
            "lon": 13.6204236,
            "timestamp": "2025-10-27T18:51:20Z",
            "version": 10,
            "changeset": 173852907,
            "user": "btcitnet",
            "uid": 22525435,
            "tags": {
                "addr:city": "Gorizia",
                "addr:housenumber": "92",
                "addr:postcode": "34170",
                "addr:street": "Corso Giuseppe Verdi",
                "brand": "OVS Kids",
                "brand:wikidata": "Q2042514",
                "clothes": "children",
                "name": "OVS Kids",
                "opening_hours": "Mo-Fr 08:30-12:30,15:30-19:30; Sa 09:00-12:30",
                "phone": "+39 0481 531968",
                "shop": "clothesaddr:postcode=34170"
            }
        },
        {
            "type": "node",
            "id": 2597261045,
            "lat": 45.6497704,
            "lon": 13.7744685,
            "timestamp": "2021-11-21T17:04:36Z",
            "version": 4,
            "changeset": 114065659,
            "user": "alessandrocarmeli",
            "uid": 12294600,
            "tags": {
                "addr:city": "Trieste",
                "addr:housenumber": "18",
                "addr:postcode": "34122",
                "addr:street": "Corso Italia",
                "brand": "Upim",
                "brand:wikidata": "Q1414836",
                "brand:wikipedia": "it:UPIM",
                "name": "Upim",
                "phone": "+39 040 638192",
                "shop": "department_store",
                "website": "https://www.upim.com/"
            }
        },
        {
            "type": "node",
            "id": 2793009487,
            "lat": 45.6528663,
            "lon": 13.7708434,
            "timestamp": "2025-10-04T21:13:41Z",
            "version": 6,
            "changeset": 172847005,
            "user": "btcitnet",
            "uid": 22525435,
            "tags": {
                "addr:city": "Trieste",
                "addr:housenumber": "6",
                "addr:postcode": "34132",
                "addr:street": "Via Gioachino Rossini",
                "brand": "Spar",
                "brand:wikidata": "Q610492",
                "brand:wikipedia": "en:SPAR (retailer)",
                "check_date:opening_hours": "2023-10-28",
                "name": "Despar Express",
                "opening_hours": "Mo-Sa 08:00-20:00; Su 08:30-19:30",
                "shop": "supermarket"
            }
        },
        {
            "type": "node",
            "id": 3424506658,
            "lat": 45.6768714,
            "lon": 13.3874572,
            "timestamp": "2025-08-01T20:18:58Z",
            "version": 11,
            "changeset": 169836559,
            "user": "mtmail",
            "uid": 8339,
            "tags": {
                "addr:city": "Grado",
                "addr:housenumber": "35c",
                "addr:postcode": "34073",
                "addr:province": "Gorizia",
                "addr:street": "Viale Europa Unita",
                "brand": "Spar",
                "brand:wikidata": "Q610492",
                "brand:wikipedia": "en:Spar (retailer)",
                "contact:phone": "+39 0431 81237",
                "name": "Despar",
                "opening_hours": "Mo-Su 08:00-20:00",
                "shop": "supermarket",
                "website": "https://www.despar.it/"
            }
        },
        {
            "type": "node",
            "id": 3424506661,
            "lat": 45.6798578,
            "lon": 13.4036428,
            "timestamp": "2025-10-13T16:25:27Z",
            "version": 15,
            "changeset": 173236768,
            "user": "\u0110uro Ji\u0159\u00ed",
            "uid": 14617702,
            "tags": {
                "addr:city": "Grado",
                "addr:housenumber": "28",
                "addr:postcode": "34073",
                "addr:street": "Viale John Fitzgerald Kennedy",
                "brand": "Spar",
                "brand:wikidata": "Q610492",
                "brand:wikipedia": "en:SPAR (retailer)",
                "check_date": "2025-10-13",
                "check_date:diet:gluten_free": "2025-10-13",
                "diet:gluten_free": "yes",
                "internet_access": "no",
                "name": "Despar",
                "opening_hours": "Mo-Su 08:00-20:00",
                "phone": "+39 390 431 8349",
                "shop": "supermarket",
                "website": "https://www.despar.it/it/punto-vendita-despar/68/grado/",
                "wheelchair": "yes"
            }
        },
        {
            "type": "node",
            "id": 3451875267,
            "lat": 45.9428988,
            "lon": 13.6209136,
            "timestamp": "2022-10-17T11:33:43Z",
            "version": 6,
            "changeset": 127666944,
            "user": "\u0110uro Ji\u0159\u00ed",
            "uid": 14617702,
            "tags": {
                "addr:city": "Gorizia",
                "addr:housenumber": "127",
                "addr:postcode": "34170",
                "addr:street": "Corso Giuseppe Verdi",
                "brand": "Spar",
                "brand:wikidata": "Q610492",
                "brand:wikipedia": "en:Spar (retailer)",
                "fax": "+39 0481 546519",
                "name": "Despar",
                "opening_hours": "Mo-Sa 08:00-20:00, Su 08:30-13:30",
                "opening_hours:url": "https://www.despar.it/it/punto-vendita-despar/696/gorizia/",
                "operator": "Despar Futura A.C.",
                "phone": "+39 0481 547186",
                "shop": "supermarket"
            }
        },
        {
            "type": "node",
            "id": 3589764218,
            "lat": 45.5443347,
            "lon": 13.7331598,
            "timestamp": "2022-05-07T15:44:11Z",
            "version": 6,
            "changeset": 120673378,
            "user": "streetcreds",
            "uid": 6533699,
            "tags": {
                "addr:city": "Koper / Capodistria",
                "addr:housenumber": "3",
                "addr:postcode": "6000",
                "addr:street": "Ferrarska ulica / Via Ferrara",
                "brand": "Spar",
                "brand:wikidata": "Q610492",
                "brand:wikipedia": "en:Spar (retailer)",
                "check_date:opening_hours": "2022-05-07",
                "name": "Spar",
                "opening_hours": "Mo-Sa 07:00-20:00",
                "shop": "supermarket",
                "wheelchair": "yes"
            }
        },
        {
            "type": "node",
            "id": 3633903157,
            "lat": 45.6474287,
            "lon": 13.765979,
            "timestamp": "2024-08-13T21:00:34Z",
            "version": 6,
            "changeset": 155214570,
            "user": "mauropili",
            "uid": 1496865,
            "tags": {
                "addr:city": "Trieste",
                "addr:housenumber": "14",
                "addr:postcode": "34124",
                "addr:street": "Via di Cavana",
                "amenity": "restaurant",
                "branch": "Trieste",
                "contact:facebook": "https://www.facebook.com/ilmelogranotrieste.online/",
                "currency:XBT": "yes",
                "name": "Il Melograno",
                "payment:lightning": "yes",
                "payment:onchain": "yes",
                "phone": "+39 040 9653254",
                "survey:date": "2024-07-09",
                "website": "https://ilmelograno.online/"
            }
        },
        {
            "type": "node",
            "id": 3633925351,
            "lat": 45.653264,
            "lon": 13.7833141,
            "timestamp": "2025-03-20T17:31:00Z",
            "version": 5,
            "changeset": 163873777,
            "user": "Comino",
            "uid": 6794624,
            "tags": {
                "addr:city": "Trieste",
                "addr:housenumber": "3",
                "addr:postcode": "34126",
                "addr:street": "Via Enea Silvio Piccolomini",
                "check_date:currency:XBT": "2025-03-20",
                "contact:email": "busetti.andrea@yahoo.it",
                "currency:EUR": "yes",
                "currency:XBT": "yes",
                "name": "Avvocato Andrea Busetti",
                "office": "lawyer",
                "opening_hours": "Mo-Fr 08:00-18:00",
                "payment:lightning": "yes",
                "payment:lightning_contactless": "no",
                "payment:onchain": "yes",
                "phone": "+39 040 9778255"
            }
        },
        {
            "type": "node",
            "id": 3652736314,
            "lat": 45.8111161,
            "lon": 13.5198539,
            "timestamp": "2025-10-14T15:22:51Z",
            "version": 5,
            "changeset": 173281597,
            "user": "Comino",
            "uid": 6794624,
            "tags": {
                "addr:city": "Monfalcone",
                "addr:housenumber": "1f",
                "addr:postcode": "34074",
                "addr:street": "Via Aquileia",
                "amenity": "dentist",
                "check_date": "2025-10-14",
                "check_date:currency:XBT": "2025-10-14",
                "contact:facebook": "MedicalCenterPoliambulatorio",
                "currency:XBT": "yes",
                "email": "info.medicalcenter.srl@gmail.com",
                "healthcare": "dentist",
                "healthcare:speciality": "dentista;orthodontics",
                "name": "Medical Center Poliambulatorio",
                "payment:lightning": "yes",
                "payment:lightning_contactless": "no",
                "payment:onchain": "yes",
                "phone": "+39 0481 712329",
                "survey:date": "2024-02-27"
            }
        },
        {
            "type": "node",
            "id": 3652739203,
            "lat": 45.8118143,
            "lon": 13.5147518,
            "timestamp": "2025-10-08T13:07:44Z",
            "version": 7,
            "changeset": 173004076,
            "user": "btcitnet",
            "uid": 22525435,
            "tags": {
                "addr:city": "Monfalcone",
                "addr:housenumber": "11",
                "addr:postcode": "34074",
                "addr:street": "Via San Nicol\u00f2",
                "addr:unit": "p.1",
                "air_conditioning": "yes",
                "check_date": "2024-02-09",
                "currency:XBT": "yes",
                "email": "info@bbdaleo.it",
                "guest_house": "bed_and_breakfast",
                "internet_access": "wlan",
                "internet_access:fee": "no",
                "name": "B&B da Leo",
                "operator": "Marchione Christian",
                "payment:cash": "yes",
                "phone": "+393519373736",
                "reservation": "required",
                "rooms": "2",
                "start_date": "2012-06-03",
                "tourism": "guest_house",
                "website": "https://www.bbdaleo.it"
            }
        },
        {
            "type": "node",
            "id": 3652742752,
            "lat": 45.8084141,
            "lon": 13.5370824,
            "timestamp": "2025-11-09T09:36:51Z",
            "version": 4,
            "changeset": 174408312,
            "user": "confusedbuffalo",
            "uid": 242345,
            "tags": {
                "addr:city": "Monfalcone",
                "addr:housenumber": "13",
                "addr:postcode": "34074",
                "addr:street": "Via Enrico Toti",
                "currency:XBT": "yes",
                "name": "Elisa di Ilio Avvocato",
                "office": "lawyer",
                "payment:lightning": "yes",
                "phone": "+39 0481 286893",
                "survey:date": "2023-11-01",
                "website": "https://www.elisadiilio.it/"
            }
        },
        {
            "type": "node",
            "id": 3652772266,
            "lat": 45.7985397,
            "lon": 13.5268298,
            "timestamp": "2025-10-22T19:27:03Z",
            "version": 4,
            "changeset": 173644226,
            "user": "Comino",
            "uid": 6794624,
            "tags": {
                "addr:city": "Monfalcone",
                "addr:housenumber": "38/40",
                "addr:postcode": "34074",
                "addr:street": "Via Grado",
                "brand": "Aprilia;Moto Guzzi;Piaggio;Vespa",
                "check_date": "2025-10-22",
                "check_date:currency:XBT": "2025-10-22",
                "contact:facebook": "dagrimoto",
                "currency:XBT": "yes",
                "email": "info@motodagri.com",
                "name": "Dagri",
                "operator": "Mauro Dagri",
                "payment:lightning": "yes",
                "payment:lightning_contactless": "no",
                "payment:onchain": "yes",
                "phone": "+39 0481 484837",
                "repair": "yes",
                "second_hand": "yes",
                "shop": "motorcycle",
                "survey:date": "2023-10-16",
                "website": "https://www.motodagri.com/"
            }
        },
        {
            "type": "node",
            "id": 3652778478,
            "lat": 45.8101544,
            "lon": 13.5240874,
            "timestamp": "2025-10-20T11:14:42Z",
            "version": 6,
            "changeset": 173531082,
            "user": "Comino",
            "uid": 6794624,
            "tags": {
                "addr:city": "Monfalcone",
                "addr:housenumber": "51",
                "addr:postcode": "34074",
                "addr:street": "Via Quattro Novembre",
                "check_date": "2025-10-14",
                "check_date:currency:XBT": "2025-10-14",
                "contact:facebook": "lolas.monfalcone",
                "contact:instagram": "lolassensualshop",
                "currency:XBT": "yes",
                "email": "info@lolas-sexy.com",
                "name": "Lola's Sexy Shop",
                "operator": "Roberto Antonelli",
                "payment:lightning": "yes",
                "payment:lightning_contactless": "no",
                "payment:onchain": "no",
                "phone": "+39 481 710 379",
                "shop": "erotic",
                "survey:date": "2023-11-29",
                "website": "https://www.sexyshoplolas.it/"
            }
        },
        {
            "type": "node",
            "id": 3652805915,
            "lat": 45.8094404,
            "lon": 13.5310711,
            "timestamp": "2025-10-22T19:34:34Z",
            "version": 5,
            "changeset": 173644457,
            "user": "Comino",
            "uid": 6794624,
            "tags": {
                "addr:city": "Monfalcone",
                "addr:housenumber": "80",
                "addr:postcode": "34074",
                "addr:street": "Via Duca d'Aosta",
                "check_date": "2025-10-22",
                "check_date:currency:XBT": "2025-10-22",
                "contact:facebook": "gioielleriacernigoi",
                "contact:instagram": "gioielleriacernigoi",
                "currency:XBT": "yes",
                "email": "info@gioielleriacernigoi.com",
                "name": "Gioielleria Monfalcone Cernigoi",
                "opening_hours": "Tu-Sa 09:00-12:30, 15:30-19:15",
                "payment:lightning": "yes",
                "payment:lightning_contactless": "no",
                "payment:onchain": "yes",
                "phone": "+39 0481 410512",
                "shop": "jewelry",
                "survey:date": "2023-11-29",
                "website": "https://www.gioielleriacernigoi.com/"
            }
        },
        {
            "type": "node",
            "id": 3661324188,
            "lat": 45.6908885,
            "lon": 13.1460433,
            "timestamp": "2024-10-01T14:09:43Z",
            "version": 4,
            "changeset": 157338476,
            "user": "\u0110uro Ji\u0159\u00ed",
            "uid": 14617702,
            "tags": {
                "addr:city": "Lignano Sabbiadoro",
                "addr:housenumber": "16",
                "addr:postcode": "33054",
                "addr:street": "Via Udine",
                "branch": "Uomo",
                "brand": "Intimissimi",
                "brand:wikidata": "Q305404",
                "clothes": "underwear",
                "name": "Intimissimi",
                "shop": "clothes",
                "wheelchair": "no"
            }
        },
        {
            "type": "node",
            "id": 3661329062,
            "lat": 45.6909429,
            "lon": 13.145891,
            "timestamp": "2024-10-08T06:37:07Z",
            "version": 5,
            "changeset": 157609426,
            "user": "Flight777",
            "uid": 9925732,
            "tags": {
                "addr:city": "Lignano Sabbiadoro",
                "addr:housenumber": "15",
                "addr:postcode": "33054",
                "addr:street": "Via Udine",
                "brand": "Intimissimi",
                "brand:wikidata": "Q305404",
                "clothes": "underwear",
                "name": "Intimissimi",
                "shop": "clothes",
                "wheelchair": "no"
            }
        },
        {
            "type": "node",
            "id": 3671580384,
            "lat": 45.4330354,
            "lon": 13.5218636,
            "timestamp": "2022-05-13T13:46:00Z",
            "version": 2,
            "changeset": 120937298,
            "user": "Flight777",
            "uid": 9925732,
            "tags": {
                "addr:city": "Umag",
                "addr:postcode": "52470",
                "addr:street": "Ulica 1. Svibnja",
                "brand": "United Colors of Benetton",
                "brand:wikidata": "Q817139",
                "name": "United Colors of Benetton",
                "operator": "Benetton",
                "shop": "clothes",
                "short_name": "Benetton"
            }
        },
        {
            "type": "node",
            "id": 3706386716,
            "lat": 45.8883313,
            "lon": 13.3127098,
            "timestamp": "2025-08-01T20:03:21Z",
            "version": 9,
            "changeset": 169836012,
            "user": "mtmail",
            "uid": 8339,
            "tags": {
                "addr:city": "Bagnaria Arsa",
                "addr:country": "IT",
                "addr:postcode": "33050",
                "addr:province": "Udine",
                "addr:street": "Via Enrico Mattei",
                "brand": "Spar",
                "brand:wikidata": "Q610492",
                "check_date": "2025-04-18",
                "contact:website": "https://www.despar.it/",
                "name": "Interspar",
                "opening_hours": "Mo-Sa 08:30-20:00",
                "phone": "+39 0432 929586",
                "shop": "supermarket",
                "wheelchair": "yes"
            }
        },
        {
            "type": "node",
            "id": 3729193076,
            "lat": 45.8068527,
            "lon": 13.5039532,
            "timestamp": "2025-11-09T09:36:51Z",
            "version": 4,
            "changeset": 174408312,
            "user": "confusedbuffalo",
            "uid": 242345,
            "tags": {
                "addr:city": "Staranzano",
                "addr:housenumber": "6",
                "addr:postcode": "34079",
                "addr:street": "Via Giacomo Matteotti",
                "currency:XBT": "yes",
                "guest_house": "bed_and_breakfast",
                "internet_access": "yes",
                "internet_access:fee": "no",
                "name": "B&Baichin",
                "payment:lightning": "yes",
                "payment:onchain": "no",
                "phone": "+39 339 437 3962",
                "rooms": "3",
                "survey:date": "2023-11-01",
                "tourism": "guest_house",
                "website": "https://baichin.bedsandhotels.com/"
            }
        },
        {
            "type": "node",
            "id": 3800010516,
            "lat": 45.9430348,
            "lon": 13.6205619,
            "timestamp": "2025-01-15T23:04:24Z",
            "version": 3,
            "changeset": 161398668,
            "user": "DnaX",
            "uid": 69259,
            "tags": {
                "addr:city": "Gorizia",
                "addr:housenumber": "129",
                "addr:postcode": "34170",
                "addr:street": "Corso Giuseppe Verdi",
                "brand": "Upim",
                "brand:wikidata": "Q1414836",
                "name": "Upim",
                "shop": "department_store"
            }
        },
        {
            "type": "node",
            "id": 3800033461,
            "lat": 45.9493005,
            "lon": 13.6280424,
            "timestamp": "2024-11-21T14:43:09Z",
            "version": 4,
            "changeset": 159413044,
            "user": "mpbin",
            "uid": 21850090,
            "tags": {
                "addr:city": "Gorizia",
                "addr:housenumber": "6",
                "addr:postcode": "34170",
                "addr:street": "Piazza De Amicis",
                "contact:facebook": "https://www.facebook.com/people/Macelleria-Klavcic/61551526924810/",
                "currency:XBT": "yes",
                "name": "Klavcic Giovanni",
                "payment:lightning": "yes",
                "payment:onchain": "yes",
                "phone": "+39 0481 393011",
                "shop": "butcher",
                "survey:date": "2024-11-15"
            }
        },
        {
            "type": "node",
            "id": 3800034267,
            "lat": 45.9438531,
            "lon": 13.6208566,
            "timestamp": "2025-01-15T23:04:24Z",
            "version": 4,
            "changeset": 161398668,
            "user": "DnaX",
            "uid": 69259,
            "tags": {
                "addr:city": "Gorizia",
                "addr:housenumber": "66",
                "addr:postcode": "34170",
                "addr:street": "Corso Giuseppe Verdi",
                "brand": "Calzedonia",
                "brand:wikidata": "Q1027874",
                "name": "Calzedonia",
                "shop": "clothes"
            }
        },
        {
            "type": "node",
            "id": 3800034527,
            "lat": 45.9437475,
            "lon": 13.6207796,
            "timestamp": "2025-01-15T23:04:24Z",
            "version": 4,
            "changeset": 161398668,
            "user": "DnaX",
            "uid": 69259,
            "tags": {
                "addr:city": "Gorizia",
                "addr:housenumber": "70",
                "addr:postcode": "34170",
                "addr:street": "Corso Giuseppe Verdi",
                "brand": "Intimissimi",
                "brand:wikidata": "Q305404",
                "clothes": "underwear",
                "name": "Intimissimi",
                "shop": "clothes"
            }
        },
        {
            "type": "node",
            "id": 4069049389,
            "lat": 45.6411232,
            "lon": 13.7899271,
            "timestamp": "2025-05-18T22:07:09Z",
            "version": 3,
            "changeset": 166450429,
            "user": "alessandrocarmeli",
            "uid": 12294600,
            "tags": {
                "addr:city": "Trieste",
                "addr:housenumber": "9/1",
                "addr:postcode": "34138",
                "addr:street": "Via Pier Paolo Vergerio",
                "brand": "Conad City",
                "brand:wikidata": "Q57543102",
                "name": "Conad City",
                "opening_hours": "Tu-Sa 09:00-17:30; PH off",
                "phone": "+39 040 391893",
                "ref:vatin": "IT01268070321",
                "shop": "supermarket",
                "website": "http://www.novacoopts.it/"
            }
        },
        {
            "type": "node",
            "id": 4370249055,
            "lat": 45.652322,
            "lon": 13.779922,
            "timestamp": "2025-11-17T07:45:20Z",
            "version": 9,
            "changeset": 174759026,
            "user": "ArchieGoodwin",
            "uid": 23514415,
            "tags": {
                "addr:city": "Trieste",
                "addr:housenumber": "15",
                "addr:postcode": "34125",
                "addr:street": "Via Cesare Battisti",
                "brand": "Conad City",
                "brand:wikidata": "Q57543102",
                "brand:wikipedia": "it:Conad",
                "fax": "+39 040 7600974",
                "level": "-1",
                "name": "Conad City",
                "opening_hours": "Mo-Sa 07:00-20:30; Su 08:30-13:30",
                "operator": "Dea Supermercati S.n.c.",
                "phone": "+39 040 370636",
                "ref:vatin": "IT02845960307",
                "shop": "supermarket",
                "website": "https://www.conad.it/conad/home/puntivendita/dettaglio.html?idPdv=7231"
            }
        },
        {
            "type": "node",
            "id": 4450139128,
            "lat": 45.8322901,
            "lon": 13.2092134,
            "timestamp": "2022-04-29T23:33:06Z",
            "version": 2,
            "changeset": 120367903,
            "user": "Axeldt",
            "uid": 6504197,
            "tags": {
                "addr:city": "San Giorgio di Nogaro",
                "addr:postcode": "33058",
                "addr:street": "Via Roma",
                "brand": "Spar",
                "brand:wikidata": "Q610492",
                "name": "Despar",
                "shop": "supermarket",
                "source": "survey"
            }
        },
        {
            "type": "node",
            "id": 4745265585,
            "lat": 45.6523826,
            "lon": 13.7823748,
            "timestamp": "2025-07-29T16:27:45Z",
            "version": 6,
            "changeset": 169682450,
            "user": "Aiman",
            "uid": 67550,
            "tags": {
                "addr:city": "Trieste",
                "addr:housenumber": "28",
                "addr:street": "Viale Venti Settembre",
                "baby_feeding": "no",
                "brand": "Spar",
                "brand:wikidata": "Q610492",
                "brand:wikipedia": "en:SPAR (retailer)",
                "check_date:opening_hours": "2024-03-16",
                "kids_area": "no",
                "level": "0",
                "name": "Despar",
                "opening_hours": "Su 08:30-13:00; Mo-Sa 08:00-20:00",
                "operator": "Spar",
                "organic": "yes",
                "shop": "supermarket",
                "wheelchair": "yes"
            }
        },
        {
            "type": "node",
            "id": 4844248321,
            "lat": 45.6503203,
            "lon": 13.7697097,
            "timestamp": "2025-11-09T09:36:51Z",
            "version": 8,
            "changeset": 174408312,
            "user": "confusedbuffalo",
            "uid": 242345,
            "tags": {
                "addr:city": "Trieste",
                "addr:housenumber": "14",
                "addr:postcode": "34121",
                "addr:street": "Piazza della Borsa",
                "brand": "Doppelg\u00e4nger",
                "brand:wikidata": "Q117451227",
                "check_date:currency:XBT": "2023-05-13",
                "currency:XBT": "yes",
                "name": "Doppelg\u00e4nger",
                "payment:lightning": "no",
                "payment:lightning_contactless": "no",
                "payment:onchain": "yes",
                "phone": "+39 040 233 7190",
                "shop": "clothes"
            }
        },
        {
            "type": "node",
            "id": 5050032079,
            "lat": 45.817053,
            "lon": 13.2136673,
            "timestamp": "2025-10-27T20:39:11Z",
            "version": 7,
            "changeset": 173856506,
            "user": "\u0110uro Ji\u0159\u00ed",
            "uid": 14617702,
            "tags": {
                "addr:city": "San Giorgio di Nogaro",
                "addr:hamlet": "Villaggio Giuliano",
                "addr:housenumber": "12",
                "addr:postcode": "33058",
                "addr:street": "Via Enrico Fermi",
                "addr:village": "Porto Nogaro",
                "brand": "Spar",
                "brand:wikidata": "Q610492",
                "diet:gluten_free": "yes",
                "name": "Eurospar",
                "opening_hours": "Mo-Fr 08:30-20:00; Su 08:30-13:00",
                "phone": "+39 390 431 6217",
                "shop": "supermarket",
                "website": "https://www.despar.it/",
                "wheelchair": "yes"
            }
        },
        {
            "type": "node",
            "id": 5163169822,
            "lat": 45.6290885,
            "lon": 13.7817574,
            "timestamp": "2025-10-16T15:38:07Z",
            "version": 16,
            "changeset": 173372649,
            "user": "Rockedf",
            "uid": 7522075,
            "tags": {
                "addr:city": "Trieste",
                "addr:housenumber": "1",
                "addr:postcode": "34145",
                "addr:street": "Via Capodistria",
                "amenity": "events_venue",
                "check_date": "2024-09-27",
                "check_date:currency:XBT": "2025-07-21",
                "currency:XBT": "yes",
                "description": "Studio abitativo di Cocioale, consulenze ed eventi formativi.",
                "email": "info@twimt.it",
                "internet_access": "yes",
                "name": "Twimt Institute - Cashflow Club Trieste - Bitcoin Trieste",
                "payment:blink": "yes",
                "payment:lightning": "yes",
                "payment:lightning_contactless": "yes",
                "payment:onchain": "yes",
                "phone": "+39 3405595240",
                "website": "https://twimt.it"
            }
        },
        {
            "type": "node",
            "id": 5278740823,
            "lat": 45.6353517,
            "lon": 13.7798468,
            "timestamp": "2025-10-04T21:17:00Z",
            "version": 8,
            "changeset": 172847101,
            "user": "btcitnet",
            "uid": 22525435,
            "tags": {
                "addr:city": "Trieste",
                "addr:postcode": "34144",
                "addr:street": "Via Bartolomeo D'Alviano",
                "brand": "MediaWorld",
                "brand:wikidata": "Q2381223",
                "name": "MediaWorld",
                "operator": "MediaMarket S.p.A.",
                "ref:vatin": "IT02630120166",
                "shop": "electronics",
                "website": "https://www.mediaworld.it/negozi/trieste"
            }
        },
        {
            "type": "node",
            "id": 5535412321,
            "lat": 45.6412076,
            "lon": 13.7655272,
            "timestamp": "2025-10-04T21:18:27Z",
            "version": 4,
            "changeset": 172847139,
            "user": "btcitnet",
            "uid": 22525435,
            "tags": {
                "addr:city": "Trieste",
                "addr:housenumber": "19",
                "addr:postcode": "34143",
                "addr:street": "Via Carlo Combi",
                "brand": "Spar",
                "brand:wikidata": "Q610492",
                "brand:wikipedia": "en:SPAR (retailer)",
                "name": "Despar",
                "name:de": "Spar",
                "opening_hours": "Mo-Sa 08:00-20:00; Su 08:30-13:00",
                "shop": "supermarket"
            }
        },
        {
            "type": "node",
            "id": 5545054645,
            "lat": 45.9934754,
            "lon": 13.4449507,
            "timestamp": "2025-10-26T15:24:16Z",
            "version": 4,
            "changeset": 173799750,
            "user": "btcitnet",
            "uid": 22525435,
            "tags": {
                "addr:city": "Corno di Rosazzo",
                "addr:housenumber": "66",
                "addr:postcode": "33040",
                "addr:street": "Via papa Giovanni Ventitreesimo",
                "addr:village": "Sant'Andr\u00e0t del Judrio / Sant Andr\u00e2t dal Judri",
                "brand": "Spar",
                "brand:wikidata": "Q610492",
                "name": "Despar",
                "opening_hours": "Mo-Sa 08:30-13:00, 15:30-19:00",
                "shop": "supermarket"
            }
        },
        {
            "type": "node",
            "id": 5693012283,
            "lat": 45.8233409,
            "lon": 13.5061277,
            "timestamp": "2025-10-26T15:27:30Z",
            "version": 3,
            "changeset": 173799923,
            "user": "btcitnet",
            "uid": 22525435,
            "tags": {
                "addr:city": "Ronchi dei Legionari",
                "addr:housenumber": "8",
                "addr:postcode": "34077",
                "addr:street": "Via Alessandro Stagni",
                "addr:suburb": "Selz",
                "addr:village": "San Vito",
                "brand": "Spar",
                "brand:wikidata": "Q610492",
                "level": "0",
                "name": "Despar",
                "shop": "supermarket"
            }
        },
        {
            "type": "node",
            "id": 6178630870,
            "lat": 45.2269524,
            "lon": 13.5950338,
            "timestamp": "2019-07-03T09:59:23Z",
            "version": 2,
            "changeset": 71852122,
            "user": "jogemu",
            "uid": 4453208,
            "tags": {
                "brand": "United Colors of Benetton",
                "brand:wikidata": "Q817139",
                "brand:wikipedia": "en:Benetton Group",
                "clothes": "children",
                "name": "United Colors of Benetton",
                "shop": "clothes",
                "short_name": "Benetton"
            }
        },
        {
            "type": "node",
            "id": 6178955226,
            "lat": 45.2273451,
            "lon": 13.5964676,
            "timestamp": "2019-07-03T09:59:23Z",
            "version": 2,
            "changeset": 71852122,
            "user": "jogemu",
            "uid": 4453208,
            "tags": {
                "brand": "United Colors of Benetton",
                "brand:wikidata": "Q817139",
                "brand:wikipedia": "en:Benetton Group",
                "clothes": "underwear",
                "name": "United Colors of Benetton",
                "shop": "clothes",
                "short_name": "Benetton"
            }
        },
        {
            "type": "node",
            "id": 6178955227,
            "lat": 45.2272049,
            "lon": 13.5963747,
            "timestamp": "2024-07-02T22:14:49Z",
            "version": 6,
            "changeset": 153478265,
            "user": "paulbrunner",
            "uid": 15541433,
            "tags": {
                "brand": "United Colors of Benetton",
                "brand:wikidata": "Q817139",
                "brand:wikipedia": "en:Benetton Group",
                "check_date": "2024-07-02",
                "clothes": "women;men",
                "name": "United Colors of Benetton",
                "shop": "clothes",
                "short_name": "Benetton",
                "wheelchair": "no"
            }
        },
        {
            "type": "node",
            "id": 6745559551,
            "lat": 45.6583061,
            "lon": 13.7897197,
            "timestamp": "2024-09-18T23:11:36Z",
            "version": 9,
            "changeset": 156796338,
            "user": "alessandrocarmeli",
            "uid": 12294600,
            "tags": {
                "addr:city": "Trieste",
                "addr:country": "IT",
                "addr:housenumber": "2a",
                "addr:postcode": "34127",
                "addr:street": "Via Luigi Pecenco",
                "brand": "Spar",
                "brand:wikidata": "Q610492",
                "brand:wikipedia": "it:SPAR",
                "check_date": "2024-03-09",
                "name": "Despar",
                "opening_hours": "Mo-Sa 08:00-20:00",
                "operator": "DESPAR Pecenco srl",
                "phone": "+39 040 2037754",
                "shop": "supermarket",
                "website": "https://www.despar.it/it/punto-vendita-despar/979/trieste/"
            }
        },
        {
            "type": "node",
            "id": 6835540301,
            "lat": 45.6495521,
            "lon": 13.7720365,
            "timestamp": "2023-09-08T07:55:23Z",
            "version": 6,
            "changeset": 140973715,
            "user": "Mateusz Konieczny - bot account",
            "uid": 3199858,
            "tags": {
                "addr:city": "Trieste",
                "addr:housenumber": "2",
                "addr:postcode": "34121",
                "addr:street": "Via del Teatro Romano",
                "branch": "Teatro Romano",
                "brand": "Spar",
                "brand:wikidata": "Q610492",
                "brand:wikipedia": "en:SPAR (retailer)",
                "name": "Despar",
                "opening_hours": "Mo-Sa 08:00-20:00; Su 08:30-13:00",
                "operator": "Aspiag Service S.r.l.",
                "phone": "+39 040 630843",
                "ref:vatin": "IT00882800212",
                "shop": "supermarket"
            }
        },
        {
            "type": "node",
            "id": 7090795652,
            "lat": 45.7704937,
            "lon": 13.1675651,
            "timestamp": "2025-10-27T10:57:18Z",
            "version": 4,
            "changeset": 173830027,
            "user": "\u0110uro Ji\u0159\u00ed",
            "uid": 14617702,
            "tags": {
                "brand": "Spar",
                "brand:wikidata": "Q610492",
                "check_date": "2025-10-27",
                "name": "Despar",
                "shop": "supermarket",
                "wheelchair": "yes"
            }
        },
        {
            "type": "node",
            "id": 7099334476,
            "lat": 45.9025134,
            "lon": 13.3112785,
            "timestamp": "2025-02-17T21:28:44Z",
            "version": 5,
            "changeset": 162635941,
            "user": "Gian0x",
            "uid": 22434459,
            "tags": {
                "addr:city": "Palmanova",
                "addr:housenumber": "34",
                "addr:postcode": "33057",
                "addr:street": "Contrada Villachiara",
                "amenity": "restaurant",
                "currency:XBT": "yes",
                "diet:gluten_free": "yes",
                "diet:vegan": "yes",
                "diet:vegetarian": "yes",
                "name": "Il Melograno",
                "opening_hours": "Mo-Su 11:00-15:00, 18:00-23:00",
                "payment:lightning": "yes",
                "payment:onchain": "yes",
                "phone": "+39 0432 920271",
                "survey:date": "2025-02-12",
                "website": "https://ilmelograno.online/"
            }
        },
        {
            "type": "node",
            "id": 7541972620,
            "lat": 45.6532833,
            "lon": 13.7820511,
            "timestamp": "2025-10-04T21:19:40Z",
            "version": 4,
            "changeset": 172847170,
            "user": "btcitnet",
            "uid": 22525435,
            "tags": {
                "addr:city": "Trieste",
                "addr:postcode": "34125",
                "addr:street": "Via Cesare Battisti",
                "brand": "Unieuro",
                "brand:wikidata": "Q4004687",
                "brand:wikipedia": "en:Unieuro",
                "name": "Unieuro",
                "opening_hours": "Mo-Sa 08:30-12:30,15:30-19:30",
                "operator": "Unieuro S.p.A.",
                "shop": "electronics"
            }
        },
        {
            "type": "node",
            "id": 7752129215,
            "lat": 45.6415752,
            "lon": 13.7854425,
            "timestamp": "2025-10-04T21:20:44Z",
            "version": 5,
            "changeset": 172847190,
            "user": "btcitnet",
            "uid": 22525435,
            "tags": {
                "addr:city": "Trieste",
                "addr:housenumber": "39/41",
                "addr:postcode": "34137",
                "addr:street": "Viale Gabriele D'Annunzio",
                "brand": "Spar",
                "brand:wikidata": "Q610492",
                "brand:wikipedia": "en:SPAR (retailer)",
                "name": "Despar",
                "opening_hours": "Mo-Sa 08:00-20:00; Su 08:30-13:00",
                "shop": "supermarket"
            }
        },
        {
            "type": "node",
            "id": 7830845224,
            "lat": 45.6505715,
            "lon": 13.7825999,
            "timestamp": "2025-10-04T21:21:39Z",
            "version": 5,
            "changeset": 172847202,
            "user": "btcitnet",
            "uid": 22525435,
            "tags": {
                "addr:city": "Trieste",
                "addr:housenumber": "4",
                "addr:postcode": "34100",
                "addr:street": "Via Carlo e Giani Stuparich",
                "brand": "Spar",
                "brand:wikidata": "Q610492",
                "brand:wikipedia": "en:SPAR (retailer)",
                "name": "Despar",
                "opening_hours": "Mo-Sa 08:30-19:30",
                "shop": "supermarket"
            }
        },
        {
            "type": "node",
            "id": 7862973946,
            "lat": 45.5930875,
            "lon": 13.8077836,
            "timestamp": "2025-09-30T11:10:20Z",
            "version": 3,
            "changeset": 172655355,
            "user": "btcitnet",
            "uid": 22525435,
            "tags": {
                "addr:city": "Muggia",
                "addr:housenumber": "119",
                "addr:postcode": "34015",
                "addr:street": "Via Flavia di Stramare",
                "brand": "H&M",
                "brand:wikidata": "Q188326",
                "brand:wikipedia": "en:H&M",
                "check_date": "2024-05-26",
                "name": "H&M",
                "shop": "clothes"
            }
        },
        {
            "type": "node",
            "id": 7862973949,
            "lat": 45.5928222,
            "lon": 13.8078649,
            "timestamp": "2025-10-02T10:32:06Z",
            "version": 2,
            "changeset": 172742763,
            "user": "btcitnet",
            "uid": 22525435,
            "tags": {
                "addr:city": "Muggia",
                "addr:postcode": "34015",
                "addr:street": "Via Flavia di Stramare",
                "brand": "Calzedonia",
                "brand:wikidata": "Q1027874",
                "brand:wikipedia": "en:Calzedonia",
                "name": "Calzedonia",
                "shop": "clothes"
            }
        },
        {
            "type": "node",
            "id": 7862973950,
            "lat": 45.5928285,
            "lon": 13.8079719,
            "timestamp": "2025-10-04T21:22:27Z",
            "version": 2,
            "changeset": 172847222,
            "user": "btcitnet",
            "uid": 22525435,
            "tags": {
                "addr:city": "Muggia",
                "addr:postcode": "34015",
                "addr:street": "Via Flavia di Stramare",
                "brand": "Intimissimi",
                "brand:wikidata": "Q305404",
                "brand:wikipedia": "en:Intimissimi",
                "clothes": "underwear",
                "name": "Intimissimi",
                "shop": "clothes"
            }
        },
        {
            "type": "node",
            "id": 7862973954,
            "lat": 45.5934279,
            "lon": 13.8077854,
            "timestamp": "2025-10-16T11:00:34Z",
            "version": 3,
            "changeset": 173359876,
            "user": "btcitnet",
            "uid": 22525435,
            "tags": {
                "addr:city": "Muggia",
                "addr:housenumber": "119e",
                "addr:postcode": "34015",
                "addr:street": "Via Flavia di Stramare",
                "brand": "OVS",
                "brand:wikidata": "Q2042514",
                "brand:wikipedia": "en:OVS (company)",
                "name": "OVS",
                "shop": "clothes"
            }
        },
        {
            "type": "node",
            "id": 7862973960,
            "lat": 45.5933549,
            "lon": 13.8083323,
            "timestamp": "2025-10-04T21:24:12Z",
            "version": 2,
            "changeset": 172847261,
            "user": "btcitnet",
            "uid": 22525435,
            "tags": {
                "addr:city": "Muggia",
                "addr:housenumber": "119",
                "addr:postcode": "34015",
                "addr:street": "Via Flavia di Stramare",
                "brand": "Tezenis",
                "brand:wikidata": "Q28056374",
                "name": "Tezenis",
                "shop": "clothes"
            }
        },
        {
            "type": "node",
            "id": 7862973969,
            "lat": 45.5940446,
            "lon": 13.8075408,
            "timestamp": "2025-10-16T11:00:54Z",
            "version": 4,
            "changeset": 173359891,
            "user": "btcitnet",
            "uid": 22525435,
            "tags": {
                "addr:city": "Muggia",
                "addr:housenumber": "119e",
                "addr:postcode": "34015",
                "addr:street": "Via Flavia di Stramare",
                "brand": "PittaRosso",
                "brand:wikidata": "Q105643314",
                "name": "PittaRosso",
                "shop": "shoes"
            }
        },
        {
            "type": "node",
            "id": 7862974216,
            "lat": 45.5941693,
            "lon": 13.8071195,
            "timestamp": "2025-01-01T20:13:02Z",
            "version": 2,
            "changeset": 160883808,
            "user": "mpbin",
            "uid": 21850090,
            "tags": {
                "addr:city": "Muggia",
                "addr:housenumber": "119",
                "addr:postcode": "34015",
                "addr:street": "Via Flavia di Stramare",
                "brand": "Unieuro",
                "brand:wikidata": "Q4004687",
                "brand:wikipedia": "en:Unieuro",
                "name": "Unieuro",
                "operator": "Unieuro S.p.A.",
                "shop": "electronics"
            }
        },
        {
            "type": "node",
            "id": 7881985600,
            "lat": 45.6545866,
            "lon": 13.7943198,
            "timestamp": "2025-10-04T21:26:28Z",
            "version": 3,
            "changeset": 172847297,
            "user": "btcitnet",
            "uid": 22525435,
            "tags": {
                "addr:city": "Trieste",
                "addr:housenumber": "75/3",
                "addr:postcode": "34126",
                "addr:street": "Via Giulia",
                "brand": "Unieuro",
                "brand:wikidata": "Q4004687",
                "brand:wikipedia": "en:Unieuro",
                "name": "Unieuro",
                "operator": "Unieuro S.p.A.",
                "shop": "electronics"
            }
        },
        {
            "type": "node",
            "id": 7881985601,
            "lat": 45.6546973,
            "lon": 13.7942237,
            "timestamp": "2025-10-04T21:28:03Z",
            "version": 2,
            "changeset": 172847323,
            "user": "btcitnet",
            "uid": 22525435,
            "tags": {
                "addr:city": "Trieste",
                "addr:postcode": "34126",
                "addr:street": "Via Giulia",
                "brand": "OVS",
                "brand:wikidata": "Q2042514",
                "brand:wikipedia": "en:OVS (company)",
                "name": "OVS",
                "shop": "clothes"
            }
        },
        {
            "type": "node",
            "id": 7881985608,
            "lat": 45.6547196,
            "lon": 13.7939053,
            "timestamp": "2025-10-25T18:02:49Z",
            "version": 3,
            "changeset": 173767110,
            "user": "btcitnet",
            "uid": 22525435,
            "tags": {
                "addr:city": "Trieste",
                "addr:postcode": "34126",
                "addr:street": "Piazzale Anton Dreher",
                "addr:suburb": "San Giovanni-Chiadino-Rozzol",
                "brand": "GrandVision",
                "brand:wikidata": "Q105644278",
                "name": "GrandVision",
                "shop": "optician"
            }
        },
        {
            "type": "node",
            "id": 8000483293,
            "lat": 45.5401383,
            "lon": 13.734504,
            "timestamp": "2025-10-04T21:29:21Z",
            "version": 2,
            "changeset": 172847367,
            "user": "btcitnet",
            "uid": 22525435,
            "tags": {
                "addr:city": "Koper / Capodistria",
                "addr:postcode": "6000",
                "addr:street": "Ankaranska cesta / Via Ancarano",
                "brand": "Intimissimi",
                "brand:wikidata": "Q305404",
                "brand:wikipedia": "en:Intimissimi",
                "clothes": "underwear",
                "name": "Intimissimi",
                "ref": "7",
                "shop": "clothes"
            }
        },
        {
            "type": "node",
            "id": 8000483294,
            "lat": 45.5400988,
            "lon": 13.7343841,
            "timestamp": "2025-10-04T21:30:37Z",
            "version": 2,
            "changeset": 172847391,
            "user": "btcitnet",
            "uid": 22525435,
            "tags": {
                "addr:city": "Koper / Capodistria",
                "addr:postcode": "6000",
                "addr:street": "Ankaranska cesta / Via Ancarano",
                "brand": "Calzedonia",
                "brand:wikidata": "Q1027874",
                "brand:wikipedia": "en:Calzedonia",
                "name": "Calzedonia",
                "ref": "6",
                "shop": "clothes"
            }
        },
        {
            "type": "node",
            "id": 8000483327,
            "lat": 45.5394057,
            "lon": 13.7351476,
            "timestamp": "2025-10-04T21:31:36Z",
            "version": 2,
            "changeset": 172847401,
            "user": "btcitnet",
            "uid": 22525435,
            "tags": {
                "addr:city": "Koper / Capodistria",
                "addr:postcode": "6000",
                "addr:street": "Ankaranska cesta / Via Ancarano",
                "brand": "H&M",
                "brand:wikidata": "Q188326",
                "brand:wikipedia": "en:H&M",
                "name": "H&M",
                "shop": "clothes"
            }
        },
        {
            "type": "node",
            "id": 8016725069,
            "lat": 45.8409975,
            "lon": 13.4886375,
            "timestamp": "2025-11-09T20:56:29Z",
            "version": 5,
            "changeset": 174435968,
            "user": "Cascafico",
            "uid": 361003,
            "tags": {
                "addr:city": "Ronchi dei Legionari",
                "addr:housenumber": "8",
                "addr:postcode": "34077",
                "addr:street": "Via Pietro Micca",
                "brand": "Brico",
                "brand:wikidata": "Q2510786",
                "brand:wikipedia": "en:Brico",
                "check_date": "2025-11-09",
                "check_date:opening_hours": "2022-12-24",
                "contact:phone": "+39 0481 1870102",
                "name": "EuroBrico Far da s\u00e9",
                "opening_hours:signed": "no",
                "phone": "+39 0481 1870102",
                "ref:vatin": "IT02116180304",
                "shop": "doityourself",
                "wheelchair": "yes"
            }
        },
        {
            "type": "node",
            "id": 8408654624,
            "lat": 45.6509826,
            "lon": 13.7775506,
            "timestamp": "2025-10-04T21:32:31Z",
            "version": 3,
            "changeset": 172847415,
            "user": "btcitnet",
            "uid": 22525435,
            "tags": {
                "addr:city": "Trieste",
                "addr:housenumber": "20",
                "addr:postcode": "34122",
                "addr:street": "Via Giosu\u00e8 Carducci",
                "brand": "Chicco",
                "brand:wikidata": "Q27897515",
                "name": "Chicco",
                "shop": "baby_goods"
            }
        },
        {
            "type": "node",
            "id": 8677062216,
            "lat": 45.6516601,
            "lon": 13.7796665,
            "timestamp": "2025-10-16T11:01:27Z",
            "version": 8,
            "changeset": 173359916,
            "user": "btcitnet",
            "uid": 22525435,
            "tags": {
                "addr:city": "Trieste",
                "addr:housenumber": "15a",
                "addr:postcode": "34125",
                "addr:street": "Viale Venti Settembre",
                "brand": "Spar",
                "brand:wikidata": "Q610492",
                "diet:gluten_free": "no",
                "diet:halal": "no",
                "diet:kosher": "no",
                "name": "Despar",
                "shop": "supermarket",
                "start_date": "2025-01-16",
                "wheelchair": "no"
            }
        },
        {
            "type": "node",
            "id": 8895322727,
            "lat": 45.883381,
            "lon": 13.8920013,
            "timestamp": "2025-10-06T14:05:26Z",
            "version": 4,
            "changeset": 172916444,
            "user": "Comino",
            "uid": 6794624,
            "tags": {
                "addr:city": "Ajdovscina",
                "addr:housenumber": "20",
                "addr:postcode": "5270",
                "addr:street": "Mirce",
                "amenity": "restaurant",
                "currency:XBT": "yes",
                "name": "Bistro LUFT",
                "opening_hours": "Mo-Fr 10:00-14:00",
                "payment:cash": "yes",
                "payment:lightning": "yes",
                "payment:maestro": "yes",
                "payment:mastercard": "yes",
                "payment:visa": "yes",
                "phone": "040 166 932",
                "survey:date": "2025-01-28",
                "website": "https://www.facebook.com/bistroluft/"
            }
        },
        {
            "type": "node",
            "id": 8933571109,
            "lat": 45.6495304,
            "lon": 13.7747923,
            "timestamp": "2025-10-04T21:34:13Z",
            "version": 4,
            "changeset": 172847452,
            "user": "btcitnet",
            "uid": 22525435,
            "tags": {
                "addr:city": "Trieste",
                "addr:housenumber": "23",
                "addr:postcode": "34121",
                "addr:street": "Corso Italia",
                "brand": "H&M",
                "brand:wikidata": "Q188326",
                "brand:wikipedia": "en:H&M",
                "name": "H&M",
                "opening_hours": "Mo-Sa 09:30-20:00; Su 10:00-19:00",
                "shop": "clothes"
            }
        },
        {
            "type": "node",
            "id": 9104754356,
            "lat": 45.9220832,
            "lon": 13.6414265,
            "timestamp": "2023-07-09T15:35:26Z",
            "version": 4,
            "changeset": 138301015,
            "user": "Bojan\ud83d\udcf7",
            "uid": 792910,
            "tags": {
                "addr:city": "\u0160empeter pri Gorici",
                "addr:housenumber": "79",
                "addr:postcode": "5290",
                "addr:street": "Vrtojbenska cesta",
                "brand": "Spar",
                "brand:wikidata": "Q610492",
                "brand:wikipedia": "en:SPAR (retailer)",
                "name": "Spar",
                "opening_hours": "Mo-Sa 08:00-20:00; PH off",
                "payment:cash": "yes",
                "payment:credit_cards": "yes",
                "payment:debit_cards": "yes",
                "phone": "+386 5 335 10 20",
                "shop": "supermarket"
            }
        },
        {
            "type": "node",
            "id": 9105231662,
            "lat": 45.6501754,
            "lon": 13.7703407,
            "timestamp": "2025-10-26T18:19:32Z",
            "version": 4,
            "changeset": 173807351,
            "user": "Aiman",
            "uid": 67550,
            "tags": {
                "addr:city": "Trieste",
                "addr:housenumber": "7",
                "addr:postcode": "34100",
                "addr:street": "Piazza della Borsa",
                "brand": "Tezenis",
                "brand:wikidata": "Q28056374",
                "brand:wikipedia": "ru:Tezenis",
                "clothes": "women;underwear;swimwear;men;children",
                "name": "Tezenis",
                "shop": "clothes",
                "wheelchair": "yes"
            }
        },
        {
            "type": "node",
            "id": 9105264976,
            "lat": 45.6498349,
            "lon": 13.7691277,
            "timestamp": "2025-10-23T18:39:20Z",
            "version": 4,
            "changeset": 173688025,
            "user": "btcitnet",
            "uid": 22525435,
            "tags": {
                "addr:city": "Trieste",
                "addr:housenumber": "1c",
                "addr:postcode": "34121",
                "addr:street": "Capo di Piazza Gianni Bartoli",
                "brand": "Bottega Verde",
                "brand:wikidata": "Q894870",
                "brand:wikipedia": "it:Bottega Verde",
                "name": "Bottega Verde",
                "phone": "+39 3316631163",
                "shop": "cosmetics"
            }
        },
        {
            "type": "node",
            "id": 9105683671,
            "lat": 45.6496935,
            "lon": 13.7730305,
            "timestamp": "2025-10-04T21:36:20Z",
            "version": 2,
            "changeset": 172847513,
            "user": "btcitnet",
            "uid": 22525435,
            "tags": {
                "addr:city": "Trieste",
                "addr:housenumber": "7",
                "addr:postcode": "34121",
                "addr:street": "Corso Italia",
                "brand": "Foot Locker",
                "brand:wikidata": "Q63335",
                "brand:wikipedia": "en:Foot Locker",
                "name": "Foot Locker",
                "shop": "shoes"
            }
        },
        {
            "type": "node",
            "id": 9271991195,
            "lat": 45.886028,
            "lon": 13.3423933,
            "timestamp": "2025-10-27T19:01:48Z",
            "version": 3,
            "changeset": 173853324,
            "user": "btcitnet",
            "uid": 22525435,
            "tags": {
                "addr:city": "Aiello del Friuli / Dael",
                "addr:housenumber": "Km 1+600",
                "addr:postcode": "33041",
                "addr:street": "SP126",
                "brand": "United Colors of Benetton",
                "brand:wikidata": "Q817139",
                "brand:wikipedia": "en:Benetton Group",
                "contact:phone": "+39 370 309 3502",
                "contact:website": "www.benetton.com/Outlet",
                "name": "United Colors of Benetton",
                "shop": "clothes",
                "short_name": "Benetton"
            }
        },
        {
            "type": "node",
            "id": 9271991201,
            "lat": 45.8858585,
            "lon": 13.3428456,
            "timestamp": "2025-10-27T19:02:18Z",
            "version": 3,
            "changeset": 173853343,
            "user": "btcitnet",
            "uid": 22525435,
            "tags": {
                "addr:city": "Aiello del Friuli / Dael",
                "addr:housenumber": "Km 1+600",
                "addr:postcode": "33041",
                "addr:street": "SP126",
                "brand": "Calzedonia",
                "brand:wikidata": "Q1027874",
                "brand:wikipedia": "en:Calzedonia",
                "contact:phone": "+39 0432 836399",
                "contact:website": "www.calzedonia.it",
                "name": "Calzedonia",
                "shop": "clothes"
            }
        },
        {
            "type": "node",
            "id": 9271991202,
            "lat": 45.8858036,
            "lon": 13.3429669,
            "timestamp": "2025-10-27T19:02:41Z",
            "version": 3,
            "changeset": 173853357,
            "user": "btcitnet",
            "uid": 22525435,
            "tags": {
                "addr:city": "Aiello del Friuli / Dael",
                "addr:housenumber": "Km 1+600",
                "addr:postcode": "33041",
                "addr:street": "SP126",
                "brand": "Guess",
                "brand:wikidata": "Q2470307",
                "brand:wikipedia": "en:Guess (clothing)",
                "contact:phone": "+39 0432 934057",
                "contact:website": "www.guess.eu",
                "name": "Guess",
                "shop": "clothes"
            }
        },
        {
            "type": "node",
            "id": 9338017365,
            "lat": 45.6509399,
            "lon": 13.7764216,
            "timestamp": "2025-07-27T09:42:13Z",
            "version": 4,
            "changeset": 169547624,
            "user": "Aiman",
            "uid": 67550,
            "tags": {
                "addr:city": "Trieste",
                "addr:housenumber": "6",
                "addr:postcode": "34125",
                "addr:state": "36",
                "addr:street": "Piazza San Giovanni",
                "baby_feeding": "no",
                "brand": "Spar",
                "brand:wikidata": "Q610492",
                "brand:wikipedia": "en:SPAR (retailer)",
                "contact:phone": "+39 040 636181",
                "kids_area": "no",
                "level": "0",
                "name": "Despar",
                "opening_hours": "Mo-Sa 08:00-20:00; Su closed; PH closed",
                "operator": "ASPIAG Service srl",
                "organic": "yes",
                "ref:vatin": "IT00882800212",
                "shop": "supermarket",
                "wheelchair": "yes"
            }
        },
        {
            "type": "node",
            "id": 9755200439,
            "lat": 45.8859004,
            "lon": 13.3429584,
            "timestamp": "2025-10-27T19:03:04Z",
            "version": 3,
            "changeset": 173853369,
            "user": "btcitnet",
            "uid": 22525435,
            "tags": {
                "addr:city": "Aiello del Friuli / Dael",
                "addr:housenumber": "Km 1+600",
                "addr:postcode": "33041",
                "addr:street": "SP126",
                "brand": "Intimissimi",
                "brand:wikidata": "Q305404",
                "clothes": "underwear",
                "contact:phone": "+39 0432 836399",
                "contact:website": "www.intimissimi.it",
                "name": "Intimissimi",
                "shop": "clothes"
            }
        },
        {
            "type": "node",
            "id": 9802739823,
            "lat": 45.639378,
            "lon": 13.7847303,
            "timestamp": "2025-10-04T21:37:28Z",
            "version": 2,
            "changeset": 172847531,
            "user": "btcitnet",
            "uid": 22525435,
            "tags": {
                "addr:city": "Trieste",
                "addr:postcode": "34137",
                "addr:street": "Via del Molino a Vento",
                "brand": "Spar",
                "brand:wikidata": "Q610492",
                "name": "Despar",
                "shop": "supermarket"
            }
        },
        {
            "type": "node",
            "id": 9802739830,
            "lat": 45.6219912,
            "lon": 13.8000854,
            "timestamp": "2025-10-04T21:38:13Z",
            "version": 2,
            "changeset": 172847541,
            "user": "btcitnet",
            "uid": 22525435,
            "tags": {
                "addr:city": "Trieste",
                "addr:housenumber": "2",
                "addr:postcode": "34148",
                "addr:street": "Via Pietro Mascagni",
                "brand": "Spar",
                "brand:wikidata": "Q610492",
                "name": "Despar",
                "shop": "supermarket"
            }
        },
        {
            "type": "node",
            "id": 9887785800,
            "lat": 45.6404965,
            "lon": 13.8241553,
            "timestamp": "2025-04-20T08:06:49Z",
            "version": 2,
            "changeset": 165181256,
            "user": "btcitnet",
            "uid": 22525435,
            "tags": {
                "addr:city": "Trieste",
                "addr:postcode": "34139",
                "addr:street": "Via Louis Pasteur",
                "brand": "Spar",
                "brand:wikidata": "Q610492",
                "brand:wikipedia": "en:SPAR (retailer)",
                "it:fvg:ctrn:code": "4AED",
                "it:fvg:ctrn:revision": "1AM",
                "name": "Despar",
                "operator": "Despar",
                "shop": "supermarket"
            }
        },
        {
            "type": "node",
            "id": 9987329419,
            "lat": 45.6906295,
            "lon": 13.1455292,
            "timestamp": "2025-10-16T09:29:40Z",
            "version": 5,
            "changeset": 173355969,
            "user": "btcitnet",
            "uid": 22525435,
            "tags": {
                "addr:city": "Lignano Sabbiadoro",
                "addr:postcode": "33054",
                "addr:street": "Via Udine",
                "brand": "Calzedonia",
                "brand:wikidata": "Q1027874",
                "name": "Calzedonia",
                "opening_hours": "Mo-Su 09:30-23:30",
                "phone": "+39 340 850 6434",
                "shop": "clothes",
                "website": "https://www.calzedonia.com/",
                "wheelchair": "limited"
            }
        },
        {
            "type": "node",
            "id": 9987329431,
            "lat": 45.6909124,
            "lon": 13.1458323,
            "timestamp": "2024-10-01T14:12:49Z",
            "version": 4,
            "changeset": 157338476,
            "user": "\u0110uro Ji\u0159\u00ed",
            "uid": 14617702,
            "tags": {
                "addr:city": "Lignano Sabbiadoro",
                "addr:housenumber": "13",
                "addr:postcode": "33054",
                "addr:street": "Via Udine",
                "brand": "Tezenis",
                "brand:wikidata": "Q28056374",
                "clothes": "women;underwear;swimwear;men;children",
                "name": "Tezenis",
                "shop": "clothes",
                "wheelchair": "no"
            }
        },
        {
            "type": "node",
            "id": 10132513173,
            "lat": 45.9059945,
            "lon": 13.3106052,
            "timestamp": "2024-10-01T13:02:59Z",
            "version": 2,
            "changeset": 157338732,
            "user": "Flight777",
            "uid": 9925732,
            "tags": {
                "branch": "Kids",
                "brand": "OVS",
                "brand:wikidata": "Q2042514",
                "name": "OVS",
                "shop": "clothes"
            }
        },
        {
            "type": "node",
            "id": 10538663052,
            "lat": 45.4097932,
            "lon": 13.6649834,
            "timestamp": "2025-06-14T14:46:18Z",
            "version": 4,
            "changeset": 167616102,
            "user": "Rockedf",
            "uid": 7522075,
            "tags": {
                "addr:city": "Buje",
                "addr:postcode": "52460",
                "addr:street": "Gospodarska",
                "check_date:currency:XBT": "2025-06-14",
                "craft": "carpenter",
                "currency:XBT": "yes",
                "email": "info@portewestern.it",
                "name": "Portewestern",
                "opening_hours": "Mo-Su 09:00-20:00",
                "payment:lightning": "yes",
                "payment:lightning_contactless": "no",
                "payment:onchain": "yes",
                "phone": "+385 91 530 2745",
                "website": "https://www.portewestern.it/"
            }
        },
        {
            "type": "node",
            "id": 10660627799,
            "lat": 45.4325531,
            "lon": 13.6837865,
            "timestamp": "2025-06-12T12:15:15Z",
            "version": 2,
            "changeset": 167531203,
            "user": "Rockedf",
            "uid": 7522075,
            "tags": {
                "addr:city": "Kremenje, Buje",
                "addr:postcode": "52460",
                "addr:street": "Gambocija",
                "check_date:currency:XBT": "2025-06-12",
                "currency:XBT": "yes",
                "email": "info@camelus.itg",
                "name": "Camelus Adventures",
                "payment:lightning": "yes",
                "payment:lightning_contactless": "no",
                "payment:onchain": "yes",
                "phone": "+385989976290",
                "shop": "travel_agency",
                "website": "https://www.camelus.it/"
            }
        },
        {
            "type": "node",
            "id": 10660645073,
            "lat": 45.3828315,
            "lon": 13.6980037,
            "timestamp": "2025-06-09T09:34:05Z",
            "version": 3,
            "changeset": 167386942,
            "user": "Comino",
            "uid": 6794624,
            "tags": {
                "addr:city": "Krasica, Gardossi",
                "addr:housenumber": "47",
                "addr:postcode": "52460",
                "addr:street": "Gardossi",
                "check_date:currency:XBT": "2025-06-09",
                "currency:XBT": "yes",
                "guest_house": "bed_and_breakfast",
                "name": "Al Merlo Olivo B&B",
                "payment:lightning": "yes",
                "payment:lightning_contactless": "no",
                "payment:onchain": "yes",
                "phone": "+385 91 530 2745",
                "tourism": "guest_house",
                "website": "https://www.camelus.it/al-merlo-olivo/"
            }
        },
        {
            "type": "node",
            "id": 10681029863,
            "lat": 45.6882287,
            "lon": 13.7999153,
            "timestamp": "2024-09-24T12:53:07Z",
            "version": 3,
            "changeset": 157038547,
            "user": "mpbin",
            "uid": 21850090,
            "tags": {
                "addr:city": "Trieste",
                "addr:postcode": "34151",
                "addr:street": "Via dell'Assenzio",
                "check_date": "2024-09-24",
                "check_date:currency:XBT": "2024-09-24",
                "contact:facebook": "https://www.facebook.com/portewestern/shop/",
                "currency:XBT": "yes",
                "description": "Sliding doors production and selling",
                "email": "info@portewestern.it",
                "name": "Portewestern.it (Trieste branch)",
                "payment:lightning": "yes",
                "payment:lightning_contactless": "no",
                "payment:onchain": "yes",
                "phone": "+385989976290",
                "shop": "doors",
                "website": "https://www.portewestern.it"
            }
        },
        {
            "type": "node",
            "id": 10863660758,
            "lat": 45.8907668,
            "lon": 13.5032681,
            "timestamp": "2023-05-06T10:58:51Z",
            "version": 2,
            "changeset": 135772171,
            "user": "mueschel",
            "uid": 616774,
            "tags": {
                "addr:city": "Gradisca d'Isonzo",
                "addr:housenumber": "9",
                "addr:postcode": "34072",
                "addr:street": "Via Cesare Battisti",
                "check_date:currency:XBT": "2023-05-02",
                "contact:instagram": "@BATTISTICASTEL",
                "currency:XBT": "yes",
                "description": "Holiday appartment, luxury stay, hotel, B&B",
                "guest_house": "bed_and_breakfast",
                "name": "BattistiCastel",
                "payment:lightning": "yes",
                "payment:lightning_contactless": "yes",
                "payment:onchain": "yes",
                "phone": "+39 348 410 2790",
                "tourism": "guest_house",
                "website": "https://battisticastel.business.site/"
            }
        },
        {
            "type": "node",
            "id": 10946235303,
            "lat": 45.6503106,
            "lon": 13.7734708,
            "timestamp": "2025-10-04T21:42:54Z",
            "version": 3,
            "changeset": 172847636,
            "user": "btcitnet",
            "uid": 22525435,
            "tags": {
                "addr:city": "Trieste",
                "addr:postcode": "34121",
                "addr:street": "Via San Nicol\u00f2",
                "brand": "Calzedonia",
                "brand:wikidata": "Q1027874",
                "name": "Calzedonia",
                "opening_hours": "Tu-Sa 09:30-20:00; Su 10:00-20:00; Mo 09:30-13:00,15:30-20:00",
                "shop": "clothes"
            }
        },
        {
            "type": "node",
            "id": 11069222577,
            "lat": 45.6443262,
            "lon": 13.7831124,
            "timestamp": "2024-09-27T09:04:58Z",
            "version": 12,
            "changeset": 157161094,
            "user": "mpbin",
            "uid": 21850090,
            "tags": {
                "addr:city": "Trieste",
                "addr:housenumber": "3a",
                "addr:postcode": "34139",
                "addr:street": "Via delle Settefontane",
                "amenity": "events_venue",
                "check_date": "2024-09-27",
                "check_date:currency:XBT": "2024-09-27",
                "contact:facebook": "ilcentrostudieventitrieste",
                "currency:XBT": "yes",
                "description": "Evolutionary growth courses and events",
                "email": "ilcentrostudi@gmail.com",
                "internet_access": "yes",
                "internet_access:fee": "customers",
                "name": "Associazione Centro Studi",
                "payment:lightning": "yes",
                "payment:onchain": "yes",
                "website": "https://ilcentrostudi.com"
            }
        },
        {
            "type": "node",
            "id": 11358063150,
            "lat": 45.7716118,
            "lon": 14.2030137,
            "timestamp": "2025-05-19T14:07:55Z",
            "version": 2,
            "changeset": 166478947,
            "user": "Vidserazin",
            "uid": 14586021,
            "tags": {
                "brand": "Spar",
                "brand:wikidata": "Q610492",
                "name": "Spar",
                "opening_hours": "Mo-Sa 08:00-20:00",
                "shop": "supermarket"
            }
        },
        {
            "type": "node",
            "id": 11369089305,
            "lat": 45.7579126,
            "lon": 13.4681633,
            "timestamp": "2023-11-22T17:45:08Z",
            "version": 2,
            "changeset": 144336547,
            "user": "BitcoinMonfalcone",
            "uid": 20605179,
            "tags": {
                "addr:city": "San Canzian d'Isonzo",
                "addr:housenumber": "16",
                "addr:postcode": "34075",
                "addr:street": "Via Grado",
                "amenity": "restaurant",
                "cuisine": "pizza;fish",
                "currency:XBT": "yes",
                "name": "Locanda ai Due Fiumi",
                "payment:cash": "yes",
                "payment:lightning": "yes",
                "payment:onchain": "no",
                "phone": "04811996487",
                "survey:date": "2023-11-22"
            }
        },
        {
            "type": "node",
            "id": 11379929752,
            "lat": 45.8094821,
            "lon": 13.5323313,
            "timestamp": "2023-11-27T17:21:36Z",
            "version": 2,
            "changeset": 144516961,
            "user": "BitcoinMonfalcone",
            "uid": 20605179,
            "tags": {
                "addr:city": "Monfalcone",
                "addr:housenumber": "15",
                "addr:place": "Piazza della Repubblica",
                "addr:postcode": "34074",
                "currency:XBT": "yes",
                "name": "Giorda Marcallo dottore commercialista",
                "office": "accountant",
                "payment:lightning": "yes",
                "phone": "0481 413048",
                "survey:date": "2023-11-01",
                "website": "http://www.serivosrl.it/"
            }
        },
        {
            "type": "node",
            "id": 11467342354,
            "lat": 45.9018373,
            "lon": 13.2483191,
            "timestamp": "2025-12-24T10:28:59Z",
            "version": 3,
            "changeset": 176350674,
            "user": "Comino",
            "uid": 6794624,
            "tags": {
                "addr:city": "Gonars",
                "addr:housenumber": "111a",
                "addr:postcode": "33050",
                "addr:street": "Via Gorizia",
                "check_date": "2025-12-24",
                "check_date:currency:XBT": "2025-12-24",
                "contact:facebook": "cottage.lenone",
                "contact:instagram": "cottage.le.none",
                "currency:XBT": "yes",
                "email": "cottage.lenone@gmail.com",
                "guest_house": "guest_house",
                "name": "Cottage \"Le None\"",
                "payment:lightning": "yes",
                "payment:lightning_contactless": "yes",
                "payment:onchain": "yes",
                "phone": "+39 388 861 2544",
                "tourism": "guest_house"
            }
        },
        {
            "type": "node",
            "id": 11554476488,
            "lat": 45.5307787,
            "lon": 13.7336272,
            "timestamp": "2024-06-07T16:10:10Z",
            "version": 2,
            "changeset": 152383668,
            "user": "Rockedf",
            "uid": 7522075,
            "tags": {
                "addr:city": "Capodistria",
                "addr:housenumber": "1",
                "addr:postcode": "6000",
                "addr:street": "Dolinska cesta",
                "addr:unit": "A",
                "amenity": "atm",
                "branch": "Supernova Mercator Koper",
                "cash_in": "yes",
                "cash_out": "yes",
                "cash_withdrawal": "yes",
                "check_date": "2024-01-26",
                "contact:email": "support@shitcoins.club",
                "contact:facebook": "https://www.facebook.com/shitcoins.club",
                "contact:instagram": "https://www.instagram.com/shitcoinsclub",
                "contact:telegram": "https://t.me/shitcoinsclub",
                "contact:twitter": "https://twitter.com/BitomatCom",
                "currency:CHF": "yes",
                "currency:DASH": "yes",
                "currency:ETH": "yes",
                "currency:EUR": "yes",
                "currency:GBP": "yes",
                "currency:HUF": "yes",
                "currency:LTC": "yes",
                "currency:RON": "yes",
                "currency:USD": "yes",
                "currency:USDC": "yes",
                "currency:USDT": "yes",
                "currency:XBT": "yes",
                "indoor": "yes",
                "level": "0",
                "name": "Bitcoin ATM - Shitcoins.club",
                "opening_hours": "Mo-Sa 08:00-21:00",
                "operator": "Shitcoins.club",
                "payment:cash": "yes",
                "payment:lightning": "no",
                "payment:lightning_contactless": "no",
                "payment:onchain": "yes",
                "phone": "+48 667 818 257",
                "start_date": "2023-10-27",
                "url": "https://coinatmradar.com/bitcoin_atm/73036/bitcoin-atm-shitcoins-club-koper-supernova-mercator-koper/",
                "website": "https://shitcoins.club/lokacije-bitomata/bitcoin-atm-koper-supernova_mercator"
            }
        },
        {
            "type": "node",
            "id": 11928367832,
            "lat": 45.5938527,
            "lon": 13.8075047,
            "timestamp": "2024-06-13T02:34:18Z",
            "version": 3,
            "changeset": 152610721,
            "user": "Rockedf",
            "uid": 7522075,
            "tags": {
                "addr:city": "Aquilinia-Stramare",
                "addr:housenumber": "119",
                "addr:postcode": "34015",
                "addr:street": "Via Flavia di Stramare",
                "amenity": "atm",
                "cash_in": "yes",
                "cash_out": "yes",
                "cash_withdrawal": "yes",
                "check_date": "2024-05-23",
                "contact:email": "support@shitcoins.club",
                "contact:facebook": "https://www.facebook.com/shitcoins.club",
                "contact:instagram": "https://www.instagram.com/shitcoinsclub",
                "contact:telegram": "https://t.me/shitcoinsclub",
                "contact:twitter": "https://twitter.com/BitomatCom",
                "currency:CHF": "yes",
                "currency:DASH": "yes",
                "currency:ETH": "yes",
                "currency:EUR": "yes",
                "currency:GBP": "yes",
                "currency:HUF": "yes",
                "currency:LTC": "yes",
                "currency:RON": "yes",
                "currency:USD": "yes",
                "currency:USDC": "yes",
                "currency:USDT": "yes",
                "currency:XBT": "yes",
                "indoor": "yes",
                "name": "Bitcoin ATM - Shitcoins.club",
                "opening_hours": "Mo-Su 09:00-20:30",
                "operator": "Shitcoins.club",
                "payment:cash": "yes",
                "payment:lightning": "no",
                "payment:lightning_contactless": "no",
                "payment:onchain": "yes",
                "phone": "+39 34 8048 7308",
                "website": "https://shitcoins.club/localizzazione-atm/atm-bitcoin-trieste-montedoro"
            }
        },
        {
            "type": "node",
            "id": 12155453201,
            "lat": 45.5396,
            "lon": 13.7351848,
            "timestamp": "2024-10-02T22:46:57Z",
            "version": 3,
            "changeset": 157397401,
            "user": "\u0110uro Ji\u0159\u00ed",
            "uid": 14617702,
            "tags": {
                "brand": "Decathlon",
                "brand:wikidata": "Q509349",
                "brand:wikipedia": "en:Decathlon Group",
                "level": "1",
                "name": "Decathlon",
                "opening_hours": "Mo-Sa 09:00-21:00",
                "shop": "sports",
                "website": "https://www.decathlon.si/",
                "wheelchair": "yes"
            }
        },
        {
            "type": "node",
            "id": 12293738263,
            "lat": 45.8219455,
            "lon": 13.3355195,
            "timestamp": "2024-10-28T11:18:58Z",
            "version": 5,
            "changeset": 158450970,
            "user": "\u0110uro Ji\u0159\u00ed",
            "uid": 14617702,
            "tags": {
                "brand": "United Colors of Benetton",
                "brand:wikidata": "Q817139",
                "name": "United Colors of Benetton",
                "shop": "clothes",
                "short_name": "Benetton",
                "wheelchair": "yes"
            }
        },
        {
            "type": "node",
            "id": 12296323076,
            "lat": 45.8218083,
            "lon": 13.3360138,
            "timestamp": "2024-10-29T11:45:43Z",
            "version": 1,
            "changeset": 158494150,
            "user": "\u0110uro Ji\u0159\u00ed",
            "uid": 14617702,
            "tags": {
                "addr:city": "Cervignano del Friuli",
                "addr:housenumber": "38",
                "addr:postcode": "33052",
                "addr:street": "Via Roma",
                "branch": "spesa facile",
                "brand": "Conad",
                "brand:wikidata": "Q639075",
                "brand:wikipedia": "it:Conad",
                "level": "0",
                "name": "Conad spesa facile",
                "shop": "supermarket",
                "wheelchair": "yes"
            }
        },
        {
            "type": "node",
            "id": 12297709213,
            "lat": 45.8342947,
            "lon": 13.193985,
            "timestamp": "2024-10-29T21:30:02Z",
            "version": 1,
            "changeset": 158517737,
            "user": "\u0110uro Ji\u0159\u00ed",
            "uid": 14617702,
            "tags": {
                "amenity": "fuel",
                "brand": "Agip",
                "brand:wikidata": "Q1634762",
                "compressed_air": "yes",
                "fuel:diesel": "yes",
                "fuel:octane_100": "yes",
                "fuel:octane_95": "yes",
                "name": "Agip",
                "opening_hours": "24/7",
                "operator": "Geff S.R.L.",
                "ref:mise": "45246",
                "self_service": "yes",
                "wheelchair": "yes"
            }
        },
        {
            "type": "node",
            "id": 12853010134,
            "lat": 45.6889712,
            "lon": 13.137949,
            "timestamp": "2025-07-22T11:56:29Z",
            "version": 3,
            "changeset": 169289093,
            "user": "\u0110uro Ji\u0159\u00ed",
            "uid": 14617702,
            "tags": {
                "addr:city": "Lignano Sabbiadoro",
                "amenity": "cafe",
                "check_date": "2025-05-21",
                "check_date:currency:XBT": "2025-05-21",
                "currency:XBT": "yes",
                "description": "The bar at Hotel Aurora is open to non-hotel guests as well. Please note that Bitcoin payments are only accepted at the bar, not within the hotel itself.",
                "email": "fritula88@gmail.com",
                "name": "Aurora",
                "opening_hours": "Mo-Su 09:00-23:00",
                "payment:lightning": "yes",
                "payment:lightning_contactless": "yes",
                "payment:onchain": "no",
                "source": "BTCmap add location form, confirmed by email with business owner"
            }
        },
        {
            "type": "node",
            "id": 13082333300,
            "lat": 45.6530079,
            "lon": 13.7788075,
            "timestamp": "2025-08-19T18:20:09Z",
            "version": 1,
            "changeset": 170685882,
            "user": "player_sgs",
            "uid": 9466448,
            "tags": {
                "addr:city": "Trieste",
                "addr:housenumber": "16a",
                "addr:street": "Via San Francesco d'Assisi",
                "brand": "Spar",
                "brand:wikidata": "Q610492",
                "name": "Despar",
                "shop": "supermarket"
            }
        },
        {
            "type": "node",
            "id": 13147778501,
            "lat": 45.6483696,
            "lon": 13.7668272,
            "timestamp": "2025-11-08T21:03:54Z",
            "version": 7,
            "changeset": 174394483,
            "user": "Ryccardo",
            "uid": 2884921,
            "tags": {
                "addr:housenumber": "2",
                "addr:street": "Piazza di Cavana",
                "brand": "Spar",
                "brand:wikidata": "Q610492",
                "name": "Despar",
                "phone": "+39 040 271225",
                "ref:vatin": "IT00882800212",
                "shop": "supermarket"
            }
        },
        {
            "type": "node",
            "id": 13191042346,
            "lat": 45.94572,
            "lon": 13.6219099,
            "timestamp": "2025-10-03T17:17:00Z",
            "version": 2,
            "changeset": 172802603,
            "user": "BitcoinMonfalcone",
            "uid": 20605179,
            "tags": {
                "addr:city": "Gorizia",
                "addr:housenumber": "15",
                "addr:postcode": "34170",
                "addr:street": "Via Giovanni Boccaccio",
                "currency:XBT": "yes",
                "name": "Luca Sossou",
                "opening_hours": "mart. giov. sab. 08:00-12:30",
                "payment:lightning": "yes",
                "payment:onchain": "yes",
                "shop": "greengrocer",
                "survey:date": "2025-10-03"
            }
        },
        {
            "type": "node",
            "id": 13238719968,
            "lat": 45.8056369,
            "lon": 13.5083284,
            "timestamp": "2025-10-17T09:49:53Z",
            "version": 2,
            "changeset": 173401958,
            "user": "BitcoinMonfalcone",
            "uid": 20605179,
            "tags": {
                "addr:city": "Staranzano",
                "addr:housenumber": "39",
                "addr:postcode": "34079",
                "addr:street": "Via Trieste",
                "currency:XBT": "yes",
                "name": "Coprivez",
                "operator": "Marco Coprivez",
                "payment:lightning": "yes",
                "payment:onchain": "yes",
                "shop": "trade",
                "survey:date": "2025-10-16",
                "trade": "building_materials",
                "website": "https://www.coprivez.it/"
            }
        },
        {
            "type": "node",
            "id": 13238749067,
            "lat": 45.9166869,
            "lon": 13.6203639,
            "timestamp": "2025-10-17T09:46:04Z",
            "version": 1,
            "changeset": 173401802,
            "user": "BitcoinMonfalcone",
            "uid": 20605179,
            "tags": {
                "addr:city": "\u0160empeter pri Gorici, Slovenia",
                "addr:housenumber": "6",
                "addr:postcode": "5290",
                "addr:street": "Mednarodni prehod",
                "currency:XBT": "yes",
                "name": "Nis Media doo",
                "office": "advertising_agency",
                "payment:lightning": "yes",
                "payment:onchain": "yes",
                "phone": "+393478431602",
                "website": "https://www.nismedia.si/"
            }
        },
        {
            "type": "node",
            "id": 13295299067,
            "lat": 45.2266252,
            "lon": 13.5959457,
            "timestamp": "2025-12-16T00:14:21Z",
            "version": 3,
            "changeset": 175983305,
            "user": "Comino",
            "uid": 6794624,
            "tags": {
                "addr:city": "Pore\u010d",
                "addr:housenumber": "4",
                "addr:postcode": "52440",
                "addr:street": "Ulica Bo\u017ee Milanovi\u0107a",
                "check_date": "2025-12-15",
                "check_date:currency:XBT": "2025-12-15",
                "contact:facebook": "Marleytattoo1",
                "contact:instagram": "marleytattooporecin",
                "currency:XBT": "yes",
                "description": "Imaginative artists, a relaxing atmosphere, a clean and safe environment are the most important features.",
                "level": "0",
                "name": "Marley",
                "opening_hours": "Mo-Fr 10:00-18:00",
                "payment:lightning": "yes",
                "payment:lightning_contactless": "yes",
                "payment:onchain": "yes",
                "phone": "+385 97 764 8077",
                "piercing": "yes",
                "shop": "tattoo",
                "survey:date": "2025-11-10",
                "website": "https://marley-tattoo.com/"
            }
        },
        {
            "type": "node",
            "id": 13335551222,
            "lat": 45.8074249,
            "lon": 13.534488,
            "timestamp": "2025-11-27T08:49:17Z",
            "version": 2,
            "changeset": 175187505,
            "user": "BitcoinMonfalcone",
            "uid": 20605179,
            "tags": {
                "addr:city": "Monfalcone",
                "addr:housenumber": "63",
                "addr:postcode": "34074",
                "addr:street": "Via Fratelli Rosselli",
                "currency:XBT": "yes",
                "name": "La Magia Verde",
                "opening_hours": "Mo-Su 09:00-21:00",
                "operator": "Sabrina",
                "payment:lightning": "yes",
                "payment:onchain": "yes",
                "phone": "+39 0481 43091",
                "shop": "herbalist",
                "survey:date": "2025-11-26"
            }
        },
        {
            "type": "way",
            "id": 36363657,
            "timestamp": "2024-10-01T10:07:58Z",
            "version": 3,
            "changeset": 157331483,
            "user": "Flight777",
            "uid": 9925732,
            "nodes": [
                424093562,
                424093563,
                424093564,
                424093565,
                424093566,
                424093567,
                424093568,
                424093569,
                424093570,
                424093571,
                424093572,
                424093562
            ],
            "tags": {
                "brand": "Spar",
                "brand:wikidata": "Q610492",
                "building": "yes",
                "height": "9 m",
                "it:fvg:ctrn:code": "4AED",
                "it:fvg:ctrn:revision": "1A0",
                "name": "Despar",
                "shop": "supermarket"
            }
        },
        {
            "type": "way",
            "id": 36366583,
            "timestamp": "2019-04-08T20:24:10Z",
            "version": 5,
            "changeset": 69021897,
            "user": "Capsia",
            "uid": 9315401,
            "nodes": [
                424130284,
                424130286,
                424130287,
                424130289,
                424130284
            ],
            "tags": {
                "addr:city": "Gorizia",
                "addr:housenumber": "4",
                "addr:postcode": "34170",
                "addr:street": "Via Brigata Campobasso",
                "addr:unit": "A",
                "brand": "Spar",
                "brand:wikidata": "Q610492",
                "brand:wikipedia": "en:Spar (retailer)",
                "building": "yes",
                "fax": "+39 0481 393398",
                "height": "8 m",
                "it:fvg:ctrn:code": "4AED",
                "it:fvg:ctrn:revision": "1A0",
                "name": "Despar",
                "opening_hours": "Mo-Sa 08:30-13:00, 16:00-19:30",
                "opening_hours:url": "https://www.despar.it/it/punto-vendita-despar/478/gorizia/",
                "payment:cards": "yes",
                "payment:cash": "yes",
                "payment:coins": "yes",
                "payment:credit_cards": "yes",
                "payment:mastercard": "yes",
                "payment:visa": "yes",
                "phone": "+39 0481 392440",
                "shop": "supermarket"
            }
        },
        {
            "type": "way",
            "id": 36398333,
            "timestamp": "2022-06-29T21:40:17Z",
            "version": 8,
            "changeset": 123020808,
            "user": "fabiotofy",
            "uid": 684800,
            "nodes": [
                424472572,
                2532130014,
                424472573,
                424472574,
                970523079,
                424472575,
                424472576,
                2217400047,
                424472572
            ],
            "tags": {
                "brand": "Conad",
                "brand:wikidata": "Q639075",
                "brand:wikipedia": "it:Conad",
                "building": "yes",
                "name": "Conad",
                "official_name": "Nova S.r.l.",
                "opening_hours": "Mo-Sa 08:30-19:30",
                "phone": "+39 040 215433",
                "ref:vatin": "IT01016760322",
                "shop": "supermarket",
                "website": "https://www.conad.it/"
            }
        },
        {
            "type": "way",
            "id": 36432346,
            "timestamp": "2022-10-11T10:55:40Z",
            "version": 5,
            "changeset": 127352396,
            "user": "\u0110uro Ji\u0159\u00ed",
            "uid": 14617702,
            "nodes": [
                424796657,
                424796658,
                424796659,
                424796660,
                424796661,
                424796662,
                424796663,
                424796664,
                424796657
            ],
            "tags": {
                "addr:city": "San Giorgio di Nogaro",
                "addr:housenumber": "8",
                "addr:postcode": "33058",
                "addr:street": "Via Leonardo da Vinci",
                "air_conditioning": "yes",
                "brand": "Conad",
                "brand:wikidata": "Q639075",
                "building": "supermarket",
                "building:levels": "1",
                "height": "5 m",
                "it:fvg:ctrn:code": "4AIN",
                "it:fvg:ctrn:revision": "1AN",
                "name": "Conad",
                "operator": "Conad",
                "payment:american_express": "yes",
                "payment:apple_pay": "yes",
                "payment:cash": "yes",
                "payment:coins": "yes",
                "payment:contactless": "yes",
                "payment:credit_cards": "yes",
                "payment:debit_cards": "yes",
                "payment:google_pay": "yes",
                "payment:mastercard": "yes",
                "payment:visa": "yes",
                "payment:visa_debit": "yes",
                "payment:visa_electron": "yes",
                "shop": "supermarket",
                "stroller": "yes",
                "website": "https://www.conad.it/ricerca-negozi/negozio.009096.html",
                "wheelchair": "yes"
            }
        },
        {
            "type": "way",
            "id": 36688305,
            "timestamp": "2025-02-13T08:48:58Z",
            "version": 2,
            "changeset": 162457374,
            "user": "alessandrocarmeli",
            "uid": 12294600,
            "nodes": [
                12154000001,
                426498501,
                426498502,
                426498503,
                426498504,
                426498506,
                12154000001
            ],
            "tags": {
                "brand": "Spar",
                "brand:wikidata": "Q610492",
                "building": "industrial",
                "height": "7 m",
                "internet_access": "wlan",
                "it:fvg:ctrn:code": "4AIN",
                "it:fvg:ctrn:revision": "1A0",
                "man_made": "works",
                "name": "Despar",
                "opening_hours": "Mo-Sa 08:00-19:30; Su 08:30-13:00",
                "shop": "supermarket"
            }
        },
        {
            "type": "way",
            "id": 36689109,
            "timestamp": "2024-11-02T18:28:23Z",
            "version": 15,
            "changeset": 158671562,
            "user": "mircozorzo",
            "uid": 224342,
            "nodes": [
                5301245329,
                5301245298,
                426507794,
                426507795,
                426507796,
                426507797,
                426507798,
                426507799,
                426507800,
                426507801,
                426507802,
                426507803,
                426507804,
                426507805,
                426507778,
                426507779,
                426507780,
                5301244678,
                5301244665,
                426563660,
                5301244668,
                426563659,
                426563658,
                426563655,
                5301244681,
                5301244677,
                5301244680,
                5301245329
            ],
            "tags": {
                "addr:city": "Duino Aurisina / Devin - Nabre\u017eina",
                "addr:housenumber": "5f",
                "addr:place": "Duino / Devin",
                "addr:postcode": "34011",
                "branch": "Superstore",
                "brand": "Conad",
                "brand:wikidata": "Q639075",
                "brand:wikipedia": "it:Conad",
                "building": "commercial",
                "facebook": "https://www.facebook.com/Conad/?fref=ts",
                "height": "13 m",
                "it:fvg:ctrn:code": "4AIN",
                "it:fvg:ctrn:revision": "1AM",
                "name": "Conad",
                "official_name": "B2C Supermercati Sistiana S.a.S. di Bossi Alessandro e C.",
                "opening_hours": "08:30-20:00",
                "phone": "+39 040 208357",
                "ref:vatin": "IT01318890322",
                "shop": "supermarket",
                "website": "https://www.conad.it/"
            }
        },
        {
            "type": "way",
            "id": 36695013,
            "timestamp": "2022-07-21T17:27:54Z",
            "version": 15,
            "changeset": 123903335,
            "user": "Cascafico",
            "uid": 361003,
            "nodes": [
                426567425,
                1421417966,
                426567427,
                426567428,
                426567429,
                426567430,
                426567431,
                426567432,
                426567410,
                426567412,
                426567413,
                426567414,
                426567425
            ],
            "tags": {
                "addr:city": "Duino Aurisina / Devin - Nabre\u017eina",
                "addr:housenumber": "24h",
                "addr:place": "Sistiana / Sesljan",
                "addr:postcode": "34011",
                "brand": "Conad",
                "brand:wikidata": "Q639075",
                "brand:wikipedia": "it:Conad",
                "building": "supermarket",
                "fax": "+39 040 299231",
                "height": "8 m",
                "it:fvg:ctrn:code": "4AED",
                "it:fvg:ctrn:revision": "1AN",
                "name": "Conad",
                "opening_hours": "Mo-Sa 08:30-19:30; PH off",
                "operator": "B2C Supermercati Sistiana S.a.s.",
                "phone": "+39 040 299465;+39 040 291496;+39 040 299231",
                "ref:vatin": "IT01318890322",
                "shop": "supermarket",
                "website": "https://www.conad.it/"
            }
        },
        {
            "type": "way",
            "id": 36718512,
            "timestamp": "2024-10-01T09:56:21Z",
            "version": 3,
            "changeset": 157331058,
            "user": "Flight777",
            "uid": 9925732,
            "nodes": [
                426810606,
                426810607,
                426810608,
                426810609,
                426810610,
                426810606
            ],
            "tags": {
                "brand": "Spar",
                "brand:wikidata": "Q610492",
                "building": "yes",
                "height": "3 m",
                "it:fvg:ctrn:code": "4AED",
                "it:fvg:ctrn:revision": "1AN",
                "name": "Despar",
                "shop": "supermarket"
            }
        },
        {
            "type": "way",
            "id": 133134627,
            "timestamp": "2023-07-12T11:48:31Z",
            "version": 8,
            "changeset": 138419467,
            "user": "Cascafico",
            "uid": 361003,
            "nodes": [
                1464927909,
                1464927870,
                1464927852,
                1464927850,
                1464927846,
                1464927843,
                1464927841,
                1464927838,
                1464927845,
                1464927896,
                1674485197,
                228115007,
                1674485199,
                1464927909
            ],
            "tags": {
                "amenity": "fuel",
                "brand": "Tamoil",
                "brand:wikidata": "Q706793",
                "fuel:diesel": "yes",
                "fuel:lpg": "yes",
                "fuel:octane_100": "yes",
                "fuel:octane_98": "yes",
                "highway": "services",
                "name": "Tamoil",
                "old_name": "Repsol",
                "ref:mise": "28291",
                "toilets": "yes"
            }
        },
        {
            "type": "way",
            "id": 133742289,
            "timestamp": "2025-09-26T10:36:20Z",
            "version": 10,
            "changeset": 172478549,
            "user": "alessandrocarmeli",
            "uid": 12294600,
            "nodes": [
                8996720443,
                9692147223,
                9692142812,
                1472015855,
                1472015853,
                424647844,
                424647843,
                424647841,
                8996720441,
                8996720477,
                8996720443
            ],
            "tags": {
                "addr:city": "Trieste",
                "addr:housenumber": "102/1",
                "addr:postcode": "34137",
                "addr:street": "Via dell'Istria",
                "brand": "Spar",
                "brand:wikidata": "Q610492",
                "brand:wikipedia": "da:Eurospar",
                "building": "yes",
                "name": "Eurospar",
                "opening_hours": "Mo-Sa 08:00-20:30; Su 08:30-20:00",
                "shop": "supermarket",
                "type": "multipolygon"
            }
        },
        {
            "type": "way",
            "id": 193292092,
            "timestamp": "2023-03-24T12:57:54Z",
            "version": 10,
            "changeset": 134066806,
            "user": "damjang",
            "uid": 97922,
            "nodes": [
                2038033625,
                9013205981,
                9013205979,
                9013205978,
                9013205980,
                2038033628,
                2038033624,
                2038033626,
                2038033632,
                2038033631,
                2038033629,
                2038033630,
                2038033625
            ],
            "tags": {
                "addr:city": "Koper",
                "addr:country": "SI",
                "addr:housenumber": "30",
                "addr:postcode": "6000",
                "addr:street": "Ulica 15. maja / Via XV maggio",
                "brand": "Spar",
                "brand:wikidata": "Q610492",
                "brand:wikipedia": "en:SPAR (retailer)",
                "building": "supermarket",
                "name": "Spar",
                "shop": "supermarket",
                "wheelchair": "yes"
            }
        },
        {
            "type": "way",
            "id": 303709836,
            "timestamp": "2021-11-24T18:27:26Z",
            "version": 4,
            "changeset": 114193008,
            "user": "weedek",
            "uid": 8285024,
            "nodes": [
                3081152684,
                3081152685,
                9281200823,
                9281200829,
                3081152686,
                9281200822,
                3081152688,
                3081152687,
                3081152690,
                3791983718,
                3081152689,
                3081152684
            ],
            "tags": {
                "addr:city": "Pivka",
                "addr:housenumber": "18a",
                "addr:postcode": "6257",
                "addr:street": "Postojnska cesta",
                "brand": "Spar",
                "brand:wikidata": "Q610492",
                "brand:wikipedia": "en:SPAR (retailer)",
                "building": "yes",
                "name": "Spar",
                "opening_hours": "Mo-Fr 08:00-20:00; Sa 08:00-17:00; Su 08:00-13:00",
                "phone": "057570311",
                "shop": "supermarket"
            }
        },
        {
            "type": "way",
            "id": 359408216,
            "timestamp": "2024-12-19T14:02:00Z",
            "version": 8,
            "changeset": 160396436,
            "user": "Pipi Ferry 99",
            "uid": 20953706,
            "nodes": [
                3641307006,
                3641307005,
                3641307002,
                3641307003,
                3641307001,
                8197594165,
                8197594164,
                8197594166,
                3641307004,
                3641307006
            ],
            "tags": {
                "addr:city": "Ajdov\u0161\u010dina",
                "addr:housenumber": "25",
                "addr:postcode": "5270",
                "addr:street": "Tovarni\u0161ka cesta",
                "branch": "Ajdov\u0161\u010dina",
                "brand": "Spar",
                "brand:wikidata": "Q610492",
                "brand:wikipedia": "en:Spar (retailer)",
                "building": "yes",
                "disused": "yes",
                "name": "Spar",
                "opening_hours": "Mo-Sa 8:00-20:00; Su 8:00-12:00",
                "shop": "supermarket",
                "source": "https://www.spar.si/sl_SI/trgovine/spar-ajdovscina.html"
            }
        },
        {
            "type": "way",
            "id": 375831697,
            "timestamp": "2025-10-30T10:26:01Z",
            "version": 6,
            "changeset": 173968344,
            "user": "Bojan\ud83d\udcf7",
            "uid": 792910,
            "nodes": [
                3791720592,
                3791720589,
                3791720584,
                3791720580,
                3791720566,
                3791720574,
                3791720585,
                3791720587,
                3791720592
            ],
            "tags": {
                "addr:city": "Ilirska Bistrica",
                "addr:housenumber": "18",
                "addr:postcode": "6250",
                "addr:street": "Vilharjeva cesta",
                "brand": "Spar",
                "brand:wikidata": "Q610492",
                "building": "yes",
                "name": "Spar",
                "opening_hours": "Mo-Fr 08:00-20:00, Sa 08:00-20:00, Su 08:00-13:00",
                "phone": "05 710 08 06",
                "shop": "supermarket"
            }
        },
        {
            "type": "way",
            "id": 460066395,
            "timestamp": "2025-01-06T14:19:50Z",
            "version": 7,
            "changeset": 161060101,
            "user": "mpbin",
            "uid": 21850090,
            "nodes": [
                4557487551,
                4557487550,
                4557487549,
                4557487548,
                4557487551
            ],
            "tags": {
                "brand": "MediaWorld",
                "brand:wikidata": "Q2381223",
                "check_date:opening_hours": "2024-10-14",
                "indoor": "room",
                "layer": "1",
                "level": "1",
                "name": "MediaWorld",
                "opening_hours:signed": "no",
                "operator": "Mediamarket S.p.A.",
                "ref": "27",
                "shop": "electronics",
                "wheelchair": "yes"
            }
        },
        {
            "type": "way",
            "id": 461916824,
            "timestamp": "2025-10-28T14:12:00Z",
            "version": 6,
            "changeset": 173885301,
            "user": "\u0110uro Ji\u0159\u00ed",
            "uid": 14617702,
            "nodes": [
                4573515000,
                4573514999,
                4573514998,
                4573514997,
                4573515000
            ],
            "tags": {
                "brand": "Guess",
                "brand:wikidata": "Q2470307",
                "check_date": "2025-10-28",
                "check_date:opening_hours": "2024-10-14",
                "indoor": "room",
                "layer": "2",
                "level": "2",
                "name": "Guess",
                "opening_hours:signed": "no",
                "ref": "175",
                "shop": "clothes",
                "wheelchair": "yes"
            }
        },
        {
            "type": "way",
            "id": 461916825,
            "timestamp": "2025-10-25T15:24:19Z",
            "version": 6,
            "changeset": 173760958,
            "user": "btcitnet",
            "uid": 22525435,
            "nodes": [
                4573515004,
                4573515003,
                4573515002,
                4573515001,
                4573515004
            ],
            "tags": {
                "addr:city": "Villesse",
                "addr:housenumber": "2",
                "addr:postcode": "34070",
                "addr:street": "Localit\u00e0 Maranuz",
                "brand": "Foot Locker",
                "brand:wikidata": "Q63335",
                "check_date:opening_hours": "2024-10-14",
                "indoor": "room",
                "layer": "2",
                "level": "2",
                "name": "Foot Locker",
                "opening_hours:signed": "no",
                "phone": "+39 0481043631",
                "ref": "174",
                "shop": "shoes",
                "wheelchair": "yes"
            }
        },
        {
            "type": "way",
            "id": 461916830,
            "timestamp": "2025-10-28T14:10:33Z",
            "version": 6,
            "changeset": 173885301,
            "user": "\u0110uro Ji\u0159\u00ed",
            "uid": 14617702,
            "nodes": [
                4573515029,
                4573515028,
                4573515027,
                4573515026,
                4573515025,
                4573515024,
                4573515023,
                4573515022,
                4573515029
            ],
            "tags": {
                "brand": "H&M",
                "brand:wikidata": "Q188326",
                "check_date": "2025-10-28",
                "check_date:opening_hours": "2024-10-14",
                "indoor": "room",
                "layer": "2",
                "level": "2",
                "name": "H&M",
                "opening_hours:signed": "no",
                "ref": "169",
                "shop": "clothes",
                "wheelchair": "yes"
            }
        },
        {
            "type": "way",
            "id": 461916865,
            "timestamp": "2025-10-28T14:08:39Z",
            "version": 6,
            "changeset": 173885301,
            "user": "\u0110uro Ji\u0159\u00ed",
            "uid": 14617702,
            "nodes": [
                4573515209,
                4573515208,
                4573515207,
                4573515206,
                4573515205,
                4573515204,
                4573515203,
                4573515202,
                4573515201,
                4573515200,
                4573515209
            ],
            "tags": {
                "brand": "OVS",
                "brand:wikidata": "Q2042514",
                "check_date": "2025-10-28",
                "check_date:opening_hours": "2024-10-14",
                "indoor": "room",
                "layer": "2",
                "level": "2",
                "name": "OVS",
                "opening_hours:signed": "no",
                "ref": "138",
                "shop": "clothes",
                "wheelchair": "yes"
            }
        },
        {
            "type": "way",
            "id": 461916901,
            "timestamp": "2025-01-14T10:44:48Z",
            "version": 8,
            "changeset": 161340056,
            "user": "DnaX",
            "uid": 69259,
            "nodes": [
                4573515394,
                4573515393,
                4573515392,
                4573515391,
                4573515394
            ],
            "tags": {
                "brand": "GrandVision",
                "brand:wikidata": "Q105644278",
                "check_date:opening_hours": "2024-10-14",
                "indoor": "room",
                "layer": "2",
                "level": "2",
                "name": "GrandVision",
                "opening_hours:signed": "no",
                "shop": "optician",
                "wheelchair": "yes"
            }
        },
        {
            "type": "way",
            "id": 461916926,
            "timestamp": "2024-10-14T10:22:01Z",
            "version": 5,
            "changeset": 157869413,
            "user": "\u0110uro Ji\u0159\u00ed",
            "uid": 14617702,
            "nodes": [
                4573515554,
                4573515553,
                4573515552,
                4573515551,
                4573515550,
                4573515549,
                4573515548,
                4573515547,
                4573515546,
                4573515545,
                4573515544,
                4573515543,
                4573515542,
                4573515541,
                4573515554
            ],
            "tags": {
                "brand": "H&M",
                "brand:wikidata": "Q188326",
                "brand:wikipedia": "en:H&M",
                "check_date:opening_hours": "2024-10-14",
                "indoor": "room",
                "layer": "1",
                "level": "1",
                "name": "H&M",
                "opening_hours:signed": "no",
                "ref": "70",
                "shop": "clothes",
                "wheelchair": "yes"
            }
        },
        {
            "type": "way",
            "id": 461916929,
            "timestamp": "2024-10-14T10:42:23Z",
            "version": 5,
            "changeset": 157869413,
            "user": "\u0110uro Ji\u0159\u00ed",
            "uid": 14617702,
            "nodes": [
                4573515567,
                4573515566,
                4573515565,
                4573515564,
                4573515567
            ],
            "tags": {
                "brand": "Calzedonia",
                "brand:wikidata": "Q1027874",
                "check_date:opening_hours": "2024-10-14",
                "indoor": "room",
                "layer": "1",
                "level": "1",
                "name": "Calzedonia",
                "opening_hours:signed": "no",
                "ref": "89",
                "shop": "clothes",
                "wheelchair": "yes"
            }
        },
        {
            "type": "way",
            "id": 461916931,
            "timestamp": "2024-10-14T10:42:19Z",
            "version": 5,
            "changeset": 157869413,
            "user": "\u0110uro Ji\u0159\u00ed",
            "uid": 14617702,
            "nodes": [
                4573515575,
                4573515574,
                4573515573,
                4573515572,
                4573515575
            ],
            "tags": {
                "brand": "Intimissimi",
                "brand:wikidata": "Q305404",
                "check_date:opening_hours": "2024-10-14",
                "clothes": "underwear",
                "indoor": "room",
                "layer": "1",
                "level": "1",
                "name": "Intimissimi",
                "opening_hours:signed": "no",
                "ref": "87",
                "shop": "clothes",
                "wheelchair": "yes"
            }
        },
        {
            "type": "way",
            "id": 461916938,
            "timestamp": "2024-10-14T10:27:05Z",
            "version": 6,
            "changeset": 157869413,
            "user": "\u0110uro Ji\u0159\u00ed",
            "uid": 14617702,
            "nodes": [
                4573515605,
                4573515604,
                4573515603,
                4573515602,
                4573515605
            ],
            "tags": {
                "brand": "L'Erbolario",
                "brand:wikidata": "Q116304294",
                "check_date:opening_hours": "2024-10-14",
                "indoor": "room",
                "layer": "1",
                "level": "1",
                "name": "L'Erbolario",
                "opening_hours:signed": "no",
                "ref": "80",
                "shop": "herbalist",
                "wheelchair": "yes"
            }
        },
        {
            "type": "way",
            "id": 461916956,
            "timestamp": "2025-10-28T14:09:41Z",
            "version": 7,
            "changeset": 173885301,
            "user": "\u0110uro Ji\u0159\u00ed",
            "uid": 14617702,
            "nodes": [
                4573515700,
                4573515699,
                4573515698,
                4573515697,
                4573515696,
                4573515695,
                4573515694,
                4573515693,
                4573515700
            ],
            "tags": {
                "brand": "OVS",
                "brand:wikidata": "Q2042514",
                "check_date": "2025-10-28",
                "check_date:opening_hours": "2024-10-14",
                "indoor": "room",
                "layer": "1",
                "level": "1",
                "name": "OVS",
                "opening_hours:signed": "no",
                "ref": "53",
                "shop": "clothes",
                "wheelchair": "yes"
            }
        },
        {
            "type": "way",
            "id": 461916988,
            "timestamp": "2025-10-23T08:44:00Z",
            "version": 6,
            "changeset": 173662069,
            "user": "btcitnet",
            "uid": 22525435,
            "nodes": [
                4573515858,
                4573515857,
                4573515856,
                4573515855,
                4573515854,
                4573515853,
                4573515858
            ],
            "tags": {
                "addr:city": "Villesse",
                "addr:housenumber": "2",
                "addr:postcode": "34070",
                "addr:street": "Localit\u00e0 Maranuz",
                "brand": "Kasanova",
                "brand:wikidata": "Q116214505",
                "check_date:opening_hours": "2024-10-14",
                "indoor": "room",
                "layer": "1",
                "level": "1",
                "name": "Kasanova",
                "opening_hours:signed": "no",
                "ref": "3",
                "shop": "houseware",
                "wheelchair": "yes"
            }
        },
        {
            "type": "way",
            "id": 461917002,
            "timestamp": "2024-10-14T10:24:07Z",
            "version": 7,
            "changeset": 157869413,
            "user": "\u0110uro Ji\u0159\u00ed",
            "uid": 14617702,
            "nodes": [
                4573515930,
                4573515929,
                4573515928,
                4573515927,
                4573515930
            ],
            "tags": {
                "brand": "Tezenis",
                "brand:wikidata": "Q28056374",
                "check_date:opening_hours": "2024-10-14",
                "clothes": "women;underwear;swimwear;men;children",
                "indoor": "room",
                "layer": "1",
                "level": "1",
                "name": "Tezenis",
                "opening_hours:signed": "no",
                "ref": "17",
                "shop": "clothes",
                "wheelchair": "yes"
            }
        },
        {
            "type": "way",
            "id": 461917015,
            "timestamp": "2025-10-26T18:38:53Z",
            "version": 8,
            "changeset": 173807966,
            "user": "btcitnet",
            "uid": 22525435,
            "nodes": [
                4573515990,
                4573515987,
                4573515988,
                4573515989,
                4573515990
            ],
            "tags": {
                "addr:city": "Villesse",
                "addr:housenumber": "2",
                "addr:place": "Maranuz",
                "addr:postcode": "34070",
                "brand": "Decathlon",
                "brand:wikidata": "Q509349",
                "contact:phone": "+39 0481 069399",
                "contact:website": "https://www.decathlon.it/",
                "indoor": "room",
                "internet_access": "wlan",
                "internet_access:fee": "no",
                "layer": "1",
                "level": "1",
                "name": "Decathlon",
                "opening_hours": "Mo-Su 09:30-20:00",
                "ref": "34",
                "shop": "sports",
                "wheelchair": "yes"
            }
        },
        {
            "type": "way",
            "id": 556914003,
            "timestamp": "2019-03-23T11:10:22Z",
            "version": 3,
            "changeset": 68441348,
            "user": "Badojo",
            "uid": 8189075,
            "nodes": [
                5620007721,
                5371730728,
                5371730727,
                5371730729,
                5620007721
            ],
            "tags": {
                "addr:street": "Bujska",
                "brand": "Spar",
                "brand:wikidata": "Q610492",
                "brand:wikipedia": "en:Spar (retailer)",
                "building": "yes",
                "name": "Spar",
                "shop": "supermarket"
            }
        },
        {
            "type": "way",
            "id": 821095346,
            "timestamp": "2025-09-09T18:31:52Z",
            "version": 4,
            "changeset": 171700902,
            "user": "Felixplore",
            "uid": 20047316,
            "nodes": [
                7666609371,
                12535109881,
                12535109882,
                7666609372,
                12535109883,
                12535109884,
                7666609373,
                7666609374,
                12535109879,
                12535109880,
                7666609371
            ],
            "tags": {
                "baby_feeding": "no",
                "brand": "Spar",
                "brand:wikidata": "Q610492",
                "brand:wikipedia": "en:Spar (retailer)",
                "building": "supermarket",
                "check_date": "2025-09-08",
                "name": "Spar",
                "opening_hours": "Mo-Sa 07:00-21:00; Su 08:00-21:00",
                "shop": "supermarket",
                "wheelchair": "yes"
            }
        },
        {
            "type": "way",
            "id": 842326702,
            "timestamp": "2026-01-01T02:34:37Z",
            "version": 5,
            "changeset": 176691625,
            "user": "JanezPavelZebovec",
            "uid": 12144955,
            "nodes": [
                7858206507,
                13422421571,
                7858206506,
                11165609487,
                11165609486,
                7858206505,
                7858206504,
                11165609488,
                11165609489,
                7858206507
            ],
            "tags": {
                "addr:city": "Logatec",
                "addr:housenumber": "16",
                "addr:postcode": "1370",
                "addr:street": "Cesta talcev",
                "branch": "Logatec",
                "brand": "Spar",
                "brand:wikidata": "Q610492",
                "building": "yes",
                "check_date": "2023-10-28",
                "name": "Spar",
                "opening_hours": "Mo-Sa 08:00-20:00; Su,PH off",
                "operator": "SPAR Slovenija",
                "payment:cash": "yes",
                "payment:mastercard": "yes",
                "payment:visa": "yes",
                "phone": "+386 1 759 07 80",
                "shop": "supermarket",
                "wheelchair": "yes"
            }
        },
        {
            "type": "way",
            "id": 842866519,
            "timestamp": "2023-08-12T15:55:23Z",
            "version": 2,
            "changeset": 139793331,
            "user": "alessandrocarmeli",
            "uid": 12294600,
            "nodes": [
                2258065180,
                7862974079,
                7862974080,
                7862974081,
                7862974082,
                7862974083,
                7862973924,
                7862974084,
                7862974085,
                7862974086,
                7862974087,
                2258065180
            ],
            "tags": {
                "brand": "Decathlon",
                "brand:wikidata": "Q509349",
                "brand:wikipedia": "en:Decathlon Group",
                "building:part": "yes",
                "name": "Decathlon",
                "shop": "sports"
            }
        },
        {
            "type": "way",
            "id": 846227795,
            "timestamp": "2020-09-10T21:04:19Z",
            "version": 1,
            "changeset": 90722686,
            "user": "diomascio",
            "uid": 11452467,
            "nodes": [
                424617536,
                7895088034,
                7895088035,
                7895088036,
                424617548,
                424617547,
                424617546,
                424617545,
                424617544,
                424617543,
                424617542,
                424617541,
                424617540,
                424617539,
                424617538,
                424617537,
                424617536
            ],
            "tags": {
                "brand": "Spar",
                "brand:wikidata": "Q610492",
                "brand:wikipedia": "en:Spar (retailer)",
                "building": "yes",
                "name": "Despar",
                "shop": "supermarket"
            }
        },
        {
            "type": "way",
            "id": 846248057,
            "timestamp": "2024-09-18T14:59:44Z",
            "version": 7,
            "changeset": 156777964,
            "user": "alessandrocarmeli",
            "uid": 12294600,
            "nodes": [
                7895239744,
                7895239745,
                7895239746,
                7895239747,
                7895239748,
                7895239749,
                7895239750,
                7895239751,
                7895239752,
                7895239753,
                3682303452,
                3758987482,
                3682303453,
                3682303454,
                7895239743,
                7895239744
            ],
            "tags": {
                "amenity": "fuel",
                "brand": "Tamoil",
                "brand:wikidata": "Q706793",
                "brand:wikipedia": "en:Tamoil",
                "check_date": "2024-07-09",
                "compressed_air": "yes",
                "fuel:diesel": "yes",
                "fuel:octane_95": "yes",
                "name": "Tamoil",
                "opening_hours": "24/7",
                "operator": "T.D.M. S.R.L.",
                "ref:mise": "46821",
                "self_service": "yes",
                "toilets": "no"
            }
        },
        {
            "type": "way",
            "id": 912172591,
            "timestamp": "2023-12-02T00:22:43Z",
            "version": 6,
            "changeset": 144678751,
            "user": "damjang",
            "uid": 97922,
            "nodes": [
                8473608046,
                11388700679,
                8473608047,
                8473608081,
                8473608048,
                528045590,
                8473608050,
                11388667767,
                8473608051,
                11388667766,
                11388667768,
                11388713869,
                11388713870,
                8473608052,
                8473608083,
                11388713871,
                8473608082,
                8473608046
            ],
            "tags": {
                "amenity": "fuel",
                "brand": "Tamoil",
                "brand:wikidata": "Q706793",
                "brand:wikipedia": "en:Tamoil",
                "compressed_air": "yes",
                "fuel:diesel": "yes",
                "fuel:octane_95": "yes",
                "name": "Tamoil Stazione di servizio 6234",
                "opening_hours": "Mo-Fr 08:00-12:00,15:00-19:00; Sa,Su,PH off",
                "operator": "T.D.M. S.r.l.",
                "phone:IT": "800 113330",
                "ref:mise": "47089",
                "website": "https://www.tamoil.it/"
            }
        },
        {
            "type": "way",
            "id": 972050282,
            "timestamp": "2025-10-23T10:30:16Z",
            "version": 4,
            "changeset": 173666555,
            "user": "btcitnet",
            "uid": 22525435,
            "nodes": [
                4551136963,
                1588236215,
                1556912296,
                8281490408,
                4551136956,
                4551136966,
                4551228060,
                4551136973,
                8281490410,
                4551228044,
                4551136969,
                4551136979,
                4551136959,
                4551136954,
                4551136965,
                4551136971,
                4552225269,
                4551136980,
                4551136960,
                8996648273,
                4551136963
            ],
            "tags": {
                "addr:city": "Villesse",
                "addr:housenumber": "1",
                "addr:postcode": "34070",
                "addr:street": "Localit\u00e0 Maranuz",
                "branch": "Villesse",
                "brand": "IKEA",
                "brand:wikidata": "Q54078",
                "brand:wikipedia": "en:IKEA",
                "building": "retail",
                "building:levels": "3",
                "name": "IKEA",
                "opening_hours": "Mo-Fr 09:30-20:00; Sa,Su 09:30-20:30",
                "roof:levels": "0",
                "roof:shape": "flat",
                "shop": "furniture",
                "website": "https://www.ikea.com/it/it/stores/gorizia-villesse/",
                "wheelchair": "yes"
            }
        },
        {
            "type": "way",
            "id": 1343780968,
            "timestamp": "2025-12-19T17:45:19Z",
            "version": 2,
            "changeset": 176150990,
            "user": "Jaka Kranjc",
            "uid": 2442070,
            "nodes": [
                12433554931,
                12433554932,
                12433554933,
                12433554934,
                12433554931
            ],
            "tags": {
                "brand": "Spar",
                "brand:wikidata": "Q610492",
                "building": "yes",
                "name": "Spar",
                "opening_hours": "Mo-Sa 08:00-20:00",
                "shop": "supermarket"
            }
        },
        {
            "type": "way",
            "id": 1395271887,
            "timestamp": "2025-06-14T14:51:53Z",
            "version": 1,
            "changeset": 167616322,
            "user": "alessandrocarmeli",
            "uid": 12294600,
            "nodes": [
                11039453912,
                11039453920,
                11039342204,
                11039453919,
                11039342203,
                11039453905,
                11043628237,
                11043628236,
                424501776,
                424896854,
                11039453912
            ],
            "tags": {
                "addr:city": "Trieste",
                "addr:housenumber": "8",
                "addr:postcode": "34132",
                "addr:street": "Piazza della Libert\u00e0",
                "brand": "Spar",
                "brand:wikidata": "Q610492",
                "brand:wikipedia": "en:SPAR (retailer)",
                "building:part": "yes",
                "check_date": "2024-07-09",
                "name": "Despar",
                "opening_hours": "Mo-Fr 06:30-20:00; Sa 08:00-14:00; Su off",
                "operator": "Despar",
                "shop": "supermarket"
            }
        },
        {
            "type": "way",
            "id": 1453421593,
            "timestamp": "2025-11-24T21:13:53Z",
            "version": 1,
            "changeset": 175085393,
            "user": "alessandrocarmeli",
            "uid": 12294600,
            "nodes": [
                227529033,
                13329092500,
                13329092501,
                13329092502,
                13329092503,
                13329092504,
                13329092505,
                13329092506,
                13329092507,
                13329092508,
                13329092509,
                13329092510,
                13329092511,
                13329092512,
                13329092513,
                13329092514,
                227529033
            ],
            "tags": {
                "amenity": "fuel",
                "brand": "Tamoil",
                "brand:wikidata": "Q706793",
                "fixme": "This object might have been dismantled, please check",
                "fuel:diesel": "yes",
                "fuel:lpg": "yes",
                "fuel:octane_95": "yes",
                "name": "Tamoil",
                "operator": "Autoservice 2000 di Cara Stefano & C. S.N.C.",
                "ref:mise": "26366"
            }
        },
        {
            "type": "relation",
            "id": 7395431,
            "timestamp": "2019-05-24T22:57:52Z",
            "version": 3,
            "changeset": 70601216,
            "user": "PelleB",
            "uid": 221326,
            "members": [
                {
                    "type": "way",
                    "ref": 507676278,
                    "role": "outer"
                },
                {
                    "type": "way",
                    "ref": 507676188,
                    "role": "outer"
                },
                {
                    "type": "way",
                    "ref": 507676277,
                    "role": "outer"
                },
                {
                    "type": "way",
                    "ref": 507676211,
                    "role": "outer"
                }
            ],
            "tags": {
                "brand": "OVS",
                "brand:wikidata": "Q2042514",
                "brand:wikipedia": "en:OVS (company)",
                "indoor": "room",
                "level": "0",
                "name": "OVS",
                "shop": "clothes",
                "type": "multipolygon"
            }
        },
        {
            "type": "relation",
            "id": 7395435,
            "timestamp": "2025-12-27T15:57:59Z",
            "version": 3,
            "changeset": 176489885,
            "user": "Bojan\ud83d\udcf7",
            "uid": 792910,
            "members": [
                {
                    "type": "way",
                    "ref": 251256521,
                    "role": "outer"
                },
                {
                    "type": "way",
                    "ref": 507676215,
                    "role": "outer"
                },
                {
                    "type": "way",
                    "ref": 507676267,
                    "role": "outer"
                },
                {
                    "type": "way",
                    "ref": 507676217,
                    "role": "outer"
                }
            ],
            "tags": {
                "brand": "Spar",
                "brand:wikidata": "Q610492",
                "indoor": "room",
                "level": "0",
                "name": "Interspar",
                "opening_hours": "Mo-Fr 09:00-21:00; Sa 08:00-21:00; Su 09:00-15:00",
                "ref:vatin": "SI32156782",
                "shop": "supermarket",
                "type": "multipolygon"
            }
        },
        {
            "type": "relation",
            "id": 7397339,
            "timestamp": "2019-05-24T22:57:52Z",
            "version": 3,
            "changeset": 70601216,
            "user": "PelleB",
            "uid": 221326,
            "members": [
                {
                    "type": "way",
                    "ref": 507676225,
                    "role": "outer"
                },
                {
                    "type": "way",
                    "ref": 507676281,
                    "role": "outer"
                },
                {
                    "type": "way",
                    "ref": 507676282,
                    "role": "outer"
                },
                {
                    "type": "way",
                    "ref": 507676241,
                    "role": "outer"
                },
                {
                    "type": "way",
                    "ref": 507842020,
                    "role": "outer"
                },
                {
                    "type": "way",
                    "ref": 507676285,
                    "role": "outer"
                }
            ],
            "tags": {
                "brand": "H&M",
                "brand:wikidata": "Q188326",
                "brand:wikipedia": "en:H&M",
                "indoor": "room",
                "level": "0",
                "name": "H&M",
                "shop": "clothes",
                "type": "multipolygon"
            }
        },
        {
            "type": "relation",
            "id": 7397358,
            "timestamp": "2019-05-24T22:57:54Z",
            "version": 3,
            "changeset": 70601216,
            "user": "PelleB",
            "uid": 221326,
            "members": [
                {
                    "type": "way",
                    "ref": 507676195,
                    "role": "outer"
                },
                {
                    "type": "way",
                    "ref": 507676297,
                    "role": "outer"
                },
                {
                    "type": "way",
                    "ref": 507676301,
                    "role": "outer"
                }
            ],
            "tags": {
                "brand": "Calzedonia",
                "brand:wikidata": "Q1027874",
                "brand:wikipedia": "en:Calzedonia",
                "indoor": "room",
                "level": "0",
                "name": "Calzedonia",
                "shop": "clothes",
                "type": "multipolygon"
            }
        },
        {
            "type": "relation",
            "id": 8766302,
            "timestamp": "2025-01-10T10:12:53Z",
            "version": 2,
            "changeset": 161198839,
            "user": "DnaX",
            "uid": 69259,
            "members": [
                {
                    "type": "way",
                    "ref": 629940433,
                    "role": "outer"
                },
                {
                    "type": "way",
                    "ref": 629940486,
                    "role": "outer"
                },
                {
                    "type": "way",
                    "ref": 629940428,
                    "role": "outer"
                },
                {
                    "type": "way",
                    "ref": 629940487,
                    "role": "outer"
                }
            ],
            "tags": {
                "brand": "Salmoiraghi & Vigan\u00f2",
                "brand:wikidata": "Q21272314",
                "indoor": "room",
                "level": "0",
                "name": "Salmoiraghi & Vigan\u00f2",
                "ref": "24/25",
                "shop": "optician",
                "type": "multipolygon"
            }
        },
        {
            "type": "relation",
            "id": 8766313,
            "timestamp": "2024-01-02T12:43:43Z",
            "version": 2,
            "changeset": 145796516,
            "user": "wvdp",
            "uid": 436419,
            "members": [
                {
                    "type": "way",
                    "ref": 629940479,
                    "role": "outer"
                },
                {
                    "type": "way",
                    "ref": 629940448,
                    "role": "outer"
                },
                {
                    "type": "way",
                    "ref": 629940478,
                    "role": "outer"
                },
                {
                    "type": "way",
                    "ref": 629940438,
                    "role": "outer"
                }
            ],
            "tags": {
                "brand": "Intimissimi",
                "brand:wikidata": "Q305404",
                "clothes": "underwear",
                "indoor": "room",
                "level": "0",
                "name": "Intimissimi",
                "ref": "9",
                "shop": "clothes",
                "type": "multipolygon"
            }
        },
        {
            "type": "relation",
            "id": 8766315,
            "timestamp": "2024-01-02T12:43:43Z",
            "version": 2,
            "changeset": 145796516,
            "user": "wvdp",
            "uid": 436419,
            "members": [
                {
                    "type": "way",
                    "ref": 629940479,
                    "role": "outer"
                },
                {
                    "type": "way",
                    "ref": 629940449,
                    "role": "outer"
                },
                {
                    "type": "way",
                    "ref": 629940481,
                    "role": "outer"
                },
                {
                    "type": "way",
                    "ref": 629940437,
                    "role": "outer"
                }
            ],
            "tags": {
                "brand": "Calzedonia",
                "brand:wikidata": "Q1027874",
                "indoor": "room",
                "level": "0",
                "name": "Calzedonia",
                "ref": "7",
                "shop": "clothes",
                "type": "multipolygon"
            }
        },
        {
            "type": "relation",
            "id": 8766320,
            "timestamp": "2024-01-02T12:43:43Z",
            "version": 2,
            "changeset": 145796516,
            "user": "wvdp",
            "uid": 436419,
            "members": [
                {
                    "type": "way",
                    "ref": 629940460,
                    "role": "outer"
                },
                {
                    "type": "way",
                    "ref": 629940459,
                    "role": "outer"
                },
                {
                    "type": "way",
                    "ref": 629940511,
                    "role": "outer"
                },
                {
                    "type": "way",
                    "ref": 629940535,
                    "role": "outer"
                }
            ],
            "tags": {
                "branch": "Book Store",
                "brand": "Mondadori",
                "brand:wikidata": "Q85355",
                "indoor": "room",
                "level": "0",
                "name": "Mondadori",
                "ref": "42",
                "shop": "books",
                "type": "multipolygon"
            }
        },
        {
            "type": "relation",
            "id": 8766324,
            "timestamp": "2024-10-01T09:52:43Z",
            "version": 3,
            "changeset": 157330902,
            "user": "Flight777",
            "uid": 9925732,
            "members": [
                {
                    "type": "way",
                    "ref": 629940509,
                    "role": "outer"
                },
                {
                    "type": "way",
                    "ref": 629940469,
                    "role": "outer"
                },
                {
                    "type": "way",
                    "ref": 629940514,
                    "role": "outer"
                },
                {
                    "type": "way",
                    "ref": 629940468,
                    "role": "outer"
                }
            ],
            "tags": {
                "brand": "Tezenis",
                "brand:wikidata": "Q28056374",
                "clothes": "women;underwear;swimwear;men;children",
                "indoor": "room",
                "level": "0",
                "name": "Tezenis",
                "ref": "3A",
                "shop": "clothes",
                "type": "multipolygon"
            }
        },
        {
            "type": "relation",
            "id": 8766327,
            "timestamp": "2024-01-02T12:43:43Z",
            "version": 2,
            "changeset": 145796516,
            "user": "wvdp",
            "uid": 436419,
            "members": [
                {
                    "type": "way",
                    "ref": 629940517,
                    "role": "outer"
                },
                {
                    "type": "way",
                    "ref": 629940470,
                    "role": "outer"
                },
                {
                    "type": "way",
                    "ref": 629940514,
                    "role": "outer"
                },
                {
                    "type": "way",
                    "ref": 629940464,
                    "role": "outer"
                }
            ],
            "tags": {
                "brand": "Unieuro",
                "brand:wikidata": "Q4004687",
                "indoor": "room",
                "level": "0",
                "name": "Unieuro",
                "ref": "44",
                "shop": "electronics",
                "type": "multipolygon"
            }
        }
    ],
    "telegram": [
        {
            "telegram": "bitcoin-trieste"
        }
    ]
}